"X","vectorName","vectorAddress","postal_code","lat","lon"
514,"Lawrence Graham LLP","Cecil St, Singapore 069535","Singapore 069535",1.280305,103.848906
442,"K K Lee & Partners","57 Lor 27 Geylang, Singapore 388184","Singapore 388184",1.315807,103.883818
879,"Tan Shiew Hwa & Co","Blk 188 Punggol Central #08-279  Singapore 820188","Singapore 820188",1.399395,103.910606
260,"Debbie Hogan, Growth Resources Counseling","24 Springleaf Rise, Singapore 788014","Singapore 788014",1.398852,103.82341
369,"HH Lim Law Chambers","10 High St, Singapore 779433","Singapore 779433",1.2911135,103.8493608
592,"M Nedumaran & Co","14 High St, Singapore 779433","Singapore 779433",1.352083,103.819836
667,"Ong Beng Leong & Co","47 Hill St, Singapore 779365","Singapore 779365",1.352083,103.819836
580,"Low Fook Cheng & Co","120 Hillview Ave #06-08 Kewalram Hillview Singapore 669594","Singapore 669594",1.356779,103.761706
581,"Low Fook Cheng & Co","120 Hillview Ave, Singapore 669594","Singapore 669594",1.356779,103.761706
537,"Legalstudio.com Pte Ltd","45 Club St, Singapore 669422","Singapore 669422",1.2823322,103.8461383
212,"Christopher Yap & Co.","47 Gul Dr, Singapore 629494","Singapore 629494",1.316951,103.666749
784,"Samuel Poon & Co","18 Boon Lay Way #09-149 TradeHub 21 Singapore 609966","Singapore 609966",1.328234,103.753597
785,"Samuel Poon & Co","18 Boon Lay Way, Singapore 609966","Singapore 609966",1.328234,103.753597
19,"""Andreas Vogel & Partner, Rechtsanwaelte, AV & P Legal""","25 International Business Park, Singapore 609916","Singapore 609916",1.324738,103.746782
345,"Gsk Stockmann (S) Pte Ltd","25 International Business Pk #03-79 German Centre Singapore 609916","Singapore 609916",1.324738,103.746782
806,"Shyam Chew & Co","Blk 224 Jurong East St 21 #02-813  Singapore 600224","Singapore 600224",1.341672,103.736536
854,"Tan & Co.","23 Hua Guan Cres, Singapore 589042","Singapore 589042",1.337121,103.784944
790,"Satwant & Associates","3 Jln Bingka   Singapore 588896","Singapore 588896",1.340433,103.779653
402,"Jayne Wong Advocates & Solicitors","144 Up Bt Timah Rd #03-36 Beauty World Centre Singapore 588177","Singapore 588177",1.34234,103.776131
927,"Vicki Heng Law Corpn","140 Up Bt Timah Rd #03-08 Beauty World Plaza Singapore 588176","Singapore 588176",1.341621,103.776156
166,"CH Liau Legal Practice","No. 21, Bukit Batok Crescent, #12-79, WCEGA Tower, 658065, Singapore 588065","Singapore 588065",1.3370543,103.7596015
208,"Christine Seah & Company","52 Jln Binchang, Singapore 573951","Singapore 573951",1.351888,103.846966
406,"Jenny Lee","Blk 261 Bishan St 22 #08-233  Singapore 570261","Singapore 570261",1.35897,103.843393
80,"Andrew & Co","Blk 726 Ang Mo Kio Ave 6 #01-4152  Singapore 560726","Singapore 560726",1.372778,103.846465
555,"Lim & Bangras","50 Hythe Rd   Singapore 557531","Singapore 557531",1.3691,103.8674659
588,"Lutfi Law Corpn","Blk 158 Simei Rd #01-244  Singapore 520158","Singapore 520158",1.34428,103.959547
411,"Jimmy Yap & Co","Blk 235 Pasir Ris St 21 #03-59  Singapore 510235","Singapore 510235",1.373364,103.962321
412,"Jimmy Yap & Co","235 Pasir Ris Street 21, Singapore 510235","Singapore 510235",1.373364,103.962321
329,"Giam Cheng Han & Co","1067 Up Changi Rd Nth   Singapore 507691","Singapore 507691",1.365937,103.97514
330,"Giam Cheng Han & Co","1067 Upper Changi Rd N, Singapore 507691","Singapore 507691",1.365937,103.97514
159,"C.H. Eng & Frois","187 MacPherson Rd, Singapore 488545","Singapore 488545",1.3309439,103.943528
40,"Abdullah Shaik Abubakar","7 Evergreen Gardens, Singapore 468883","Singapore 468883",1.315237,103.934562
666,"Ong Beng Leong & Co","Blk 415 Bedok Nth Ave 2 #13-105  Singapore 460415","Singapore 460415",1.329702,103.930016
937,"W Choo & Company","530 E Coast Rd, Singapore 458970","Singapore 458970",1.3082609,103.919021
152,"C B Yeow & Co","522 East Coast Rd #16-03 Ocean Pk Singapore 458966","Singapore 458966",1.309733,103.9177969
613,"Maurice Lee & Tan","80 Marine Parade Rd #12-06 Parkway Parade Singapore 449269","Singapore 449269",1.301072,103.905281
185,"Cheong Y H","5 Marine Vista #02-45 Neptune Ct Singapore 449029","Singapore 449029",1.306834,103.922145
352,"Gwen Teo","Blk 55 Marine Ter #14-19  Singapore 440055","Singapore 440055",1.305504,103.91385
353,"Gwen Teo","55 Marine Terrace, Singapore 440055","Singapore 440055",1.305504,103.91385
139,"Benedict Chan & Co","14 Fort Rd   Singapore 439075","Singapore 439075",1.300203,103.885647
532,"Legal Employment Services","865 Mountbatten Rd, Singapore 437844","Singapore 437844",1.303746,103.901182
89,"Anne Tye & Co","Tanjong Katong Rd, Singapore","Singapore 437078",1.3065,103.895786
88,"Anne Tye & Co","295A Tg Katong Rd   Singapore 437078","Singapore 437078",1.3065,103.895786
483,"Kingfields (S) Llc","179 Tg Rhu Rd #14-28 Water Pl Singapore 436608","Singapore 436608",1.296224,103.872152
800,"Sham Shudin Ali & Co","20 Joo Chiat Rd #02-06  Singapore 427357","Singapore 427357",1.315557,103.897852
195,"Chin & Associates LLC","105 Onan Rd, Singapore 424522","Singapore 424522",1.314015,103.898234
845,"Syed Yahya & Partners","190 Changi Rd #02-02  Singapore 419974","Singapore 419974",1.317116,103.9029149
38,"Abdul Aziz Law Practice","150 Changi Rd #02-05 Guthrie Bldg Singapore 419973","Singapore 419973",1.317004,103.902196
390,"J P Dendroff & Co","150 Changi Rd, Singapore 419973","Singapore 419973",1.317004,103.902196
395,"Jailani Shariff & Co","150 Changi Rd #02-05 Guthrie Bldg Singapore 419973","Singapore 419973",1.317004,103.902196
396,"Jailani Shariff & Co","150 Changi Rd, Singapore 419973","Singapore 419973",1.317004,103.902196
801,"Sham Shudin Ali & Co","150 Changi Rd, Singapore 419973","Singapore 419973",1.317004,103.902196
776,"Sadari Musari & Partners","228 Changi Rd #02-09  Singapore 419741","Singapore 419741",1.317467,103.904605
830,"Soraya H Ibrahim & Co","228 Changi Rd #02-06  Singapore 419741","Singapore 419741",1.317467,103.904605
727,"Rajan Nair & Partners","218 Changi Rd, Singapore 419737","Singapore 419737",1.317369,103.904221
777,"Sadari Musari & Partners","218e Changi Road, #03-10, Pkms Building, Singapore 419737","Singapore 419737",1.317369,103.904221
803,"Shan Faizal & Suresh","218 Changi Rd, Singapore 419737","Singapore 419737",1.317369,103.904221
846,"Syed Yahya & Partners","218 Changi Rd, Singapore 419737","Singapore 419737",1.317369,103.904221
658,"Noor Mohd Marican & Associate","132A Changi Rd   Singapore 419719","Singapore 419719",1.316857,103.901441
726,"Rajan Nair & Partners","116 Changi Rd #03-10 WIS@Changi Singapore 419718","Singapore 419718",1.316803,103.901177
664,"Ong & Co","17 Jln Masjid #01-02  Singapore 418942","Singapore 418942",1.320142,103.912308
626,"Michael Quan & Kenneth Lee","20A Jln Punai   Singapore 418799","Singapore 418799",1.329741,103.907809
534,"Legal Options Llc","23 Kaki Bukit Ave 4 #01-01 Vicom Vehicle Inspection Centre Singapore 415933","Singapore 415933",1.338383,103.90776
113,"Astute Legal Llc","60 Paya Lebar Rd #06-25 Paya Lebar Sq Singapore 409051","Singapore 409051",1.318938,103.8926112
192,"Chia Yong Yong Law Corpn","60 Paya Lebar Rd #13-06 Paya Lebar Sq Singapore 409051","Singapore 409051",1.318938,103.8926112
549,"Lexcompass Llc","845 Geylang Rd #04-01 Tg Katong Complex Singapore 400845","Singapore 400845",1.3164419,103.894357
272,"Divorce Lawyer Singapore Services","Singapore, 511 Guillemard Rd, Singapore 399849","Singapore 399849",1.3144499,103.891474
443,"K K Lee Law Corpn","511 Guillemard Rd #03-13 Grandlink Sq Singapore 399849","Singapore 399849",1.3144499,103.891474
848,"T K Leong Law Corporation","Mohamed Sultan Rd, Singapore 388997","Singapore 388997",1.317696,103.873304
600,"Mak & Partners","48 MacTaggart Rd #04-02 MAE Ind Bldg Singapore 368088","Singapore 368088",1.334177,103.883297
792,"Schick & Associates LLC","10 Woodleigh Cl, Singapore 357905","Singapore 357905",1.336437,103.8685689
665,"Ong & Shan Llc","2 Kallang Ave #09-04 CT Hub Singapore 339407","Singapore 339407",1.311457,103.8634469
486,"Kirpal & Associates","116 Lavender Street, #03-06 PekChuan Building, Singapore 338730","Singapore 338730",1.31187,103.862164
39,"Abdul Rahman Law Corporation","114 Lavender Street #11-78, Singapore 338729","Singapore 338729",1.311654,103.862322
216,"Chye Legal Practice","114 Lavender St #05-56 CT HUB 2 Singapore 338729","Singapore 338729",1.311654,103.862322
115,"Atkins Law Corporation","600 Lor 4 Toa Payoh, Singapore 319515","Singapore 319515",1.334143,103.851244
48,"Advance Law Llc","430 Lor 6 Toa Payoh #11-01  Singapore 319402","Singapore 319402",1.331579,103.849209
90,"Anthony & Wee Jin","430 Lor 6 Toa Payoh #12-01  Singapore 319402","Singapore 319402",1.331579,103.849209
92,"Apac Law Corpn","430 Lor 6 Toa Payoh #12-01  Singapore 319402","Singapore 319402",1.331579,103.849209
119,"Averex Law Corpn","450 Lor 6 Toa Payoh #02-04 Toa Payoh Entertainment Center Singapore 319394","Singapore 319394",1.331626,103.84941
722,"Raghbir & Co.","500 Lorong 6 Toa Payoh, #04-31, Hdb Hub, Singapore 310500","Singapore 310500",1.333005,103.847064
91,"Anthony Law Corporation","Blk 490 Lor 6 Toa Payoh #09-15A HDB Hub Singapore 310490","Singapore 310490",1.332516,103.848532
109,"Asia Law Corpn","Blk 490 Lor 6 Toa Payoh #03-17 HDB Hub Singapore 310490","Singapore 310490",1.332516,103.848532
114,"At Law Practice Llp","Blk 490 Lor 6 Toa Payoh #03-15 HDB Hub Singapore 310490","Singapore 310490",1.332516,103.848532
198,"Chiu Cheong Llc","Blk 490 Lor 6 Toa Payoh #09-15 HDB Hub Singapore 310490","Singapore 310490",1.332516,103.848532
218,"City Law Llc","Blk 490 Lor 6 Toa Payoh #03-16 HDB Hub Singapore 310490","Singapore 310490",1.332516,103.848532
510,"Lawhub LLC","Blk 490 Lor 6 Toa Payoh #03-10 HDB Hub Singapore 310490","Singapore 310490",1.332516,103.848532
812,"Sim Mong Teck & Partners","Blk 490 Lor 6 Toa Payoh #03-18 HDB Hub Singapore 310490","Singapore 310490",1.332516,103.848532
124,"B L Ong Yeo & Associates","Blk 480 Lor 6 Toa Payoh #11-01 HDB Hub Singapore 310480","Singapore 310480",1.332253,103.848538
700,"PKWA Law Practice LLC","Blk 480 Lor 6 Toa Payoh #11-01 HDB Hub Singapore 310480","Singapore 310480",1.332253,103.848538
838,"Subra Tt Law Llc","Blk 480 Lor 6 Toa Payoh #07-01 HDB Hub Singapore 310480","Singapore 310480",1.332253,103.848538
701,"Polaris Law Corporation","Block 206, Toa Payoh North, #01-1213, Singapore 310206","Singapore 310206",1.3423099,103.846191
93,"Apex Law Llp","Fax Blk 185 Toa Payoh Central #02-346  Singapore 310185","Singapore 310185",1.332716,103.850018
767,"S K Kumar & Associates","Blk 183 Toa Payoh Central #02-308  Singapore 310183","Singapore 310183",1.333338,103.848882
53,"Aegis Llc","Fax Blk 94 Lor 4 Toa Payoh #01-22  Singapore 310094","Singapore 310094",1.338881,103.849803
72,"Aln Law Llc","51 Goldhill Plaza #07-03 Goldhill Plaza Singapore 308900","Singapore 308900",1.318222,103.842817
101,"Arielle Law Corporaton","51 Goldhill Plaza #07-04 Goldhill Plaza Singapore 308900","Singapore 308900",1.318222,103.842817
646,"Namazie & Co","51 Goldhill Plaza #24-06/07 Goldhill Plaza Singapore 308900","Singapore 308900",1.318222,103.842817
678,"Pacific Law Corpn","51 Goldhill Plaza #24-08 Goldhill Plaza Singapore 308900","Singapore 308900",1.318222,103.842817
484,"Kirei Kirei Collection","11 Jln Tan Tock Seng, Singapore 308433","Singapore 308433",1.321097,103.84564
582,"Low Fook Cheng & Co.","36 Newton Rd, Singapore 307964","Singapore 307964",1.316825,103.8419119
120,"Avodah Advocates LLC","101 Thomson Rd #06-01 United Sq Singapore 307591","Singapore 307591",1.317711,103.843491
111,"Assameur & Associates","390 victoria street #03-20 Golden Landmark Shopping Complex Singapore, Singapore 301001","Singapore 301001",1.325761,103.843076
35,"A To Z Associates","620 Hougang Ave 8, Singapore 300620","Singapore 300620",1.3702806,103.8837244
392,"J. Han Law Practice","34 Jln Asuhan   Singapore 299355","Singapore 299355",1.327625,103.81861
236,"Cotty Vivant Marchisio & Lauzeral (S) Pte. Ltd.","32 Oriole Cres   Singapore 288625","Singapore 288625",1.331998,103.803362
968,"Wong & Partners","23 Ewart Park, Singapore 279760","Singapore 279760",1.324113,103.784176
506,"Law Asia Pte Ltd","2A Victoria Pk Cl   Singapore 266550","Singapore 266550",1.318659,103.803707
502,"Latitude","31, 33, 35 Jalan Mutiara, Singapore 249208","Singapore 249208",1.296548,103.828226
351,"Gwee Spencer & Co","21 Jervois Cl #13-01 Jervois Jade Apts Singapore 249114","Singapore 249114",1.29248,103.825251
948,"Wee Swee Teow LLP","491B River Valley Rd #10-03/04 Valley Pt Singapore 248373","Singapore 248373",1.293086,103.8270639
816,"Sim Yong Chan & Co","19 Tanglin Rd, Singapore 247909","Singapore 247909",1.306364,103.827018
914,"Ts Mun Law Office","19 Tanglin Rd #02-21 Tanglin Shopping Centre Singapore 247909","Singapore 247909",1.306364,103.827018
711,"Quahe Woo & Palmer Llc","180 Clemenceau Ave #02-02 Haw Par Centre Singapore 239922","Singapore 239922",1.297183,103.844086
4,"Kanapathi Pillai Nirumalan","83 Clemenceau Ave #13-05 Shell Hse Singapore 239920","Singapore 239920",1.292809,103.842937
654,"Niru & Co LLC","83 Clemenceau Ave #13-05 Shell Hse Singapore 239920","Singapore 239920",1.292809,103.842937
237,"Croce & Associes Asia Pte. Ltd.","3 Killiney Rd #05-07 Winsland Hse I Singapore 239519","Singapore 239519",1.299637,103.840002
461,"Kana & Co","33 Mohd Sultan Rd #02-03  Singapore 238977","Singapore 238977",1.292359,103.840843
474,"Kenneth Lee & Co.","545 Orchard Road, #09-09, Far East Shopping Centre, Singapore 238882","Singapore 238882",1.3055779,103.830139
607,"Maria Tham & Co","545 Orchard Rd #05-01 Far East Shopping Centre Singapore 238882","Singapore 238882",1.3055779,103.830139
729,"Ralitza Peeva","No. 402, Orchard Road, #06-01, Delfi Orchard, 238876, Singapore 238876","Singapore 238876",1.307196,103.828453
199,"Chng Heng Tat & Associates","390 Orchard Rd, Palais Renaissance, Singapore 238875","Singapore 238875",1.306991,103.828903
372,"HJM Asia Law & Co LLC","1 Orchard Rd, Singapore 238874","Singapore 238874",1.302707,103.834289
536,"LegalStudio","1 Orchard Rd, Singapore 238874","Singapore 238874",1.302707,103.834289
743,"Relationship Matters","10 Orchard Rd, Singapore 238869","Singapore 238869",1.306348,103.830876
765,"S H Tan & Associates","150 Orchard Rd #07-16 Orchard Plaza Singapore 238841","Singapore 238841",1.301284,103.841309
290,"Edmond Pereira Law Corpn","9 Penang Rd #12-24 Park Mall Singapore 238459","Singapore 238459",1.298048,103.844577
296,"Elohim Law Corpn","9 Penang Rd #12-01 Park Mall Singapore 238459","Singapore 238459",1.298048,103.844577
610,"Mary Tan & Associates","8 River Valley Cl #07-14 Pacific Mans Singapore 238432","Singapore 238432",1.294731,103.836973
611,"Mary Tan & Associates","8 River Valley Cl, Singapore 238432","Singapore 238432",1.294731,103.836973
299,"Esquire Law Corpn","279 River Valley Rd #05-00  Singapore 238320","Singapore 238320",1.295847,103.840064
172,"Chang See Hiang & Partners","1 Kim Seng Promenade #12-07 Great World City Singapore 237994","Singapore 237994",1.293984,103.832088
234,"Cornerstone Law Llp","1 Kim Seng Promenade #14-02 Great World City Singapore 237994","Singapore 237994",1.293984,103.832088
857,"Tan & Pillai","75 Bt Timah Rd #05-24 Boon Siew Bldg Singapore 229833","Singapore 229833",1.307117,103.847797
552,"Liau & Co","151 Cavenagh Rd #06-153 Cavenagh Ct Singapore 229628","Singapore 229628",1.309928,103.843172
616,"May & Co","39 Jln Elok   Singapore 229072","Singapore 229072",1.306516,103.83557
617,"May & Co","39 Jln Elok, Singapore 229072","Singapore 229072",1.306516,103.83557
757,"Roedl & Partner Foreign Law Firm","21 Scotts Rd, Singapore 228219","Singapore 228219",1.30847,103.832258
132,"Balkenende Chew & Chia","1 Scotts Rd #21-14 Shaw Centre Singapore 228208","Singapore 228208",1.305662,103.8317859
231,"Consilium Law Corporation","1 Scotts Rd #16-02 Shaw Centre Singapore 228208","Singapore 228208",1.305662,103.8317859
807,"Siaw Kheng Boon & Co","1 Scotts Rd #21-14 Shaw Centre Singapore 228208","Singapore 228208",1.305662,103.8317859
448,"K Ravi Law Corpn","20 Kerbau Rd   Singapore 219159","Singapore 219159",1.306908,103.851424
702,"Prasanna Devi Llc","7 Race Course Lane #03-00  Singapore 218734","Singapore 218734",1.309581,103.852981
841,"Suppiah P & Co","Blk 671B Klang Lane #08-77  Singapore 212671","Singapore 212671",1.309293,103.85259
953,"Whitefield Law Corpn","Blk 668 Chander Rd #02-10  Singapore 210668","Singapore 210668",1.307745,103.851086
356,"H L Wee & Co","10 Jln Besar #15-07 Sim Lim Tower Singapore 208787","Singapore 208787",1.304039,103.8546719
889,"Templars Law Llc","29 Mayo St   Singapore 208315","Singapore 208315",1.304117,103.853662
155,"C Ramesh Law Practice","31 Sam Leong Rd #01-00  Singapore 207921","Singapore 207921",1.3092299,103.856954
640,"N D Law Chambers","31 Sam Leong Rd #01-00  Singapore 207921","Singapore 207921",1.3092299,103.856954
621,"Menon & Co","51B Up Weld Rd   Singapore 207408","Singapore 207408",1.306316,103.8532649
467,"Keh Kee Guan & Co","371 Beach Rd #12-07 KeyPoint Singapore 199597","Singapore 199597",1.302638,103.8622199
468,"Keh Kee Guan & Co","371, Beach Rd, #12-07, KeyPoint, Singapore 199597, Singapore 199597","Singapore 199597",1.302638,103.8622199
147,"Bogaars & Din","7500A Beach Rd #16-324 The Plaza Singapore 199591","Singapore 199591",1.299782,103.860659
264,"Dennismathiew","7500A Beach Rd #14-324 The Plaza Singapore 199591","Singapore 199591",1.299782,103.860659
465,"KC & Young","7500A Beach Rd, Singapore 199591","Singapore 199591",1.299782,103.860659
488,"Koh & Partners","7500A Beach Rd #06-318/319 The Plaza Singapore 199591","Singapore 199591",1.299782,103.860659
753,"Robin Law Corpn","7500A Beach Rd #04-322 The Plaza Singapore 199591","Singapore 199591",1.299782,103.860659
813,"Sim Mong Teck & Partners","7500a Beach Road, #09-302, The Plaza, Singapore 199591","Singapore 199591",1.299782,103.860659
887,"Teh Lim & Partners","7500A Beach Rd #04-314 The Plaza Singapore 199591","Singapore 199591",1.299782,103.860659
12,"N S Kang","6001 Beach Rd #16-08 Golden Mile Tower Singapore 199589","Singapore 199589",1.302128,103.864082
291,"Edmund Hendrick & Partners","6001 Beach Rd #16-08 Golden Mile Tower Singapore 199589","Singapore 199589",1.302128,103.864082
354,"H A & Chung Partnership","6001 Beach Road, #17-01, Golden Mile Tower, Singapore 199589","Singapore 199589",1.302128,103.864082
770,"S Nabham","6001 Beach Rd #09-05 Golden Mile Tower Singapore 199589","Singapore 199589",1.302128,103.864082
940,"W S Goh & Co","6001 Beach Rd #17-02A Golden Mile Tower Singapore 199589","Singapore 199589",1.302128,103.864082
32,"A Rajandran","5001 Beach Rd #08-16 Golden Mile Complex Singapore 199588","Singapore 199588",1.302908,103.864945
286,"E H Wan & Co","5001 Beach Rd #03-44 Golden Mile Complex Singapore 199588","Singapore 199588",1.302908,103.864945
357,"H T Sam & Co","5001 Beach Rd #09-84 Golden Mile Complex Singapore 199588","Singapore 199588",1.302908,103.864945
520,"Lee Frois & Partners","5001 Beach Rd #03-44 Golden Mile Complex Singapore 199588","Singapore 199588",1.302908,103.864945
554,"Liew Geok Heok","5001 Beach Rd #03-54 Golden Mile Complex Singapore 199588","Singapore 199588",1.302908,103.864945
571,"Lisa Sam & Co","5001 Beach Rd #07-02 Golden Mile Complex Singapore 199588","Singapore 199588",1.302908,103.864945
783,"Sambandan & Co","5001 Beach Rd, Singapore 199588","Singapore 199588",1.302908,103.864945
814,"Sim Teck & Associates","5001 Beach Rd #06-25 Golden Mile Complex Singapore 199588","Singapore 199588",1.302908,103.864945
984,"Yen Lan & Associates","5001 Beach Rd #03-97A Golden Mile Complex Singapore 199588","Singapore 199588",1.302908,103.864945
295,"Ella Cheong Llc","300 Beach Rd #31-04/05 The Concourse Singapore 199555","Singapore 199555",1.301012,103.862214
16,"Gurdip & Gill","200 Jln Sultan #03-06 Textile Centre Singapore 199018","Singapore 199018",1.303499,103.861257
197,"Chingco Law Corpn","200 Jln Sultan #03-17 Textile Centre Singapore 199018","Singapore 199018",1.303499,103.861257
381,"I.R.B. Law Llp","117A Jln Sultan   Singapore 199007","Singapore 199007",1.304414,103.860414
563,"Lim Hua Yong Llp","100 Jln Sultan #08-16 Sultan Plaza Singapore 199001","Singapore 199001",1.302832,103.861969
393,"Jacob Mansur & Pillai","95 Jln Sultan #02-01  Singapore 198998","Singapore 198998",1.303172,103.861101
394,"Jacob Mansur & Pillai","Level 2, 95 Jalan Sultan, Singapore 198998","Singapore 198998",1.303172,103.861101
886,"Tc&G Law Corpn","83A Jln Sultan   Singapore 198991","Singapore 198991",1.302996,103.8612179
720,"R.W. Law Practice","42A Kandahar St   Singapore 198896","Singapore 198896",1.3019099,103.859988
136,"Beacon Law Corpn","883 North Bridge Rd #13-01  Singapore 198785","Singapore 198785",1.3059099,103.864495
158,"C. Yogarajah","883 North Bridge Rd #19-05  Singapore 198785","Singapore 198785",1.3059099,103.864495
920,"Uttra","883 North Bridge Rd #07-01  Singapore 198785","Singapore 198785",1.3059099,103.864495
30,"A L Hussein & Faizal Wahyuni","757 North Bridge Rd   Singapore 198725","Singapore 198725",1.303275,103.859381
890,"Temple Counsel Llp","60 Albert St #12-01 OG Albert Complex Singapore 189969","Singapore 189969",1.3020259,103.853648
926,"Via Law Corpn","152 Gateway Dr #10-08 Westgate Tower Singapore 0409","Singapore 189721",1.299117,103.8589609
624,"Michael Hwang Chambers Llc","150 Beach Rd #06-01 Gateway West Singapore 189720","Singapore 189720",1.2987089,103.85862
73,"Alpha & Omega Law Corpn","100 Beach Rd #24-08 Shaw Towers Singapore 189702","Singapore 189702",1.296485,103.856559
149,"Braddell Bros Llp","11 Beach Rd #04-01  Singapore 189675","Singapore 189675",1.295431,103.8552
916,"Tyto Llc","91 Bencoolen St #06-08 Sunshine Plaza Singapore 189652","Singapore 189652",1.300287,103.851193
434,"Julie Vong & Co","175 Bencoolen St #01-48 Burlington Sq Singapore 189649","Singapore 189649",1.302198,103.8524939
118,"Aup Law Corpn","190 Middle Rd #09-05 Fortune Centre Singapore 188979","Singapore 188979",1.300405,103.852241
175,"Characterist Llc","Fax  190 Middle Rd #15-01A Fortune Centre Singapore 188979","Singapore 188979",1.300405,103.852241
246,"Daniel & Co","190 Middle Rd #15-04 Fortune Centre Singapore 188979","Singapore 188979",1.300405,103.852241
64,"Allagarsamy & Co","141 Middle Rd #03-02A GSM Bldg Singapore 188976","Singapore 188976",1.2995969,103.852556
65,"Allagarsamy & Co","141 Middle Rd, Singapore 188976","Singapore 188976",1.2995969,103.852556
348,"Guna & Associates","141 Middle Rd #06-08A GSM Bldg Singapore 188976","Singapore 188976",1.2995969,103.852556
460,"Kan & Co.","141 Middle Rd, Singapore 188976","Singapore 188976",1.2995969,103.852556
685,"Pereira & Tan LLC","141 Middle Rd #04-02/03 GSM Bldg Singapore 188976","Singapore 188976",1.2995969,103.852556
491,"Kuek & Co","135 Middle Rd #02-25 Bylands Bldg Singapore 188975","Singapore 188975",1.29943,103.852738
492,"Kuek & Co","135 Middle Rd, Singapore 188975","Singapore 188975",1.29943,103.852738
501,"Lam W S & Co","135 Middle Rd #01-07 Bylands Bldg Singapore 188975","Singapore 188975",1.29943,103.852738
769,"S M Wong & Lim","135 Middle Rd #02-09 Bylands Bldg Singapore 188975","Singapore 188975",1.29943,103.852738
573,"Loh Eben Ong Llp","112 Middle Rd #07-00 Midland Hse Singapore 188970","Singapore 188970",1.298944,103.85363
228,"Colin Ng & Partners Llp","600 North Bridge Rd #13-01 Parkview Sq Singapore 188778","Singapore 188778",1.300191,103.857614
282,"DS Avocats","600 North Bridge Rd #13-06 Parkview Sq Singapore 188778","Singapore 188778",1.300191,103.857614
43,"Acclaim Law Llc","331 North Bridge Rd  Odeon Towers Singapore 188720","Singapore 188720",1.296265,103.853111
431,"Jtl Lee","331 North Bridge Rd #10-02 Odeon Towers Singapore 188720","Singapore 188720",1.296265,103.853111
407,"Jeya & Associates","35 Selegie Rd #05-14 Parklane Shopping Mall Singapore 188307","Singapore 188307",1.300626,103.849458
893,"Thames Law Llp","89 Short St #09-02 Golden Wall Centre Singapore 188216","Singapore 188216",1.303684,103.851552
634,"Mohd Ibrahim & Co","390 Victoria St #02-38 Golden Landmark Hotel Singapore 188061","Singapore 188061",1.302352,103.857864
903,"Timothy Ong Lim & Partners","239B Victoria St  Bugis Vill Singapore 188029","Singapore 188029",1.300052,103.854927
904,"Timothy Ong Lim & Partners","239 Victoria St, Singapore 188029","Singapore 188029",1.300052,103.854927
219,"Ck Tan & Co","50 Armenian St #04-03  Singapore 179938","Singapore 179938",1.294437,103.8495669
262,"Deepak Raja & Associates","50 Armenian St #04-03  Singapore 179938","Singapore 179938",1.294437,103.8495669
734,"Ravi & Anita Partnership","50 Armenian St #04-03  Singapore 179938","Singapore 179938",1.294437,103.8495669
46,"Acton Law Llc","36 Armenian St #04-07  Singapore 179934","Singapore 179934",1.294125,103.8493869
180,"Cheng & Co","5 Coleman St #03-06 Excelsior Shopping Centre Singapore 179805","Singapore 179805",1.29194,103.849688
143,"Bih Li & Lee LLP","1 Coleman St #10-07 The Adelphi Singapore 179803","Singapore 179803",1.291359,103.851346
200,"Chong Chia & Lim","Fax  1 Coleman St #05-12 The Adelphi Singapore 179803","Singapore 179803",1.291359,103.851346
201,"Chong Chia & Lim Llc","1 Coleman St #05-12 The Adelphi Singapore 179803","Singapore 179803",1.291359,103.851346
224,"Clifford Law Corpn","1 Coleman St #08-04 The Adelphi Singapore 179803","Singapore 179803",1.291359,103.851346
293,"Eldan Law Llp","Fax  1 Coleman St #08-05 The Adelphi Singapore 179803","Singapore 179803",1.291359,103.851346
298,"Engelin Teh Practice LLC","1 Coleman St #05-10A The Adelphi Singapore 179803","Singapore 179803",1.291359,103.851346
303,"Eugene Thuraisingam Llp","1 Coleman St #07-06 The Adelphi Singapore 179803","Singapore 179803",1.291359,103.851346
326,"Genesis Law Corpn","1 Coleman St #07-02 The Adelphi Singapore 179803","Singapore 179803",1.291359,103.851346
521,"Lee Hock Seng & Co","1 Coleman St, Singapore 179803","Singapore 179803",1.291359,103.851346
601,"Malkin & Maxwell Llp","1 Coleman St #07-02B The Adelphi Singapore 179803","Singapore 179803",1.291359,103.851346
628,"Mirandah Law Llp","1 Coleman St #07-09 The Adelphi Singapore 179803","Singapore 179803",1.291359,103.851346
670,"Ong Sim Ho","1 Coleman St #05-15 The Adelphi Singapore 179803","Singapore 179803",1.291359,103.851346
688,"Peter Low Llc","1 Coleman St #10-03 The Adelphi Singapore 179803","Singapore 179803",1.291359,103.851346
831,"Southbridge Chambers Llc","1 Coleman St #B1-21 The Adelphi Singapore 179803","Singapore 179803",1.291359,103.851346
902,"Timothy Ng Llc","1 Coleman St #05-03 The Adelphi Singapore 179803","Singapore 179803",1.291359,103.851346
933,"Virginia Quek Lalita & Partners","1 Coleman St #06-08 The Adelphi Singapore 179803","Singapore 179803",1.291359,103.851346
988,"Yeo Perumal Mohideen Law Corpn","1 Coleman St #06-08 The Adelphi Singapore 179803","Singapore 179803",1.291359,103.851346
227,"Coleman Street Chambers Llc","77 High St #07-06 High St Plaza Singapore 179433","Singapore 179433",1.290516,103.849283
308,"Fidelis Law Corpn","77 High St #02-13/14 High St Plaza Singapore 179433","Singapore 179433",1.290516,103.849283
368,"Hh Lim Law Chambers","77 High St #02-10 High St Plaza Singapore 179433","Singapore 179433",1.290516,103.849283
821,"Singh & Co","77 High St #10-09 High St Plaza Singapore 179433","Singapore 179433",1.290516,103.849283
837,"Stuart & Ball LLC","77 High St #04-10 High St Plaza Singapore 179433","Singapore 179433",1.290516,103.849283
983,"Yap Loh & Partners Llp","77 High St #03-09 High St Plaza Singapore 179433","Singapore 179433",1.290516,103.849283
996,"Zenith Law Corpn","77 High St #05-03 High St Plaza Singapore 179433","Singapore 179433",1.290516,103.849283
622,"Metropolitan Law Coporation","47 Hill St #04-02 Singapore Chinese Chbrs of Commerce & Industry Bldg Singapore 179365","Singapore 179365",1.293309,103.850104
973,"Wong Juan Swee","47 Hill St #05-03 Singapore Chinese Chbrs of Commerce & Industry Bldg Singapore 179365","Singapore 179365",1.293309,103.850104
51,"Advocatus Law Llp","25 North Bridge Rd #08-01  Singapore 179104","Singapore 179104",1.290132,103.8497359
643,"Nair & Co Llc","25 North Bridge Rd #02-02  Singapore 179104","Singapore 179104",1.290132,103.8497359
6,"Jing Quee & Chin Joo","111 North Bridge Rd #27-03 Peninsula Plaza Singapore 179098","Singapore 179098",1.292307,103.850442
34,"A Rohim Noor Lila & Partners","111 North Bridge Rd #07-21 Peninsula Plaza Singapore 179098","Singapore 179098",1.292307,103.850442
36,"A. Rohim Noor Lila Llp","111 North Bridge Rd #29-03A Peninsula Plaza Singapore 179098","Singapore 179098",1.292307,103.850442
49,"Advent Law Corpn","111 North Bridge Rd #25-03 Peninsula Plaza Singapore 179098","Singapore 179098",1.292307,103.850442
71,"Allister Lim & Thrumurgan","111 North Bridge Rd #11-04 Peninsula Plaza Singapore 179098","Singapore 179098",1.292307,103.850442
74,"Alyssa Lee & Co","111 North Bridge Rd #21-01 Peninsula Plaza Singapore 179098","Singapore 179098",1.292307,103.850442
94,"Apl Law Corpn","111 North Bridge Rd #29-05 Peninsula Plaza Singapore 179098","Singapore 179098",1.292307,103.850442
112,"Assomull & Partners","111 North Bridge Rd #07-16 Peninsula Plaza Singapore 179098","Singapore 179098",1.292307,103.850442
126,"B Rengarajoo & Associates","111 North Bridge Rd #08-01 Peninsula Plaza Singapore 179098","Singapore 179098",1.292307,103.850442
156,"C S Lee","111 North Bridge Rd #08-12 Peninsula Plaza Singapore 179098","Singapore 179098",1.292307,103.850442
177,"Charles N Mendis & Partners","111 North Bridge Road, #13-03, Peninsula Plaza, Singapore 179098","Singapore 179098",1.292307,103.850442
181,"Cheo & Tio","111 North Bridge Rd #07-27 Peninsula Plaza Singapore 179098","Singapore 179098",1.292307,103.850442
240,"CS Gn Law Chambers","No. 111, North Bridge Road, #08-01, Peninsula Plaza, 179098, Singapore 179098","Singapore 179098",1.292307,103.850442
242,"D Rani & Co","111 North Bridge Rd #29-03A Peninsula Plaza Singapore 179098","Singapore 179098",1.292307,103.850442
247,"Daniel Loh & Partners","111 North Bridge Road, #08-17, Peninsula Plaza, Singapore 179098","Singapore 179098",1.292307,103.850442
325,"Gavan Law Practice Llc","111 North Bridge Rd #13-02 Peninsula Plaza Singapore 179098","Singapore 179098",1.292307,103.850442
370,"Hilborne Law Llc","111 North Bridge Rd #29-06 Peninsula Plaza Singapore 179098","Singapore 179098",1.292307,103.850442
388,"Ismail Hamid & Co","111 North Bridge Rd #29-03A Peninsula Plaza Singapore 179098","Singapore 179098",1.292307,103.850442
417,"Joethy & Co","111 North Bridge Rd #08-22 Peninsula Plaza Singapore 179098","Singapore 179098",1.292307,103.850442
427,"Joseph Theseira","111 North Bridge Road, #08-01, Peninsula Plaza, Singapore 179098","Singapore 179098",1.292307,103.850442
454,"K.S.Chia Gurdeep & Param","111 North Bridge Road, #13-04, Peninsula Plaza, Singapore 179098","Singapore 179098",1.292307,103.850442
464,"Karuppan Chettiar & Partners","111 North Bridge Rd #29-01 Peninsula Plaza Singapore 179098","Singapore 179098",1.292307,103.850442
495,"Kurup & Boo","111 North Bridge Rd #24-03 Peninsula Plaza Singapore 179098","Singapore 179098",1.292307,103.850442
528,"Lee Shergill Llp","111 North Bridge Rd #07-07 Peninsula Plaza Singapore 179098","Singapore 179098",1.292307,103.850442
533,"Legal Ink Law Corpn","111 North Bridge Rd #11-04 Peninsula Plaza Singapore 179098","Singapore 179098",1.292307,103.850442
541,"Leo Fernando","111 North Bridge Rd #24-05 Peninsula Plaza Singapore 179098","Singapore 179098",1.292307,103.850442
545,"Leong Partnership","111 North Bridge Rd #20-03 Peninsula Plaza Singapore 179098","Singapore 179098",1.292307,103.850442
558,"Lim & Ong","111 North Bridge Rd #14-06 Peninsula Plaza Singapore 179098","Singapore 179098",1.292307,103.850442
562,"Lim Hin Chye & Co","111 North Bridge Rd #05-24 Peninsula Plaza Singapore 179098","Singapore 179098",1.292307,103.850442
564,"Lim Soo Peng & Co Llp","111 North Bridge Rd #29-02 Peninsula Plaza Singapore 179098","Singapore 179098",1.292307,103.850442
593,"M P Kanisan & Partners","111 North Bridge Road, #08-01/02, Peninsula Plaza, Singapore 179098","Singapore 179098",1.292307,103.850442
596,"Madan D T Assomull","111 North Bridge Rd #07-04 Peninsula Plaza Singapore 179098","Singapore 179098",1.292307,103.850442
598,"Mahmood Gaznavi & Partners","111 North Bridge Rd #11-02 Peninsula Plaza Singapore 179098","Singapore 179098",1.292307,103.850442
649,"Netto & Magin Llc","111 North Bridge Rd #11-06 Peninsula Plaza Singapore 179098","Singapore 179098",1.292307,103.850442
704,"Pritam Singh Gill & Co","111 North Bridge Rd #16-05A Peninsula Plaza Singapore 179098","Singapore 179098",1.292307,103.850442
741,"Regent Law Llc","111 North Bridge Rd #10-01 Peninsula Plaza Singapore 179098","Singapore 179098",1.292307,103.850442
744,"Relianze Law Corpn","111 North Bridge Rd #08-30 Peninsula Plaza Singapore 179098","Singapore 179098",1.292307,103.850442
745,"Remedios & Co","111 North Bridge Rd #07-17 Peninsula Plaza Singapore 179098","Singapore 179098",1.292307,103.850442
761,"Rupert Seah & Co","111 North Bridge Rd #05-07 Peninsula Plaza Singapore 179098","Singapore 179098",1.292307,103.850442
867,"Tan Lay Keng & Co","111 North Bridge Rd #14-03 Peninsula Plaza Singapore 179098","Singapore 179098",1.292307,103.850442
881,"Tan Thian Chua & Co","111 North Bridge Rd #14-02 Peninsula Plaza Singapore 179098","Singapore 179098",1.292307,103.850442
891,"Teo Keng Siang Llc","111 North Bridge Rd #29-07 Peninsula Plaza Singapore 179098","Singapore 179098",1.292307,103.850442
912,"Trident Law Corpn","111 North Bridge Rd #11-04 Peninsula Plaza Singapore 179098","Singapore 179098",1.292307,103.850442
929,"Vijay & Co","111 North Bridge Rd #13-05 Peninsula Plaza Singapore 179098","Singapore 179098",1.292307,103.850442
931,"Vincent Yeoh & Co.","111 North Bridge Rd, Singapore 179098","Singapore 179098",1.292307,103.850442
932,"Vinit Chhabra Law Corpn","111 North Bridge Rd #07-05 Peninsula Plaza Singapore 179098","Singapore 179098",1.292307,103.850442
959,"Winston Low & Partners","111 North Bridge Rd #11-03 Peninsula Plaza Singapore 179098","Singapore 179098",1.292307,103.850442
595,"M.N.Swami","18 High St, Singapore","Singapore 179094",1.28983,103.849601
129,"Bachoo Mohan Singh Law Practice","1 North Bridge Rd #14-03 High St Centre Singapore 179094","Singapore 179094",1.28983,103.849601
194,"Chiam & Co.","17 High St, Singapore 179094","Singapore 179094",1.28983,103.849601
249,"Darshan & Teo Llp","1 North Bridge Rd #17-06 High St Centre Singapore 179094","Singapore 179094",1.28983,103.849601
285,"Dube & Co.","12 High St, Singapore 179094","Singapore 179094",1.28983,103.849601
321,"G Krishnan & Co.","12 High St, Singapore 179094","Singapore 179094",1.28983,103.849601
497,"Lai Mun Onn & Co","1 North Bridge Rd #16-06 High St Centre Singapore 179094","Singapore 179094",1.28983,103.849601
522,"Lee Kim Siang & Co","1 North Bridge Rd #23-03 High St Centre Singapore 179094","Singapore 179094",1.28983,103.849601
574,"Loh Lin Kok","Fax  1 North Bridge Rd #03-37 High St Centre Singapore 179094","Singapore 179094",1.28983,103.849601
575,"Loh Lin Kok Advocates & Solicitors","1 North Bridge Rd #03-37 High St Centre Singapore 179094","Singapore 179094",1.28983,103.849601
748,"Respondek & Fan Pte Ltd","1 North Bridge Rd #16-03 High St Centre Singapore 179094","Singapore 179094",1.28983,103.849601
810,"Sim Chong Llc","1 North Bridge Rd #18-03 High St Centre Singapore 179094","Singapore 179094",1.28983,103.849601
215,"Chung Ting Fai & Co","177 River Valley Rd #05-12 Liang Ct Complex Singapore 179030","Singapore 179030",1.29178,103.844896
820,"Singapore Mediation Centre","3 St. Andrew's Road, Level 3 City Hall, Singapore 178958","Singapore 178958",1.29068,103.851743
735,"Ravindran Associates","61 Stamford Rd #02-09 Stamford Ct Singapore 178892","Singapore 178892",1.293942,103.849996
512,"Lawnet Secretariat","1 Supreme Ct Ln, Singapore 178879","Singapore 178879",1.290317,103.850899
799,"Service Bureaux (Singapore)","1 Supreme Ct Ln, Singapore 178879","Singapore 178879",1.290317,103.850899
389,"J P Dendroff & Co","Fax  171 Chin Swee Rd #03-05 San Centre Singapore 169877","Singapore 169877",1.286875,103.840078
420,"John Tay & Co","171 Chin Swee Rd, Singapore 169877","Singapore 169877",1.286875,103.840078
694,"Phoeng & Co","171 Chin Swee Rd, Singapore 169877","Singapore 169877",1.286875,103.840078
18,"Song Ling & Partners","151 Chin Swee Rd #06-06 Manhattan Hse Singapore 169876","Singapore 169876",1.287186,103.84065
21,"A A Khan Law Practice","151 Chin Swee Rd #13-16 Manhattan Hse Singapore 169876","Singapore 169876",1.287186,103.84065
26,"A C Fergusson & Partners","151 Chin Swee Rd #02-07 Manhattan Hse Singapore 169876","Singapore 169876",1.287186,103.84065
59,"Alan Shankar & Lim Llc","151 Chin Swee Rd #09-15/16 Manhattan Hse Singapore 169876","Singapore 169876",1.287186,103.84065
144,"Billy & Alsree","151 Chin Swee Rd #13-11 Manhattan Hse Singapore 169876","Singapore 169876",1.287186,103.84065
165,"Centro-Legal Law Corpn","151 Chin Swee Rd #02-21 Manhattan Hse Singapore 169876","Singapore 169876",1.287186,103.84065
176,"Charan & Co","151 Chin Swee Rd #13-10 Manhattan Hse Singapore 169876","Singapore 169876",1.287186,103.84065
178,"Chee Wai Pong & Co","151 Chin Swee Rd #09-05 Manhattan Hse Singapore 169876","Singapore 169876",1.287186,103.84065
186,"Cheonghoh Law Corpn","Fax  151 Chin Swee Rd #09-01 Manhattan Hse Singapore 169876","Singapore 169876",1.287186,103.84065
190,"Chia S Arul & Co","151 Chin Swee Rd #03-09 Manhattan Hse Singapore 169876","Singapore 169876",1.287186,103.84065
256,"David Ong & Co","151 Chin Swee Rd #08-14 Manhattan Hse Singapore 169876","Singapore 169876",1.287186,103.84065
314,"Foo Liew & Philip Lam","151 Chin Swee Rd, Singapore 169876","Singapore 169876",1.287186,103.84065
343,"Grace Law Llc","151 Chin Swee Rd #13-15 Manhattan Hse Singapore 169876","Singapore 169876",1.287186,103.84065
399,"James Masih & Co","151 Chin Swee Rd #02-12 Manhattan Hse Singapore 169876","Singapore 169876",1.287186,103.84065
408,"Jeyabalen & Partners","151 Chin Swee Rd #12-08 Manhattan Hse Singapore 169876","Singapore 169876",1.287186,103.84065
413,"Jispal Law Chambers","151 Chin Swee Rd #03-01 Manhattan Hse Singapore 169876","Singapore 169876",1.287186,103.84065
422,"Jose Charles & Co","151 Chin Swee Rd #10-01 Manhattan Hse Singapore 169876","Singapore 169876",1.287186,103.84065
423,"Joseph Gay & Co","151 Chin Swee Rd #02-15 Manhattan Hse Singapore 169876","Singapore 169876",1.287186,103.84065
429,"Josephine Tay & Co","151 Chin Swee Rd #07-06 Manhattan Hse Singapore 169876","Singapore 169876",1.287186,103.84065
447,"K Prasad & Co","151 Chin Swee Rd #03-21 Manhattan Hse Singapore 169876","Singapore 169876",1.287186,103.84065
456,"Kai Law Chambers","151 Chin Swee Rd, Singapore 169876","Singapore 169876",1.287186,103.84065
457,"Kalai & Co","151 Chin Swee Rd #06-08 Manhattan Hse Singapore 169876","Singapore 169876",1.287186,103.84065
517,"Lee & Tan","151 Chin Swee Rd #10-06 Manhattan Hse Singapore 169876","Singapore 169876",1.287186,103.84065
648,"Neo & Lim","151 Chin Swee Rd #14-04 Manhattan Hse Singapore 169876","Singapore 169876",1.287186,103.84065
661,"Oliver Quek & Associates","151 Chin Swee Rd, Singapore 169876","Singapore 169876",1.287186,103.84065
681,"Parwani Law Llc","151 Chin Swee Rd #13-06 Manhattan Hse Singapore 169876","Singapore 169876",1.287186,103.84065
696,"Phua C K","151 Chin Swee Rd, Singapore 169876","Singapore 169876",1.287186,103.84065
703,"Prestige Legal Llp","151 Chin Swee Rd #12-15 Manhattan Hse Singapore 169876","Singapore 169876",1.287186,103.84065
751,"Richard Lim & Company","151 Chin Swee Rd #02-02 Manhattan Hse Singapore 169876","Singapore 169876",1.287186,103.84065
772,"S Skandarajah & Co","151 Chin Swee Rd #03-01 Manhattan Hse Singapore 169876","Singapore 169876",1.287186,103.84065
781,"Sam Koh & Co","151 Chin Swee Rd #12-02 Manhattan Hse Singapore 169876","Singapore 169876",1.287186,103.84065
786,"Samuel Poon & Co.","151 Chin Swee Rd, Singapore 169876","Singapore 169876",1.287186,103.84065
819,"Singa Retnam","151 Chin Swee Rd #02-12 Manhattan Hse Singapore 169876","Singapore 169876",1.287186,103.84065
911,"Tommy Choo Mark Goh & Partners","151 Chin Swee Rd #14-15/16 Manhattan Hse Singapore 169876","Singapore 169876",1.287186,103.84065
923,"Vas Kumar & Co","151 Chin Swee Rd #13-12 Manhattan Hse Singapore 169876","Singapore 169876",1.287186,103.84065
925,"Veritas Law Corpn","151 Chin Swee Rd #09-14 Manhattan Hse Singapore 169876","Singapore 169876",1.287186,103.84065
978,"Wong Yoong Phin & Co","151 Chin Swee Rd #02-29 Manhattan Hse Singapore 169876","Singapore 169876",1.287186,103.84065
154,"C Paglar & Co","50 Chin Swee Rd #05-03 Thong Chai Bldg Singapore 169874","Singapore 169874",1.287698,103.840408
645,"Nalpon & Co","11A Kg Bahru Rd   Singapore 169344","Singapore 169344",1.277257,103.83674
75,"Amarick Gill & Co","317 Outram Rd #02-19 Concorde Shopping Centre Singapore 169075","Singapore 169075",1.288842,103.8341389
81,"Andrew Chua & Co","315 Outram Rd #10-05A Tan Boon Liat Bldg Singapore 169074","Singapore 169074",1.287436,103.833889
332,"Glen Koh","195 Pearl's Hill Terrace, Singapore 168976","Singapore 168976",1.284053,103.841318
418,"Johan Ismail & Co","195 Pearl's Hill Ter #03-45B  Singapore 168976","Singapore 168976",1.284053,103.841318
742,"Regina Law Chambers","195 Pearl's Hill Ter #01-36  Singapore 168976","Singapore 168976",1.284053,103.841318
556,"Lim & Company","Blk 78 Moh Guan Ter #04-17  Singapore 162078","Singapore 162078",1.283741,103.830405
203,"Chow Ng Partnership","Blk 116 Jln Bt Merah #01-1655  Singapore 160116","Singapore 160116",1.281434,103.826405
305,"Exodus Law Corpn","Blk 53 Chin Swee Rd #03-21  Singapore 160053","Singapore 160053",1.2876669,103.841307
576,"Loo & Chong","Blk 52 Chin Swee Rd #03-67  Singapore 160052","Singapore 160052",1.287115,103.841413
266,"Dew Chambers","Blk 51 Chin Swee Rd #02-83  Singapore 160051","Singapore 160051",1.287465,103.841927
125,"B Rao & K S Rajah","Blk 9 Jln Kukoh #01-87  Singapore 160009","Singapore 160009",1.287701,103.838623
639,"Muzammil & Co","Blk 9 Jln Kukoh #01-87  Singapore 160009","Singapore 160009",1.287701,103.838623
210,"Christopher Bridges Law Corpn","16 Jln Kilang Timor #03-03 Redhill Forum Singapore 159308","Singapore 159308",1.28434,103.811306
455,"K2RF Law LLP","One Commonwealth Lane, #03-19, One Commonwealth, Singapore 149544","Singapore 149544",1.304438,103.796798
333,"Glenn Knight","89 Tanglin Halt Rd, Singapore 141089","Singapore 141089",1.302139,103.797267
749,"Reynolds Porter Chamberlain LLP","8 Marina View #34-02A, Asia Square Tower 1, Singapore 118960","Singapore 118960",1.291277,103.772064
895,"The Change Group LLP","87 Science Park Dr, Singapore 118260","Singapore 118260",1.287916,103.7904159
275,"Dominion LLC","200 Cantonment Rd #14-03B Southpoint Singapore 089763","Singapore 089763",1.273503,103.841196
342,"Gopal Perumal & Co","200 Cantonment Rd #14-03 Southpoint Singapore 089763","Singapore 089763",1.273503,103.841196
804,"Shenton Law Practice Llp","200 Cantonment Rd #14-03B Southpoint Singapore 089763","Singapore 089763",1.273503,103.841196
311,"Foo & Partners","21 Cantonment Rd   Singapore 089742","Singapore 089742",1.279069,103.840227
504,"Laurence Goh Eng Yau & Co","21 Cantonment Rd   Singapore 089742","Singapore 089742",1.279069,103.840227
718,"R.R. Chandra","78A Duxton Rd #02-00  Singapore 089537","Singapore 089537",1.278419,103.843289
95,"Aptus Law Corporation","10 Hoe Chiang Rd #06-07 Keppel Towers Singapore 089315","Singapore 089315",1.274357,103.842131
449,"K S Chia Gurdeep & Param","10 Hoe Chiang Rd #13-03 Keppel Towers Singapore 089315","Singapore 089315",1.274357,103.842131
490,"Kscgp Juris Llp","10 Hoe Chiang Rd #13-03 Keppel Towers Singapore 089315","Singapore 089315",1.274357,103.842131
553,"Liberty Law Practice Llp","10 Hoe Chiang Rd #13-00 Keppel Towers Singapore 089315","Singapore 089315",1.274357,103.842131
687,"Peter Ezekiel & Co.","3 Hoe Chiang Rd, Singapore 089315","Singapore 089315",1.274357,103.842131
543,"Leong Kwok Yan","32B Keong Saik Rd   Singapore 089139","Singapore 089139",1.280296,103.841718
544,"Leong Kwok Yan","32 Keong Saik Rd, Singapore 089139","Singapore 089139",1.280296,103.841718
462,"Kang Associates","19 Keppel Rd #08-05 Jit Poh Bldg Singapore 089058","Singapore 089058",1.272967,103.8421539
608,"Marks & Clerk","11 Keppel Rd, Singapore 089057","Singapore 089057",1.272855,103.842833
513,"Lawrence Chua Practice Llc","33A Kreta Ayer Rd   Singapore 088999","Singapore 088999",1.280712,103.842307
446,"K L Tan & Associates","144A Neil Rd   Singapore 088873","Singapore 088873",1.278169,103.8408369
906,"Tj Cheng Law Corpn","23 Neil Rd   Singapore 088815","Singapore 088815",1.280055,103.843335
673,"Optimus Chambers LLC","10 Raeburn Pk #01-01  Singapore 088702","Singapore 088702",1.273225,103.833507
153,"C H Lim & Associates","29 Teo Hong Rd, Singapore 088335","Singapore 088335",1.279738,103.8407299
445,"K L Lim & Sebastian Quek","12 Yan Kit Rd   Singapore 088264","Singapore 088264",1.2764359,103.84218
183,"Cheong & Cheong","Blk 11 Cantonment Cl #04-03  Singapore 080011","Singapore 080011",1.274399,103.83965
225,"Clyde & Co Clasis S'pore Pte. Ltd.","3 Anson Rd #21-01 Springleaf Tower Singapore 079909","Singapore 079909",1.27518,103.84624
341,"Goodwins Law Corpn","3 Anson Rd #07-01 Springleaf Tower Singapore 079909","Singapore 079909",1.27518,103.84624
773,"S T Chew & Partners","80 Anson Road, #22-03, Fuji Xerox Towers, Singapore 079907","Singapore 079907",1.2732079,103.843634
901,"Thummel Schutze & Partners LLP","80 Anson Rd #24-00 Fuji Xerox Towers Singapore 079907","Singapore 079907",1.2732079,103.843634
518,"Lee Bon Leong & Co","79 Anson Rd #11-01 79 Anson Rd Singapore 079906","Singapore 079906",1.2742309,103.845569
17,"Michael Khoo & Partners","10 Anson Rd #11-08 International Plaza Singapore 079903","Singapore 079903",1.276109,103.845924
52,"Aegis Law Corporation","10 Anson Rd, Singapore 079903","Singapore 079903",1.276109,103.845924
56,"Aileen Chong & Co","10 Anson Rd #49-09 International Plaza Singapore 079903","Singapore 079903",1.276109,103.845924
82,"Andrew Tan Tiong Gee & Co","10 Anson Rd #30-04 International Plaza Singapore 079903","Singapore 079903",1.276109,103.845924
106,"Ascentsia Law Corpn","10 Anson Rd #03-01 International Plaza Singapore 079903","Singapore 079903",1.276109,103.845924
297,"Eng Leong & Partners","10 Anson Rd #13-03 International Plaza Singapore 079903","Singapore 079903",1.276109,103.845924
331,"Gideon Tan Razali Zaini","10 Anson Rd #19-04 International Plaza Singapore 079903","Singapore 079903",1.276109,103.845924
350,"Gurdaib Cheong & Partners","10 Anson Rd #17-21 International Plaza Singapore 079903","Singapore 079903",1.276109,103.845924
358,"Halijah Mohd & Co","10 Anson Rd #15-11 International Plaza Singapore 079903","Singapore 079903",1.276109,103.845924
409,"JHT Law Corpn","10 Anson Rd #19-07 International Plaza Singapore 079903","Singapore 079903",1.276109,103.845924
480,"Kim & Co","10 Anson Rd #30-11 International Plaza Singapore 079903","Singapore 079903",1.276109,103.845924
524,"Lee Meng Mew & Co","10 Anson Rd, Singapore 079903","Singapore 079903",1.276109,103.845924
526,"Lee Mun Hooi & Co","10 Anson Rd #13-06 International Plaza Singapore 079903","Singapore 079903",1.276109,103.845924
538,"Legalworks Law Corpn","10 Anson Rd #19-06 International Plaza Singapore 079903","Singapore 079903",1.276109,103.845924
550,"Lexton Law Corpn","10 Anson Rd #24-01 International Plaza Singapore 079903","Singapore 079903",1.276109,103.845924
583,"Low Yeap Toh & Goon Llp","10 Anson Rd #18-13 International Plaza Singapore 079903","Singapore 079903",1.276109,103.845924
602,"Mani & Partners","10 Anson Rd #22-01A International Plaza Singapore 079903","Singapore 079903",1.276109,103.845924
623,"Michael BB Ong & Co","10 Anson Rd #33-06 International Plaza Singapore 079903","Singapore 079903",1.276109,103.845924
737,"Raymond & Co","10 Anson Rd #28-05 International Plaza Singapore 079903","Singapore 079903",1.276109,103.845924
764,"S H Koh & Co","10 Anson Rd #30-11 International Plaza Singapore 079903","Singapore 079903",1.276109,103.845924
779,"Salem Ibrahim Llc","10 Anson Rd #15-19 International Plaza Singapore 079903","Singapore 079903",1.276109,103.845924
853,"Tan & Au Llp","10 Anson Rd #19-09 International Plaza Singapore 079903","Singapore 079903",1.276109,103.845924
869,"Tan Lee & Partners","10 Anson Rd #12-06 International Plaza Singapore 079903","Singapore 079903",1.276109,103.845924
880,"Tan Soon Siew & Co","10 Anson Rd #27-01A International Plaza Singapore 079903","Singapore 079903",1.276109,103.845924
882,"Tang & Partners","10 Anson Rd #21-01 International Plaza Singapore 079903","Singapore 079903",1.276109,103.845924
898,"Thomas Au & Lim","17 International Rd, Singapore 079903","Singapore 079903",1.276109,103.845924
942,"W.PDA Silva & Co.","10 Anson Road, #17-05, International Plaza, Singapore 079903","Singapore 079903",1.276109,103.845924
872,"Tan Lu Seng & Co","46A Peck Seah St   Singapore 079316","Singapore 079316",1.2780069,103.844891
302,"Eugene Ho & Partners","24 Peck Seah St #06-03 Nehsons Bldg Singapore 079314","Singapore 079314",1.278261,103.844907
428,"Josephine Chong Llc","24 Peck Seah St #06-02 Nehsons Bldg Singapore 079314","Singapore 079314",1.278261,103.844907
540,"Legiste Law Corpn","24 Peck Seah St #04-06 Nehsons Bldg Singapore 079314","Singapore 079314",1.278261,103.844907
858,"Tan & Yip Llc","24 Peck Seah St #05-11 Nehsons Bldg Singapore 079314","Singapore 079314",1.278261,103.844907
967,"Wong & Lim","24 Peck Seah St #09-02 Nehsons Bldg Singapore 079314","Singapore 079314",1.278261,103.844907
84,"Ang & Partners","78 Shenton Way #08-01 Chartis Bldg Singapore 079120","Singapore 079120",1.273044,103.844893
108,"Asia Ascent Law Corpn","78 Shenton Way #08-01A Chartis Bldg Singapore 079120","Singapore 079120",1.273044,103.844893
349,"Gurbani & Co Llc","78 Shenton Way #31-02 Chartis Bldg Singapore 079120","Singapore 079120",1.273044,103.844893
989,"Yeo-Leong & Peh LLC","10 Shenton Way #09-00 MAS Bldg Singapore 079117","Singapore 079117",1.27456,103.846354
762,"Ruth Chia & Co","171 Tras St #08-173 Union Bldg Singapore 079025","Singapore 079025",1.274364,103.843877
958,"Winchester Law Llc","171 Tras St #03-171 Union Bldg Singapore 079025","Singapore 079025",1.274364,103.843877
121,"Axis Law Corpn","163 Tras St #06-04 Lian Huat Bldg Singapore 079024","Singapore 079024",1.2748219,103.84395
327,"George Hwang Llc","163 Tras St #08-01 Lian Huat Bldg Singapore 079024","Singapore 079024",1.2748219,103.84395
870,"Tan Leroy & Chandra","70B Tras St   Singapore 079009","Singapore 079009",1.277598,103.844198
944,"Warren Tan & Co","54 Tras St #03-02  Singapore 078993","Singapore 078993",1.27801,103.84429
479,"Khor Law Llc","52A Tras St   Singapore 078991","Singapore 078991",1.278052,103.8442929
403,"Jc Law Asia Llc","1 Wallich St #14-01 Guoco Tower Singapore 078881","Singapore 078881",1.352083,103.819836
864,"Tan Kok Quan Partnership","1 Wallich St #07-02 Guoco Tower Singapore 078881","Singapore 078881",1.352083,103.819836
756,"Rodrigo Tock & Wilson","32 Wallich St, Singapore 078880","Singapore 078880",1.276952,103.84582
695,"Phoeng & Co.","105A Amoy St, Singapore 069925","Singapore 069925",1.28169,103.84754
161,"Campbell Johnston Clark S'pore Llp","83 Amoy St #04-01  Singapore 069902","Singapore 069902",1.280716,103.846949
280,"Dragonlaw Singapore Pte Ltd","4 Ann Siang Hill   Singapore 069786","Singapore 069786",1.281448,103.84535
527,"Lee Rajandran & Joseph","47 Ann Siang Rd #05-01  Singapore 069720","Singapore 069720",1.280439,103.846063
714,"Quek Peck Hong","43 Ann Siang Rd   Singapore 069718","Singapore 069718",1.280627,103.846097
515,"Lawyers On Demand (S) Pte Ltd","17A Boon Tat St   Singapore 069618","Singapore 069618",1.2813619,103.84833
128,"B T Tan & Co","180 Cecil St #12-02 Bangkok Bank Bldg Singapore 069546","Singapore 069546",1.279098,103.847827
339,"Golden Law Llc","156 Cecil St #06-09 Far Eastern Bank Bldg Singapore 069544","Singapore 069544",1.2798989,103.848234
164,"Central Chambers Law Corpn","150 Cecil St #03-00 AXA Life Bldg Singapore 069543","Singapore 069543",1.280195,103.848436
347,"Guan Teck & Lim","150 Cecil St #09-03/04 AXA Life Bldg Singapore 069543","Singapore 069543",1.280195,103.848436
712,"Quantum Law Corporation","150 Cecil St #09-01 AXA Life Bldg Singapore 069543","Singapore 069543",1.280195,103.848436
205,"Chris Chong & C T Ho Partnership","143 Cecil Street, #17-00, GB Building, Singapore 069542","Singapore 069542",1.278886,103.848024
58,"Alain A Johns Partnership","141 Cecil St #08-02 Tung Ann Assn Bldg Singapore 069541","Singapore 069541",1.2793509,103.848329
63,"Alice Yeo & Co","141 Cecil St #06-06 Tung Ann Assn Bldg Singapore 069541","Singapore 069541",1.2793509,103.848329
344,"Grays LLC","141 Cecil St #05-00 Tung Ann Assn Bldg Singapore 069541","Singapore 069541",1.2793509,103.848329
451,"K S Loo & Co","141 Cecil St #10-03 Tung Ann Assn Bldg Singapore 069541","Singapore 069541",1.2793509,103.848329
452,"K S Loo & Co","Tung Ann Association Building #10-03, 141 Cecil Street (S)069541, Singapore 069541","Singapore 069541",1.2793509,103.848329
674,"P Naidu","Singapore 069541","Singapore 069541",1.2793509,103.848329
759,"Ronald Wong & Co","141 Cecil St #07-06 Tung Ann Assn Bldg Singapore 069541","Singapore 069541",1.2793509,103.848329
809,"Silvester Legal Llc","141 Cecil St #08-02 Tung Ann Assn Bldg Singapore 069541","Singapore 069541",1.2793509,103.848329
900,"Thomas Toh","141 Cecil St #04-03 Tung Ann Assn Bldg Singapore 069541","Singapore 069541",1.2793509,103.848329
990,"Yik Koh Teo Llc","141 Cecil St #04-03 Tung Ann Assn Bldg Singapore 069541","Singapore 069541",1.2793509,103.848329
182,"Cheo Yeoh & Associates LLC","138 Cecil St #10-03 Cecil Ct Singapore 069538","Singapore 069538",1.280756,103.848778
840,"Summit Law Corpn","138 Cecil St #10-02 Cecil Ct Singapore 069538","Singapore 069538",1.280756,103.848778
921,"V Ramakrishnan & Co","137 Cecil St #07-10 Aviva Bldg Singapore 069537","Singapore 069537",1.279732,103.848564
99,"Aridas & Associates","135 Cecil St #07-03 MYP Plaza Singapore 069536","Singapore 069536",1.279975,103.848701
100,"Aridas & Associates","135 Cecil St, Singapore 069536","Singapore 069536",1.279975,103.848701
50,"Advocates Legal Chambers LLP","133 Cecil St, Singapore 069535","Singapore 069535",1.280305,103.848906
83,"Andrew Yap & John","133 Cecil St #13-03 Keck Seng Tower Singapore 069535","Singapore 069535",1.280305,103.848906
170,"Chan Neo Llp","133 Cecil St #16-02 Keck Seng Tower Singapore 069535","Singapore 069535",1.280305,103.848906
226,"CM Hoe Partnership","133 Cecil St #06-01A Keck Seng Tower Singapore 069535","Singapore 069535",1.280305,103.848906
306,"Fabian & Khoo","133 Cecil St #08-03 Keck Seng Tower Singapore 069535","Singapore 069535",1.280305,103.848906
340,"Gomez & Vasu LLC","13 Cecil St, Singapore 069535","Singapore 069535",1.280305,103.848906
404,"Jemaine Han & Company","#09-03, Keck Seng Tower, 133 Cecil St, Singapore 069535","Singapore 069535",1.280305,103.848906
547,"Leslie Yeo & Associates","Cecil St, Singapore 069535","Singapore 069535",1.280305,103.848906
782,"Sambandan & Co","133 Cecil St #09-03 Keck Seng Tower Singapore 069535","Singapore 069535",1.280305,103.848906
842,"Sureshan Llc","133 Cecil St #13-01A Keck Seng Tower Singapore 069535","Singapore 069535",1.280305,103.848906
855,"Tan & Lim","133 Cecil St #11-02 Keck Seng Tower Singapore 069535","Singapore 069535",1.280305,103.848906
162,"Carroll, Burdick & McDonough LLP","105 Cecil St, Singapore 069534","Singapore 069534",1.280607,103.84906
907,"Tjh Law Corpn","105 Cecil St #23-01 The Octagon Singapore 069534","Singapore 069534",1.280607,103.84906
1,"Michael Khoo Partners Incorporating J Ng & Co","101 Cecil St #17-06 Tong Eng Bldg Singapore 069533","Singapore 069533",1.281097,103.849324
135,"Bay Tan & Partners","101 Cecil St, Singapore 069533","Singapore 069533",1.281097,103.849324
184,"Cheong & Koh","101 Cecil St #13-06 Tong Eng Bldg Singapore 069533","Singapore 069533",1.281097,103.849324
232,"Continental Law Llp","101 Cecil St #23-06 Tong Eng Bldg Singapore 069533","Singapore 069533",1.281097,103.849324
244,"Daisy Yeo & Co","101 Cecil St #20-01 Tong Eng Bldg Singapore 069533","Singapore 069533",1.281097,103.849324
257,"David Ong & Partners","101 Cecil St #13-01 Tong Eng Bldg Singapore 069533","Singapore 069533",1.281097,103.849324
307,"Fam Tay & Lee","101 Cecil St #16-06 Tong Eng Bldg Singapore 069533","Singapore 069533",1.281097,103.849324
400,"James Selvaraj LLC","14 Cecil St, Singapore 069533","Singapore 069533",1.281097,103.849324
437,"Just Law LLC","101 Cecil St #12-12 Tong Eng Bldg Singapore 069533","Singapore 069533",1.281097,103.849324
444,"K Krishna & Partners","101 Cecil St #24-03 Tong Eng Bldg Singapore 069533","Singapore 069533",1.281097,103.849324
579,"Lourdes Chen & Lee","23 Cecil St, Singapore 069533","Singapore 069533",1.281097,103.849324
597,"Mahadi Abu Bakar & Partners","101 Cecil St #14-01 Tong Eng Bldg Singapore 069533","Singapore 069533",1.281097,103.849324
632,"Mohan Das Naidu & Partners","101 Cecil St #09-10 Tong Eng Bldg Singapore 069533","Singapore 069533",1.281097,103.849324
633,"Mohan Das Naidu & Partners","101 Cecil St, Singapore 069533","Singapore 069533",1.281097,103.849324
715,"R Kalamohan Law Llc","101 Cecil St #08-12 Tong Eng Bldg Singapore 069533","Singapore 069533",1.281097,103.849324
721,"Rabi Ahmad & Co","101 Cecil St #14-03 Tong Eng Bldg Singapore 069533","Singapore 069533",1.281097,103.849324
760,"Roy & Partners","101 Cecil St #11-09 Tong Eng Bldg Singapore 069533","Singapore 069533",1.281097,103.849324
771,"S P Wong & Co","101 Cecil St #10-06 Tong Eng Bldg Singapore 069533","Singapore 069533",1.281097,103.849324
863,"Tan Kim Seng & Partners","101 Cecil St #18-03 Tong Eng Bldg Singapore 069533","Singapore 069533",1.281097,103.849324
883,"Tanlim Partnership","101 Cecil St #19-02 Tong Eng Bldg Singapore 069533","Singapore 069533",1.281097,103.849324
947,"Wee Soon Keng","101 Cecil St #17-06 Tong Eng Bldg Singapore 069533","Singapore 069533",1.281097,103.849324
955,"William Oh & Partners","101 Cecil St #25-02 Tong Eng Bldg Singapore 069533","Singapore 069533",1.281097,103.849324
746,"Remollo Raz & Redillas","100 Cecil St, The Globe, Singapore 069532","Singapore 069532",1.281143,103.848965
485,"Kirpal & Associates","50A Club St   Singapore 069427","Singapore 069427",1.282148,103.845876
577,"Loo & Partners","16 Gemmill Lane   Singapore 069254","Singapore 069254",1.282357,103.847134
20,"39 Essex Chambers (International) Pte Ltd","32 Maxwell Rd #02-16  Singapore 069115","Singapore 069115",1.27728,103.846528
140,"Benjamin Rupert Olbourne","32 Maxwell Rd, Singapore 069115","Singapore 069115",1.27728,103.846528
211,"Christopher Lau","32 Maxwell Rd #02-04  Singapore 069115","Singapore 069115",1.27728,103.846528
258,"David Patrick Lewis","32 Maxwell Rd, Singapore 069115","Singapore 069115",1.27728,103.846528
644,"Nakul Dewan","32 Maxwell Rd, Singapore 069115","Singapore 069115",1.27728,103.846528
818,"Simon Christopher Milnes","32 Maxwell Rd, Singapore 069115","Singapore 069115",1.27728,103.846528
14,"Dennis Chua & Co","20 Maxwell Rd #12-07A Maxwell Hse Singapore 069113","Singapore 069113",1.279136,103.844656
104,"Arul Chew & Partners","20 Maxwell Rd #02-13/14 Maxwell Hse Singapore 069113","Singapore 069113",1.279136,103.844656
202,"Choo Kwun Kiat","Fax  20 Maxwell Rd #02-10 Maxwell Hse Singapore 069113","Singapore 069113",1.279136,103.844656
338,"Goh Phai Cheng Llc","20 Maxwell Rd #06-15 Maxwell Hse Singapore 069113","Singapore 069113",1.279136,103.844656
366,"Heng Leong & Srinivasan Llc","20 Maxwell Rd #08-01Q Maxwell Hse Singapore 069113","Singapore 069113",1.279136,103.844656
557,"Lim & Gopalan","20 Maxwell Rd #05-11 Maxwell Hse Singapore 069113","Singapore 069113",1.279136,103.844656
614,"Maurice Oon","20 Maxwell Rd, Singapore 069113","Singapore 069113",1.279136,103.844656
815,"Sim Teow Leng & Co","20 Maxwell Rd #09-02/03 Maxwell Hse Singapore 069113","Singapore 069113",1.279136,103.844656
919,"United Legal Alliance Llc","20 Maxwell Rd #13-00 Maxwell Hse Singapore 069113","Singapore 069113",1.279136,103.844656
250,"Dave Shaun Patel Partnership","20 McCallum St, Asia Chambers, Singapore 069046","Singapore 069046",1.279552,103.847941
910,"Toh Tan & Partners","20 McCallum St, Singapore 069046","Singapore 069046",1.279552,103.847941
690,"Peter Ng & Co","15 McCallum St, Singapore 069045","Singapore 069045",1.279538,103.8474109
459,"Kalidass Law Corpn","160 Robinson Rd #19-10 Singapore Business Frderation Ctr Singapore 068914","Singapore 068914",1.352083,103.819836
585,"Lpp Law Corpn","160 Robinson Rd #26-05 Singapore Business Frderation Ctr Singapore 068914","Singapore 068914",1.352083,103.819836
606,"Margaret Law Corporation","160 Robinson Rd #19-07 Singapore Business Frderation Ctr Singapore 068914","Singapore 068914",1.352083,103.819836
965,"Wong & Eng Llc","160 Robinson Rd #25-09 Singapore Business Frderation Ctr Singapore 068914","Singapore 068914",1.352083,103.819836
817,"Simmons & Simmons Jws Pte. Ltd.","168 Robinson Rd 11-01 & 04 Capital Tower Singapore 068912","Singapore 068912",1.27757,103.847334
319,"Freehills","39 Robinson Rd #08-01 Robinson Pt Singapore 068911","Singapore 068911",1.279644,103.849487
245,"Damodara Hazra Llp","146 Robinson Rd #07-02  Singapore 068909","Singapore 068909",1.277954,103.848108
825,"Skandan Law Llc","144 Robinson Rd #14-02 Robinson Sq Singapore 068908","Singapore 068908",1.278109,103.848192
206,"Chris Chua & Associates","138 Robinson Rd #10-04 The Corporate Office Singapore 068906","Singapore 068906",1.278857,103.848464
725,"Rajan Chettiar LLC","112 Robinson Rd #14-02 Robinson 112 Singapore 068902","Singapore 068902",1.279253,103.848881
187,"Chew & Partners","96 Robinson Rd, Singapore 068899","Singapore 068899",1.279711,103.8491449
651,"Ng Chong & Hue","96 Robinson Rd #15-01 S I F Bldg Singapore 068899","Singapore 068899",1.279711,103.8491449
31,"A Mohamed Hashim & Madelene Sng","80 Robinson Rd, Singapore 068898","Singapore 068898",1.280128,103.84938
975,"Wong Tan & Molly Lim LLC","80 Robinson Rd #17-02  Singapore 068898","Singapore 068898",1.280128,103.84938
384,"Infinitus Law Corpn","77 Robinson Rd #16-00 Robinson 77 Singapore 068896","Singapore 068896",1.277817,103.848337
271,"Dhillon Dendroff Tan & Partners","71 Robinson Rd, Singapore 068895","Singapore 068895",1.278545,103.8487789
131,"Balakrishnan & Associates","63 Robinson Rd, Singapore 068894","Singapore 068894",1.2789919,103.84908
672,"Oon & Bazul LLP","36 Robinson Rd #08-01 City Hse Singapore 068877","Singapore 068877",1.2813159,103.849776
707,"Prp Law Llc","36 Robinson Rd #12-05 City Hse Singapore 068877","Singapore 068877",1.2813159,103.849776
731,"RAMDAS & WONG","36 Robinson Rd, Singapore 068877","Singapore 068877",1.2813159,103.849776
732,"Ramdas & Wong","36 Robinson Rd #10-01 City Hse Singapore 068877","Singapore 068877",1.2813159,103.849776
733,"Ranjeet & Company","36 Robinson Rd, Singapore 068877","Singapore 068877",1.2813159,103.849776
811,"Sim Law Practice LLC","36 Robinson Rd #12-03 City Hse Singapore 068877","Singapore 068877",1.2813159,103.849776
371,"Hill Dickinson Llp","8 Shenton Way #49-02 AXA Tower Singapore 068811","Singapore 068811",1.275386,103.8472589
424,"Joseph Lopez Llp","6 Shenton Way #17-11 OUE Downtown Tower 2 Singapore 068809","Singapore 068809",1.276805,103.848363
425,"Joseph Tan Jude Benny","6 Shenton Way #23-08 OUE Downtown Tower 2 Singapore 068809","Singapore 068809",1.276805,103.848363
426,"Joseph Tan Jude Benny Llp","6 Shenton Way #23-08 OUE Downtown Singapore 068809","Singapore 068809",1.276805,103.848363
647,"Nanyang Law Llc","6 Shenton Way #41-01 OUE Downtown Tower 1 Singapore 068809","Singapore 068809",1.276805,103.848363
663,"One Legal LLC","6 Shenton Way #21-08 OUE Downtown Singapore 068809","Singapore 068809",1.276805,103.848363
964,"Wnlex Llc","6 Shenton Way #40-04 OUE Downtown Singapore 068809","Singapore 068809",1.276805,103.848363
127,"B Rengarajoo & Associates","5 Shenton Way, Singapore 068808","Singapore 068808",1.277583,103.849316
312,"Foo & Partners","8 Shenton Way, Singapore 068808","Singapore 068808",1.277583,103.849316
505,"Laurence Goh Eng Yau & Co","5 Shenton Way, Singapore 068808","Singapore 068808",1.277583,103.849316
713,"Quek Kai Kok","5 Shenton Way #15-08 U I C Bldg Singapore 068808","Singapore 068808",1.277583,103.849316
946,"Wee Ramayah & Partners","1 Shenton Way, Singapore 068808","Singapore 068808",1.277583,103.849316
259,"De Souza Lim & Goh Llp","4 Shenton Way #28-01 SGX Centre 2 Singapore 068807","Singapore 068807",1.279292,103.849818
304,"Eversheds Harry Elias Llp","4 Shenton Way #17-01 SGX Centre 2 Singapore 068807","Singapore 068807",1.279292,103.849818
475,"Kenneth Tan Partnership","4 Shenton Way #08-01 SGX Centre 2 Singapore 068807","Singapore 068807",1.279292,103.849818
546,"Leong Why Kong Co","4 Shenton Way, Singapore 068807","Singapore 068807",1.279292,103.849818
270,"Dhillon & Partners","Shenton Way, Singapore","Singapore 068805",1.278542,103.850011
214,"Chui Sim Goh & Lim","3 Shenton Way, Singapore 068805","Singapore 068805",1.278542,103.850011
269,"Dhillon & Panoo Llc","3 Shenton Way #07-01 Shenton Hse Singapore 068805","Singapore 068805",1.278542,103.850011
519,"Lee Brothers","3 Shenton Way #14-06 Shenton Hse Singapore 068805","Singapore 068805",1.278542,103.850011
559,"Lim & Wong Partnership","3 Shenton Way #14-06 Shenton Hse Singapore 068805","Singapore 068805",1.278542,103.850011
618,"May Oh & Wee","3 Shenton Way #15-01 Shenton Hse Singapore 068805","Singapore 068805",1.278542,103.850011
650,"Ng & Co","3 Shenton Way, Singapore 068805","Singapore 068805",1.278542,103.850011
778,"Salehah & Co","3 Shenton Way #07-03 Shenton Hse Singapore 068805","Singapore 068805",1.278542,103.850011
788,"Sanders Law Llc","3 Shenton Way #07-01 Shenton Hse Singapore 068805","Singapore 068805",1.278542,103.850011
878,"Tan Sei Bee","3 Shenton Way #21-04 Shenton Hse Singapore 068805","Singapore 068805",1.278542,103.850011
969,"Wong & Yian Llc","3 Shenton Way #10-03 Shenton Hse Singapore 068805","Singapore 068805",1.278542,103.850011
974,"Wong Kin Meng & Co","3 Shenton Way #21-04 Shenton Hse Singapore 068805","Singapore 068805",1.278542,103.850011
980,"Wu LLC","3 Shenton Way #21-04 Shenton Hse Singapore 068805","Singapore 068805",1.278542,103.850011
57,"Akin Gump Strauss Hauer & Feld Llp","2 Shenton Way #16-01 SGX Centre 1 Singapore 068804","Singapore 068804",1.279464,103.849946
145,"Bird & Bird Atmd Llp","2 Shenton Way #13-03 SGX Centre 1 Singapore 068804","Singapore 068804",1.279464,103.849946
822,"Singh B Mohan & Co","1 Shenton Way, Singapore 068803","Singapore 068803",1.279447,103.8505069
289,"Ecyt Law Llc","137 Telok Ayer St #07-04 Singapore Hokkien Huay Kuan Bldg Singapore 068602","Singapore 068602",1.280887,103.84787
436,"Jusequity Law Corpn","137 Telok Ayer St #05-01/2/3 Singapore Hokkien Huay Kuan Bldg Singapore 068602","Singapore 068602",1.280887,103.84787
441,"K K Cheng & Co","127 Telok Ayer St, Singapore 068596","Singapore 068596",1.281061,103.847934
13,"Belinda Ang Tang & Partners","19 Carpenter St #03-00  Singapore 059908","Singapore 059908",1.288373,103.847663
873,"Tan Oei & Oei LLC","17 Carpenter St #04-01  Singapore 059906","Singapore 059906",1.2883039,103.847757
117,"August Law Corporation","12 Eu Tong Sen St, Singapore 059819","Singapore 059819",1.288477,103.846732
709,"Py Legal Llc","12 Eu Tong Sen St #06-163 The Central Singapore 059819","Singapore 059819",1.288477,103.846732
719,"R.S. Wijaya & Co","12 Eu Tong Sen St #08-164 The Central Singapore 059819","Singapore 059819",1.288477,103.846732
963,"Wmh Law Corpn","12 Eu Tong Sen St #07-169 The Central Singapore 059819","Singapore 059819",1.288477,103.846732
609,"Martin & Partners","8 Eu Tong Sen St #16-85 The Central Singapore 059818","Singapore 059818",1.288529,103.846784
130,"Bajwa & Co","6 Eu Tong Sen St #06-17 The Central Singapore 059817","Singapore 059817",1.288424,103.846694
277,"Dora Boon & Co","6 Eu Tong Sen St #09-05 The Central Singapore 059817","Singapore 059817",1.288424,103.846694
316,"Francine Tan Law Corporation","Singapore 059817","Singapore 059817",1.288424,103.846694
738,"Raymond Yeo","6 Eu Tong Sen St #05-17 The Central Singapore 059817","Singapore 059817",1.288424,103.846694
850,"T L Yap & Associates","6 Eu Tong Sen St #09-11 The Central Singapore 059817","Singapore 059817",1.288424,103.846694
851,"T L Yap Law Chambers Llc","6 Eu Tong Sen St #09-11 The Central Singapore 059817","Singapore 059817",1.288424,103.846694
189,"Chia Ngee Thuang & Co","60 Eu Tong Sen St #03-26 Furama City Centre Singapore Shopping Centre Singapore 059804","Singapore 059804",1.286551,103.844618
238,"Crossborders Llc","60 Eu Tong Sen St #03-12 Furama City Centre Singapore Shopping Centre Singapore 059804","Singapore 059804",1.286551,103.844618
375,"Hoh Law Corporation","60 Eu Tong Sen St #01-08 Furama City Centre Singapore Shopping Centre Singapore 059804","Singapore 059804",1.286551,103.844618
317,"Francis Khoo & Lim","20, Havelock Rd, #03-18, Central Sq, Singapore 059765, Singapore","Singapore 059765",1.2883039,103.842986
25,"A C Cheong & Co","20 Havelock Rd #02-44 Central Sq Singapore 059765","Singapore 059765",1.2883039,103.842986
163,"Catherine Lim Llc","20 Havelock Rd #03-01 Central Sq Singapore 059765","Singapore 059765",1.2883039,103.842986
274,"Dodwell & Co","20 Havelock Rd #02-27/28 Central Sq Singapore 059765","Singapore 059765",1.2883039,103.842986
309,"Firoze & May Llc","20 Havelock Rd #02-34 Central Sq Singapore 059765","Singapore 059765",1.2883039,103.842986
318,"Francis Khoo & Lim","20 Havelock Rd #03-18 Central Sq Singapore 059765","Singapore 059765",1.2883039,103.842986
433,"Julie Tok & Co","20 Havelock Rd #02-42 Central Sq Singapore 059765","Singapore 059765",1.2883039,103.842986
566,"Linda Phua Law Practice","20 Havelock Rd #02-45 Central Sq Singapore 059765","Singapore 059765",1.2883039,103.842986
620,"Md Nasser Ismail & Co","20 Havelock Rd #02-31 Central Sq Singapore 059765","Singapore 059765",1.2883039,103.842986
668,"Ong Cheong Wei Law Chambers","29 Central Blvd, Singapore 059765","Singapore 059765",1.2883039,103.842986
766,"S K Kumar & Associates","20 Havelock Rd #03-11 Central Sq Singapore 059765","Singapore 059765",1.2883039,103.842986
775,"S.S.Parhar Law Corpn","20 Havelock Rd #02-38 Central Sq Singapore 059765","Singapore 059765",1.2883039,103.842986
885,"Tay & Wong","20 Havelock Rd #02-36 Central Sq Singapore 059765","Singapore 059765",1.2883039,103.842986
97,"Archilex Law Corpn","2 Havelock Rd #06-05 2HR Singapore 059763","Singapore 059763",1.287135,103.84517
386,"Invictus Law Corpn","2 Havelock Rd #01-20 2HR Singapore 059763","Singapore 059763",1.287135,103.84517
587,"Luke Lee & Co","2 Havelock Rd #06-02 2HR Singapore 059763","Singapore 059763",1.287135,103.84517
677,"P. Tan & Co","2 Havelock Rd #06-02 2HR Singapore 059763","Singapore 059763",1.287135,103.84517
684,"Peng Kwee & Christine Seah","2 Havelock Rd, Singapore 059763","Singapore 059763",1.287135,103.84517
507,"Law Society Pro Bono Services","1 Havelock Sq #05-00  Singapore 059724","Singapore 059724",1.286997,103.842782
629,"Mirchandani & Partners","Ofc","Singapore 059608",1.288187,103.844007
157,"C S Lee","11 Keng Cheow St, Singapore 059608","Singapore 059608",1.288187,103.844007
888,"Teh Yip Wong and Tan","11 Keng Cheow St, Singapore 059608","Singapore 059608",1.288187,103.844007
956,"William Poh & Louis Lim","21B Mosque St   Singapore 059501","Singapore 059501",1.283692,103.84466
209,"Christopher Bridges","9 Mosque St, Singapore 059489","Singapore 059489",1.284019,103.844302
11,"Leong Chua & Wong","133 New Bridge Rd #22-09 Chinatown Pt Singapore 059413","Singapore 059413",1.285202,103.8449399
77,"Amolat & Partners","133 New Bridge Rd #14-01 Chinatown Pt Singapore 059413","Singapore 059413",1.285202,103.8449399
78,"Amolat & Partners","1 New Bridge Rd, Singapore 059413","Singapore 059413",1.285202,103.8449399
123,"B B Marican Maideen & Co","133 New Bridge Rd #13-08 Chinatown Pt Singapore 059413","Singapore 059413",1.285202,103.8449399
150,"Brown Pereira & Co","133 New Bridge Rd #16-05 Chinatown Pt Singapore 059413","Singapore 059413",1.285202,103.8449399
151,"Bsa Law Chambers Llc","133 New Bridge Rd #10-04 Chinatown Pt Singapore 059413","Singapore 059413",1.285202,103.8449399
233,"Cooma & Rai","133 New Bridge Rd #08-02 Chinatown Pt Singapore 059413","Singapore 059413",1.285202,103.8449399
235,"Cosmas Llc","133 New Bridge Rd #16-05 Chinatown Pt Singapore 059413","Singapore 059413",1.285202,103.8449399
248,"Daniel Poon & Co","133 New Bridge Rd #11-02 Chinatown Pt Singapore 059413","Singapore 059413",1.285202,103.8449399
278,"Dorothy Chai & Mary Ong Law Practice","133 New Bridge Rd #14-10 Chinatown Pt Singapore 059413","Singapore 059413",1.285202,103.8449399
279,"Dorothy Chai Law Practice","133 New Bridge Rd #14-10 Chinatown Pt Singapore 059413","Singapore 059413",1.285202,103.8449399
287,"East Asia Law Corporation","133 New Bridge Rd #10-02 Chinatown Pt Singapore 059413","Singapore 059413",1.285202,103.8449399
300,"Esvaran & Tan","133 New Bridge Rd #12-02 Chinatown Pt Singapore 059413","Singapore 059413",1.285202,103.8449399
322,"G N Tang & Co","133 New Bridge Rd #22-09 Chinatown Pt Singapore 059413","Singapore 059413",1.285202,103.8449399
337,"Goh Jp & Wong Llc","133 New Bridge Rd #16-09 Chinatown Pt Singapore 059413","Singapore 059413",1.285202,103.8449399
355,"H K Wong & Co","133 New Bridge Rd #16-09 Chinatown Pt Singapore 059413","Singapore 059413",1.285202,103.8449399
361,"Har (Law Corporation)","133 New Bridge Rd #09-02 Chinatown Pt Singapore 059413","Singapore 059413",1.285202,103.8449399
374,"Ho Wong Law Practice Llc","133 New Bridge Rd #23-06/07/08 Chinatown Pt Singapore 059413","Singapore 059413",1.285202,103.8449399
391,"J S Yeh & Co","133 New Bridge Rd #18-03 Chinatown Pt Singapore 059413","Singapore 059413",1.285202,103.8449399
401,"Jan Tan & Chan","133 New Bridge Rd #15-10 Chinatown Pt Singapore 059413","Singapore 059413",1.285202,103.8449399
438,"Justicius Law Corpn","133 New Bridge Rd #08-08 Chinatown Pt Singapore 059413","Singapore 059413",1.285202,103.8449399
439,"K H Ching & Co","133 New Bridge Rd #11-08 Chinatown Pt Singapore 059413","Singapore 059413",1.285202,103.8449399
471,"Kelvin Lim & Partners","133 New Bridge Rd #12-10 Chinatown Pt Singapore 059413","Singapore 059413",1.285202,103.8449399
476,"Kertar Law Llc","133 New Bridge Rd #11-10 Chinatown Pt Singapore 059413","Singapore 059413",1.285202,103.8449399
560,"Lim BC & Co","133 New Bridge Rd #16-01 Chinatown Pt Singapore 059413","Singapore 059413",1.285202,103.8449399
567,"Ling Das & Partners","133 New Bridge Rd #08-07 Chinatown Pt Singapore 059413","Singapore 059413",1.285202,103.8449399
594,"M Wan","133 New Bridge Rd #15-02 Chinatown Pt Singapore 059413","Singapore 059413",1.285202,103.8449399
599,"Mahtani & Co.","133 New Bridge Road, #25-04, Chinatown Point, Singapore 059413","Singapore 059413",1.285202,103.8449399
612,"Mathew Chew & Chelliah","133 New Bridge Rd #13-10 Chinatown Pt Singapore 059413","Singapore 059413",1.285202,103.8449399
615,"Maximus Law Llc","133 New Bridge Rd #12-09 Chinatown Pt Singapore 059413","Singapore 059413",1.285202,103.8449399
637,"MSC Law Corpn","133 New Bridge Rd #13-06 Chinatown Pt Singapore 059413","Singapore 059413",1.285202,103.8449399
723,"Raj Kumar & Rama","133 New Bridge Rd #16-07 Chinatown Pt Singapore 059413","Singapore 059413",1.285202,103.8449399
739,"Rbn Chambers Llc","133 New Bridge Rd #10-10 Chinatown Pt Singapore 059413","Singapore 059413",1.285202,103.8449399
750,"Riaz Llc","133 New Bridge Rd #09-09 Chinatown Pt Singapore 059413","Singapore 059413",1.285202,103.8449399
754,"Robin Tan & Co","133 New Bridge Rd #11-07 Chinatown Pt Singapore 059413","Singapore 059413",1.285202,103.8449399
758,"Ronald Lee & Co.","133 New Bridge Road, #25-08, Chinatown Point, Singapore 059413","Singapore 059413",1.285202,103.8449399
768,"S L Tan & Co","133 New Bridge Rd, Singapore 059413","Singapore 059413",1.285202,103.8449399
793,"Seah & Co","133 New Bridge Rd #08-05/06 Chinatown Pt Singapore 059413","Singapore 059413",1.285202,103.8449399
826,"Sng & Co","133 New Bridge Rd #11-05 Chinatown Pt Singapore 059413","Singapore 059413",1.285202,103.8449399
860,"Tan Chye Kwee","133 New Bridge Rd #11-06 Chinatown Pt Singapore 059413","Singapore 059413",1.285202,103.8449399
894,"Thangavelu Llc","133 New Bridge Rd #10-10 Chinatown Pt Singapore 059413","Singapore 059413",1.285202,103.8449399
922,"V.Suria & Co","133 New Bridge Rd #16-07 Chinatown Pt Singapore 059413","Singapore 059413",1.285202,103.8449399
935,"Vision Law Llc","133 New Bridge Rd #18-01 Chinatown Pt Singapore 059413","Singapore 059413",1.285202,103.8449399
949,"Wee Tay & Lim","133 New Bridge Rd #19-09 Chinatown Pt Singapore 059413","Singapore 059413",1.285202,103.8449399
972,"Wong Gopal & Rai","133 New Bridge Rd #09-01 Chinatown Pt Singapore 059413","Singapore 059413",1.285202,103.8449399
986,"Yeo Kee Chin & Co","133 New Bridge Rd #09-03 Chinatown Pt Singapore 059413","Singapore 059413",1.285202,103.8449399
987,"Yeo Marini & Partners","133 New Bridge Rd #15-04 Chinatown Pt Singapore 059413","Singapore 059413",1.285202,103.8449399
499,"Lalwani Law Chambers","23 New Bridge Rd #04-01  Singapore 059389","Singapore 059389",1.288799,103.8475349
856,"Tan & Lim","23 New Bridge Rd, Singapore 059389","Singapore 059389",1.288799,103.8475349
167,"Chambers Law Llp","45 North Canal Rd #05-01  Singapore 059301","Singapore 059301",1.28715,103.846697
676,"P S Goh & Co","36 N Canal Rd, Singapore 059292","Singapore 059292",1.286931,103.847107
268,"Dg Law Llc","34D North Canal Rd   Singapore 059290","Singapore 059290",1.28689,103.847195
397,"James Chai & Partners","78A Pagoda St   Singapore 059237","Singapore 059237",1.283883,103.843731
682,"Patrick Chin Syn & Co","67B Pagoda St   Singapore 059226","Singapore 059226",1.283593,103.843862
669,"Ong Lip Cheng Peter","65B Pagoda St   Singapore 059224","Singapore 059224",1.28357,103.843897
42,"Abraham Teo & Co","1 Park Rd #04-47 People's Pk Complex Singapore 059108","Singapore 059108",1.284095,103.8425309
188,"Chew Siang Tong","1 Park Rd #04-19F People's Pk Complex Singapore 059108","Singapore 059108",1.284095,103.8425309
716,"R Ramason & Almenoar","1 Park Rd #04-06 People's Pk Complex Singapore 059108","Singapore 059108",1.284095,103.8425309
797,"Serene Chan & Co","1 Park Rd #04-04 People's Pk Complex Singapore 059108","Singapore 059108",1.284095,103.8425309
798,"Serene Chan & Co","1 Park Road, #04-04 People's Park Complex, Singapore 059108","Singapore 059108",1.284095,103.8425309
868,"Tan Lee & Choo","1 Park Rd #04-04 People's Pk Complex Singapore 059108","Singapore 059108",1.284095,103.8425309
876,"Tan See Swan & Co","1 Park Rd #04-48/50 People's Pk Complex Singapore 059108","Singapore 059108",1.284095,103.8425309
877,"Tan See Swan & Co","Singapore 059108","Singapore 059108",1.284095,103.8425309
85,"Angela Wong & Co","52A Smith St   Singapore 058959","Singapore 058959",1.282792,103.843468
267,"Dextra Partners Pte Ltd","269A South Bridge Rd   Singapore 058818","Singapore 058818",1.281913,103.8453229
301,"Ethos Law Corpn","225B South Bridge Rd   Singapore 058774","Singapore 058774",1.282844,103.845857
795,"Segeram & Co","225B South Bridge Rd   Singapore 058774","Singapore 058774",1.282844,103.845857
62,"Alfred Tan & Co","150 South Bridge Rd #05-01 Fook Hai Bldg Singapore 058727","Singapore 058727",1.285134,103.846524
239,"Crown Juris Law Llc","150 South Bridge Rd #02-11 Fook Hai Bldg Singapore 058727","Singapore 058727",1.285134,103.846524
313,"Foo Kwok Llc","150 South Bridge Rd #05-02A Fook Hai Bldg Singapore 058727","Singapore 058727",1.285134,103.846524
323,"G S Lim & Partners","150 South Bridge Rd #02-30 Fook Hai Bldg Singapore 058727","Singapore 058727",1.285134,103.846524
419,"John Tay & Co","150 South Bridge Rd #02-05 Fook Hai Bldg Singapore 058727","Singapore 058727",1.285134,103.846524
466,"Kc Tng Law Practice","150 South Bridge Rd #02-30 Fook Hai Bldg Singapore 058727","Singapore 058727",1.285134,103.846524
494,"Kuru & Co","150 South Bridge Rd #04-06 Fook Hai Bldg Singapore 058727","Singapore 058727",1.285134,103.846524
603,"Manicka & Co","150 South Bridge Rd #02-07 Fook Hai Bldg Singapore 058727","Singapore 058727",1.285134,103.846524
689,"Peter Moe Law Practice","Singapore 058727","Singapore 058727",1.285134,103.846524
829,"Soo Poh Huat & Co","150 South Bridge Rd #02-23 Fook Hai Bldg Singapore 058727","Singapore 058727",1.285134,103.846524
908,"Tng Soon Chye & Co","150 South Bridge Rd #02-19 Fook Hai Bldg Singapore 058727","Singapore 058727",1.285134,103.846524
951,"Wendy Han & Co","150 South Bridge Rd #02-30 Fook Hai Bldg Singapore 058727","Singapore 058727",1.285134,103.846524
787,"Samuel Seow Law Corpn","79 South Bridge Rd   Singapore 058709","Singapore 058709",1.286693,103.847986
415,"Jlim Law Corpn","76 South Bridge Rd #03-00 Merchants Bldg Singapore 058706","Singapore 058706",1.286861,103.848024
252,"David Liew Law Practice","74 South Bridge Rd #05-01  Singapore 058704","Singapore 058704",1.286911,103.8480529
283,"DSH Law Corporation","74 South Bridge Rd, Singapore 058704","Singapore 058704",1.286911,103.8480529
328,"Gerard Seah & Co","74 South Bridge Rd #05-01  Singapore 058704","Singapore 058704",1.286911,103.8480529
511,"Lawhub LLC","74 South Bridge Rd, Singapore 058704","Singapore 058704",1.286911,103.8480529
529,"Lee Shergill Llp","72 South Bridge Rd, Singapore 058702","Singapore 058702",1.286959,103.848071
897,"The Law Society Of S'pore","39 South Bridge Rd   Singapore 058673","Singapore 058673",1.287591,103.848482
472,"Ken Lee Law Corporation","34 South Bridge Rd, Singapore 058668","Singapore 058668",1.288065,103.848727
679,"Pacific Law Corporation","34 South Bridge Rd, Singapore 058668","Singapore 058668",1.288065,103.848727
993,"Yuen Law Llc","34C South Bridge Rd   Singapore 058668","Singapore 058668",1.288065,103.848727
844,"Susanne DiBiagio Counselling","31A South Bridge Rd, Singapore 058666","Singapore 058666",1.287762,103.848569
255,"David Nayar & Vardan","49A Temple St   Singapore 058594","Singapore 058594",1.283175,103.843592
168,"Chan Jer Hiang & Co","48A Temple St   Singapore 058593","Singapore 058593",1.283274,103.843711
179,"Chelliah & Kiang Llc","20 Up Circular Rd #01-57 The Riverwalk Singapore 058416","Singapore 058416",1.28887,103.848344
542,"Leong Kum Kwok Law Practice Llc","20 Up Circular Rd #01-17 The Riverwalk Singapore 058416","Singapore 058416",1.28887,103.848344
217,"Circular Law Chambers Llp","16 Up Circular Rd   Singapore 058414","Singapore 058414",1.288778,103.848018
28,"A C Syed & Partners","101A Up Cross St #13-23 People's Pk Centre Singapore 058358","Singapore 058358",1.285429,103.84363
37,"Aaron & Co","101A Up Cross St #09-14 People's Pk Centre Singapore 058358","Singapore 058358",1.285429,103.84363
41,"Abraham Logan & Partners","101A Up Cross St #09-07 People's Pk Centre Singapore 058358","Singapore 058358",1.285429,103.84363
133,"Basant Law Practice Llc","101A Up Cross St #09-15 People's Pk Centre Singapore 058358","Singapore 058358",1.285429,103.84363
148,"Bonnie Kwok Llc","101A Up Cross St #08-12 People's Pk Centre Singapore 058358","Singapore 058358",1.285429,103.84363
169,"Chan Kam Foo & Associates Llc","101A Up Cross St #09-10 People's Pk Centre Singapore 058358","Singapore 058358",1.285429,103.84363
207,"Chris Gill & Co","101A Up Cross St #12-18 People's Pk Centre Singapore 058358","Singapore 058358",1.285429,103.84363
220,"CK Teo & Co","101A Up Cross St #08-17 People's Pk Centre Singapore 058358","Singapore 058358",1.285429,103.84363
288,"Eastern Law Corpn","101A Up Cross St #08-12 People's Pk Centre Singapore 058358","Singapore 058358",1.285429,103.84363
364,"Harold Seet & Indra Raj","101A Up Cross St #08-21 People's Pk Centre Singapore 058358","Singapore 058358",1.285429,103.84363
373,"Ho & Associates","101A Up Cross St #12-21 People's Pk Centre Singapore 058358","Singapore 058358",1.285429,103.84363
405,"Jenny Lai & Co","101A Up Cross St #08-20 People's Pk Centre Singapore 058358","Singapore 058358",1.285429,103.84363
458,"Kalco Law Llc","101A Up Cross St #12-17 People's Pk Centre Singapore 058358","Singapore 058358",1.285429,103.84363
498,"Lai Ying Ling Jenny","101A Up Cross St #06-16 People's Pk Centre Singapore 058358","Singapore 058358",1.285429,103.84363
530,"Lee T H & Partners","101A Up Cross St #10-23 People's Pk Centre Singapore 058358","Singapore 058358",1.285429,103.84363
591,"M M Marican & Co","101A Up Cross St #12-08 People's Pk Centre Singapore 058358","Singapore 058358",1.285429,103.84363
638,"Murthy & Co","101A Up Cross St #13-18 People's Pk Centre Singapore 058358","Singapore 058358",1.285429,103.84363
717,"R Tiwary & Co","101A Up Cross St #12-08 People's Pk Centre Singapore 058358","Singapore 058358",1.285429,103.84363
740,"Regency Legal Llp","101A Up Cross St #08-07 People's Pk Centre Singapore 058358","Singapore 058358",1.285429,103.84363
774,"S Y Chuang & Co","101A Up Cross St #08-16 People's Pk Centre Singapore 058358","Singapore 058358",1.285429,103.84363
802,"Shan & Co","101A Up Cross St #06-14A People's Pk Centre Singapore 058358","Singapore 058358",1.285429,103.84363
823,"Siva Kumar s/o Rajagopal","101A Up Cross St #11-13 People's Pk Centre Singapore 058358","Singapore 058358",1.285429,103.84363
892,"Teoh & Co Llc","101A Up Cross St #10-09 People's Pk Centre Singapore 058358","Singapore 058358",1.285429,103.84363
909,"Toh & Co","101A Up Cross St #09-22 People's Pk Centre Singapore 058358","Singapore 058358",1.285429,103.84363
913,"Trinel Chakraborty","101A Up Cross St #11-13 People's Pk Centre Singapore 058358","Singapore 058358",1.285429,103.84363
928,"Victor Koh & Co","101A Up Cross St #12-18 People's Pk Centre Singapore 058358","Singapore 058358",1.285429,103.84363
985,"Yeo & Associates Llc","101A Up Cross St #12-13 People's Pk Centre Singapore 058358","Singapore 058358",1.285429,103.84363
992,"Yu & Co Llc","101A Up Cross St #09-18 People's Pk Centre Singapore 058358","Singapore 058358",1.285429,103.84363
365,"Harold Seet & Indra Raj","#08-21 People's Park Centre, 101A Upper Cross St, Singapore","Singapore 058357",1.2856991,103.8436608
730,"Ram Goswami","9 Upper Cross St, Singapore","Singapore 058357",1.2856991,103.8436608
22,"A Alagappan & Co","101 Up Cross St #04-47 People's Pk Centre Singapore 058357","Singapore 058357",1.2856991,103.8436608
23,"A Alagappan Law Corpn","101 Up Cross St #04-47 People's Pk Centre Singapore 058357","Singapore 058357",1.2856991,103.8436608
33,"A Revi Shanker s/o K Annamalai","101 Up Cross St #05-08 People's Pk Centre Singapore 058357","Singapore 058357",1.2856991,103.8436608
196,"China Legal Bureau (Singapore)","101 Up Cross St #05-40A People's Pk Centre Singapore 058357","Singapore 058357",1.2856991,103.8436608
263,"Delaney","101 Up Cross St #04-52A People's Pk Centre Singapore 058357","Singapore 058357",1.2856991,103.8436608
292,"Ee Bin & Lau","101 Up Cross St #06-06 People's Pk Centre Singapore 058357","Singapore 058357",1.2856991,103.8436608
387,"Island Law Llc","101 Up Cross St #04-04 People's Pk Centre Singapore 058357","Singapore 058357",1.2856991,103.8436608
432,"Judy Cheng & Co","101 Up Cross St #05-57 People's Pk Centre Singapore 058357","Singapore 058357",1.2856991,103.8436608
440,"K K Cheng & Co","101 Up Cross St #05-21 People's Pk Centre Singapore 058357","Singapore 058357",1.2856991,103.8436608
489,"Krishnan Sivanandam & Co","101 Up Cross St #04-26 People's Pk Centre Singapore 058357","Singapore 058357",1.2856991,103.8436608
496,"L.F. Violet Netto","101 Up Cross St #04-11 People's Pk Centre Singapore 058357","Singapore 058357",1.2856991,103.8436608
503,"Lau & Company","101 Up Cross St #05-56 People's Pk Centre Singapore 058357","Singapore 058357",1.2856991,103.8436608
525,"Lee Michael & Co","101 Up Cross St #05-48 People's Pk Centre Singapore 058357","Singapore 058357",1.2856991,103.8436608
548,"Lew Meow Fah & Co","101 Up Cross St #05-19 People's Pk Centre Singapore 058357","Singapore 058357",1.2856991,103.8436608
569,"Linus Law Chambers","101 Up Cross St #05-26 People's Pk Centre Singapore 058357","Singapore 058357",1.2856991,103.8436608
578,"Loo Ngan Chor & Co.","Singapore 058357","Singapore 058357",1.2856991,103.8436608
586,"Lui Jong Sim & Co","101 Up Cross St #03-33 People's Pk Centre Singapore 058357","Singapore 058357",1.2856991,103.8436608
652,"Ng Lee & Partners","101 Up Cross St #06-07 People's Pk Centre Singapore 058357","Singapore 058357",1.2856991,103.8436608
693,"Philip Loh & Co","101 Up Cross St #05-09 People's Pk Centre Singapore 058357","Singapore 058357",1.2856991,103.8436608
728,"Rajen Law Practice","Singapore 058357","Singapore 058357",1.2856991,103.8436608
736,"Ray Louis Law Corpn","101 Up Cross St #06-05 People's Pk Centre Singapore 058357","Singapore 058357",1.2856991,103.8436608
747,"Remya. A Law Practice","101 Up Cross St #04-50 People's Pk Centre Singapore 058357","Singapore 058357",1.2856991,103.8436608
780,"Sam & Associates","101 Up Cross St #05-44 People's Pk Centre Singapore 058357","Singapore 058357",1.2856991,103.8436608
828,"Soh Wong & Yap","101 Up Cross St #04-30 People's Pk Centre Singapore 058357","Singapore 058357",1.2856991,103.8436608
843,"Surian & Partners","101 Up Cross St #07-02 People's Pk Centre Singapore 058357","Singapore 058357",1.2856991,103.8436608
847,"T G Chan Law Practice","101 Up Cross St #04-29 People's Pk Centre Singapore 058357","Singapore 058357",1.2856991,103.8436608
849,"T L Tham & Co","101 Up Cross St #04-46 People's Pk Centre Singapore 058357","Singapore 058357",1.2856991,103.8436608
865,"Tan Kwong Wah & Co","101 Up Cross St #04-22 People's Pk Centre Singapore 058357","Singapore 058357",1.2856991,103.8436608
866,"Tan Kwong Wah & Co","#04-22, People's Park Centre, 101 Upper Cross Street, Singapore 058357","Singapore 058357",1.2856991,103.8436608
871,"Tan Lh & Co","101 Up Cross St #05-48 People's Pk Centre Singapore 058357","Singapore 058357",1.2856991,103.8436608
938,"W K Fong & Co","101 Up Cross St #04-25 People's Pk Centre Singapore 058357","Singapore 058357",1.2856991,103.8436608
939,"W M Low & Partners","101 Up Cross St #09-12 People's Pk Centre Singapore 058357","Singapore 058357",1.2856991,103.8436608
941,"W T Lim & Partners","101 Up Cross St #04-29 People's Pk Centre Singapore 058357","Singapore 058357",1.2856991,103.8436608
982,"Yap Kim Cheng & Co","101 Up Cross St #06-07 People's Pk Centre Singapore 058357","Singapore 058357",1.2856991,103.8436608
421,"Joo Toon Llc","30 Merchant Rd #03-20 Riverside Pt Singapore 058282","Singapore 058282",1.289129,103.844223
976,"Wong Thomas & Leong","21 Merchant Rd #07-02  Singapore 058267","Singapore 058267",1.287912,103.845033
523,"Lee Kwok Weng & Co","Blk 531A Up Cross St #03-122 Hong Lim Complex-Blk 531A Singapore 051531","Singapore 051531",1.285321,103.845851
493,"Kumaran Law","424 Pasir Ris Drive 6, Singapore 51044","Singapore 051044",1.3700628,103.9544857
363,"Harjeet Singh & Co","Blk 531 Up Cross St #04-05 Hong Lim Complex-Blk 531 Singapore 050531","Singapore 050531",1.2841959,103.845699
565,"Lim Swee Tee & Co","Blk 336 Smith St #07-304 New Bridge Centre Singapore 050336","Singapore 050336",1.282878,103.8425649
971,"Wong Chai Kin","Blk 336 Smith St #04-301 New Bridge Centre Singapore 050336","Singapore 050336",1.282878,103.8425649
675,"P S Goh & Co","Blk 34 Up Cross St #02-162  Singapore 050034","Singapore 050034",1.286181,103.842138
10,"Conyers Dill & Pearman Pte. Ltd.","9 Battery Rd #20-01 MYP Centre Singapore 049910","Singapore 049910",1.285164,103.852302
122,"Aziz Tayabali & Associates","9 Battery Rd, Singapore 049910","Singapore 049910",1.285164,103.852302
724,"Rajah & Tann S'pore Llp","9 Battery Rd #15-01 MYP Centre Singapore 049910","Singapore 049910",1.285164,103.852302
29,"A Hossain & Associates, International Arbitration Practitioners","6 Battery Rd, Singapore 049909","Singapore 049909",1.285539,103.851667
619,"Mayer Brown Jsm (S) Pte. Ltd.","6 Battery Rd #11-06  Singapore 049909","Singapore 049909",1.285539,103.851667
642,"Nagashima Ohno & Tsunematsu S'pore Llp","6 Battery Rd #40-06  Singapore 049909","Singapore 049909",1.285539,103.851667
656,"Nishith Desai Associates","6 Battery Rd, Singapore 049909","Singapore 049909",1.285539,103.851667
791,"Schellenberg Wittmer Pte. Ltd.","6 Battery Rd #37-02A  Singapore 049909","Singapore 049909",1.285539,103.851667
808,"Sidley Austin Llp","6 Battery Rd #31-01  Singapore 049909","Singapore 049909",1.285539,103.851667
915,"TSMP Law Corpn","6 Battery Rd #41-01  Singapore 049909","Singapore 049909",1.285539,103.851667
945,"Watson Farley & Williams Llp","6 Battery Rd #28-00  Singapore 049909","Singapore 049909",1.285539,103.851667
141,"Bernard & Rada Law Corpn","4 Battery Rd #29-00 Bank of China Bldg Singapore 049908","Singapore 049908",1.285576,103.852229
380,"I.N.C Law Llc","4 Battery Rd #26-01 Bank of China Bldg Singapore 049908","Singapore 049908",1.285576,103.852229
835,"Sterling Law Corpn","4 Battery Rd #30-00 Bank of China Bldg Singapore 049908","Singapore 049908",1.285576,103.852229
977,"Wong Thomas & Leong","4, Battery Rd, #23-01, Bank of China Bldg, Singapore 049908, Singapore 049908","Singapore 049908",1.285576,103.852229
657,"Nlc Law Asia Llc","30 Cecil St #11-04 Prudential Tower Singapore 049712","Singapore 049712",1.282756,103.849922
957,"William Roberts Lawyers","30 Cecil St, Singapore 049712","Singapore 049712",1.282756,103.849922
230,"Comlaw LLC","64 Cecil St #06-01 IOB Bldg Singapore 049711","Singapore 049711",1.282026,103.849453
917,"Unilegal Llc","62 Cecil St #02-00 TPI Bldg Singapore 049710","Singapore 049710",1.282049,103.849582
794,"Seah Ong & Partners Llp","20 Cecil St #16-01 Equity Plaza Singapore 049705","Singapore 049705",1.283041,103.85048
884,"Tanlim Partnership","19 Cecil St, Singapore 049704","Singapore 049704",1.2824819,103.850541
962,"Wlaw Llc","19 Cecil St #04-00  Singapore 049704","Singapore 049704",1.2824819,103.850541
360,"Haq Namazie Partnership","20 Cecil St, Singapore 049700","Singapore 049700",1.2829107,103.8504538
204,"Chris Chong & C T Ho Partnership","65 Chulia St #49-05 O C B C Centre Singapore 049513","Singapore 049513",1.285398,103.84953
590,"M Dass & Co","65 Chulia St, Singapore 049513","Singapore 049513",1.285398,103.84953
229,"Collas Crill (Singapore) Pte Ltd","3 Church St #08-00 Samsung Hub Singapore 049483","Singapore 049483",1.283276,103.849632
335,"Gloria James-Civetta & Co","3 Church St #15-04 Samsung Hub Singapore 049483","Singapore 049483",1.283276,103.849632
378,"Holman Fenwick Willan Singapore LLP","3 Church St #19-03 Samsung Hub Singapore 049483","Singapore 049483",1.283276,103.849632
943,"Walkers (S) Ltd Liability Partnership","3 Church St #16-02 Samsung Hub Singapore 049483","Singapore 049483",1.283276,103.849632
570,"Lisa Chong & Partners","84 Circular Rd #03-00  Singapore 049436","Singapore 049436",1.287407,103.848884
509,"LawGuide Singapore Pte. Ltd.","20A Circular Rd   Singapore 049376","Singapore 049376",1.287299,103.848924
905,"Tito Isaac & Co Llp","20A Circular Rd   Singapore 049376","Singapore 049376",1.287299,103.848924
469,"Kel Llc","15A Circular Rd   Singapore 049371","Singapore 049371",1.287558,103.848918
698,"Pinnacle Law Llc","9B Circular Rd   Singapore 049365","Singapore 049365",1.2878369,103.848916
655,"Nishimura & Asahi (S) Llp","50 Collyer Quay #08-00 OUE Bayfront Singapore 049321","Singapore 049321",1.283026,103.852791
243,"DAC Beachcroft LLP","20 Collyer Quay, #14-01, Tung Centre, 049319, Singapore 049319","Singapore 049319",1.284544,103.852803
706,"Providence Law Asia Llc","20 Collyer Quay #21-02  Singapore 049319","Singapore 049319",1.284544,103.852803
839,"Sukraj Consultancy","20 Collyer Quay, Singapore 049319","Singapore 049319",1.284544,103.852803
98,"Arfat Selvam Alliance LLC","Fax  16 Collyer Quay #11-02 Income at Raffles Singapore 049318","Singapore 049318",1.284184,103.852536
284,"Duane Morris & Selvam Llp","16 Collyer Quay #17-01 Income at Raffles Singapore 049318","Singapore 049318",1.284184,103.852536
382,"Ince & Co Singapore LLP","16 Collyer Quay #19-00 Income at Raffles Singapore 049318","Singapore 049318",1.284184,103.852536
383,"Incisive Law LLC","16 Collyer Quay, Singapore 049318","Singapore 049318",1.284184,103.852536
539,"Legis Point Llc","16 Collyer Quay #11-01 Income at Raffles Singapore 049318","Singapore 049318",1.284184,103.852536
605,"Marcus Phuah & Co","Income@Raffles Building, 16 Collyer Quay, Level 20 Suite 27, Singapore, 049318","Singapore 049318",1.284184,103.852536
680,"Pan Asia Law Llc","16 Collyer Quay #10-21 Income at Raffles Singapore 049318","Singapore 049318",1.284184,103.852536
699,"Pinsent Masons Mpillay Llp","Fax  16 Collyer Quay #22-02 Income at Raffles Singapore 049318","Singapore 049318",1.284184,103.852536
924,"VDB Loi","21 Collyer Quay, Singapore 049318","Singapore 049318",1.284184,103.852536
414,"JLC Advisors LLP","11 Collyer Quay #05-04 The Arcade Singapore 049317","Singapore 049317",1.283529,103.852003
508,"Lawcraft Llc","11 Collyer Quay #10-04 The Arcade Singapore 049317","Singapore 049317",1.283529,103.852003
683,"Patrick Ong Law Llc","11 Collyer Quay #14-07 The Arcade Singapore 049317","Singapore 049317",1.283529,103.852003
981,"Xavier & Associates LLC","17 Collyer Quay, Singapore 049317","Singapore 049317",1.283529,103.852003
110,"AsiaLegal LLC","10 Collyer Quay #18-08 Ocean Financial Centre Singapore 049315","Singapore 049315",1.283028,103.852016
281,"Drew & Napier LLC","10 Collyer Quay #10-01 Ocean Financial Centre Singapore 049315","Singapore 049315",1.283028,103.852016
320,"Freshfields Bruckhaus Deringer Singapore Pte Ltd","10 Collyer Quay #42-01 Ocean Financial Centre Singapore 049315","Singapore 049315",1.283028,103.852016
377,"Holman Fenwick Willan S'pore Llp","10 Collyer Quay #18-01 Ocean Financial Centre Singapore 049315","Singapore 049315",1.283028,103.852016
453,"K&L Gates Llp","10 Collyer Quay #37-01 Ocean Financial Centre Singapore 049315","Singapore 049315",1.283028,103.852016
832,"Squire Patton Boggs S'pore Llp","10 Collyer Quay #03-01/02 Ocean Financial Centre Singapore 049315","Singapore 049315",1.283028,103.852016
833,"Stamford Law Corporation","10 Collyer Quay #27-01 Ocean Financial Centre Singapore 049315","Singapore 049315",1.283028,103.852016
991,"Ykvn Llp","10 Collyer Quay #07-10 Ocean Financial Centre Singapore 049315","Singapore 049315",1.283028,103.852016
193,"Chia-Thomas Law Chambers Llc","1 Finlayson Green #11-01 One Finlayson Green Singapore 049246","Singapore 049246",1.282497,103.851439
450,"K S Chia Gurdeep & Param","1 Finlayson Green, Singapore 049246","Singapore 049246",1.282497,103.851439
477,"Keystone Law Corpn","1 Finlayson Green #11-01 One Finlayson Green Singapore 049246","Singapore 049246",1.282497,103.851439
487,"Kochhar & Co.","1 Fullerton Rd, Singapore 049213","Singapore 049213",1.285655,103.853889
68,"Allens Pte Ltd","1 George St #17-01 One George St Singapore 049145","Singapore 049145",1.28566,103.847861
146,"Blackoak Llc","1 George St #12-01/02 One George St Singapore 049145","Singapore 049145",1.28566,103.847861
261,"Dechert (S) Pte Ltd","1 George St #16-03 One George St Singapore 049145","Singapore 049145",1.28566,103.847861
568,"Linklaters S'pore Pte. Ltd.","1 George St #17-01 One George St Singapore 049145","Singapore 049145",1.28566,103.847861
174,"ChangAroth Chambers LLC","23 Lor Telok, Singapore 049035","Singapore 049035",1.28657,103.848681
44,"Acies Law Corpn","22 Malacca St #15-00 Royal Bros Capital Bldg Singapore 048980","Singapore 048980",1.283897,103.850827
535,"Legal Standard LLP","22 Malacca Street, Singapore 048980","Singapore 048980",1.283897,103.850827
631,"Mochtar Karuwin & Komar","22 Malacca St #03-01 Royal Bros Capital Bldg Singapore 048980","Singapore 048980",1.283897,103.850827
686,"Peter Doraisamy Llc","22 Malacca St #10-02 Royal Bros Capital Bldg Singapore 048980","Singapore 048980",1.283897,103.850827
896,"The L.A. Law Chambers Llc","22 Malacca St #13-05 Royal Bros Bldg Singapore 048980","Singapore 048980",1.283897,103.850827
625,"Michael Por Law Corpn","137 Market St #13-01 Bank of East Asia Bldg Singapore 048943","Singapore 048943",1.282133,103.850408
936,"VoskampLawyers","137 Market St, Singapore 048943","Singapore 048943",1.282133,103.850408
24,"A Ang Seah & Hoe","63 Market St #05-01 Bank of S'pore Centre Singapore 048942","Singapore 048942",1.284318,103.850605
61,"Aldgate Chambers Llc","63 Market St #11-02 Bank of S'pore Centre Singapore 048942","Singapore 048942",1.284318,103.850605
171,"Chancery Law Corpn","55 Market St #08-01 Sinsov Bldg Singapore 048941","Singapore 048941",1.284513,103.850633
324,"Gabriel Law Corpn","55 Market St #12-02 Sinsov Bldg Singapore 048941","Singapore 048941",1.284513,103.850633
960,"Winston Low & Partners","10 Market St, Singapore 048941","Singapore 048941",1.284513,103.850633
705,"Pro Bono Services Office of The Law Society of Singapore","10 Market St, Singapore 048940","Singapore 048940",1.284013,103.850272
334,"Global Law Alliance Llc","3 Phillip St #11-01 Commerce Pt Singapore 048693","Singapore 048693",1.2847519,103.849941
346,"GSM Law LLP","2 Phillip St, Singapore 048693","Singapore 048693",1.2847519,103.849941
379,"Hslegal Llp","3 Phillip St #12-04 Commerce Pt Singapore 048693","Singapore 048693",1.2847519,103.849941
70,"Alliance LLC","1 Phillip St #03-01 Lippo Bldg Singapore 048692","Singapore 048692",1.284972,103.849975
763,"Ryan Lawyers","2 Phillip St, Singapore 048692","Singapore 048692",1.284972,103.849975
435,"Jurisone Llp","3 Pickering St #02-52 Nankin Row Singapore 048660","Singapore 048660",1.284855,103.847664
710,"Q.E.D. Law Corpn","3 Pickering St #01-67 Nankin Row Singapore 048660","Singapore 048660",1.284855,103.847664
69,"Alliance Law Pte Ltd","80 Raffles Place, 36 Floor, UOB Plaza 1, 048624, Singapore 048624","Singapore 048624",1.285361,103.85054
213,"CHS Legal LLP","23 Raffles Ave, Singapore 048624","Singapore 048624",1.285361,103.85054
265,"Dentons Rodyk & Davidson Llp","80 Raffles Pl #33-00 UOB Plaza 1 Singapore 048624","Singapore 048624",1.285361,103.85054
273,"DLA Piper Singapore Pte. Ltd.","80 Raffles Pl #48-01 UOB Plaza 1 Singapore 048624","Singapore 048624",1.285361,103.85054
315,"Fortis Law Corpn","80 Raffles Pl #35-02 UOB Plaza 1 Singapore 048624","Singapore 048624",1.285361,103.85054
359,"Haq & Selvam","23 Raffles Ave, Singapore 048624","Singapore 048624",1.285361,103.85054
410,"Jim Lim Partnership","UOB Plaza 1, Singapore 048624","Singapore 048624",1.285361,103.85054
473,"Kennedys Legal Solutions Pte. Ltd.","80 Raffles Pl #44-04 UOB Plaza 1 Singapore 048624","Singapore 048624",1.285361,103.85054
478,"KhattarWong LLP","80 Raffles Pl #25-01 UOB Plaza 1 Singapore 048624","Singapore 048624",1.285361,103.85054
584,"Loyens & Loeff Singapore Llp","80 Raffles Pl #14-06 UOB Plaza 1 Singapore 048624","Singapore 048624",1.285361,103.85054
653,"Nicholas & Tan Partnership Llp","80 Raffles Pl #43-03 UOB Plaza 1 Singapore 048624","Singapore 048624",1.285361,103.85054
875,"Tan Rajah & Cheah","80 Raffles Pl #58-01 UOB Plaza 1 Singapore 048624","Singapore 048624",1.285361,103.85054
961,"Withers Llp (Singapore Branch)","80 Raffles Pl #24-01 UOB Plaza 1 Singapore 048624","Singapore 048624",1.285361,103.85054
253,"David Lim & Partners","Fax  50 Raffles Pl #17-01 Singapore Land Tower Singapore 048623","Singapore 048623",1.284542,103.851951
254,"David Lim & Partners Llp","50 Raffles Pl #17-01 Singapore Land Tower Singapore 048623","Singapore 048623",1.284542,103.851951
367,"Herbert Smith Freehills Llp","50 Raffles Pl #24-01 Singapore Land Tower Singapore 048623","Singapore 048623",1.284542,103.851951
516,"Lee & Lee","50 Raffles Pl #06-00 Singapore Land Tower Singapore 048623","Singapore 048623",1.284542,103.851951
852,"T S Oon & Bazul","50 Raffles Place, #15-04, Singapore Land Tower, Singapore 048623","Singapore 048623",1.284542,103.851951
76,"Amica Law LLC","30 Raffles Pl #14-01 Chevron Hse Singapore 048622","Singapore 048622",1.284255,103.85173
874,"Tan Peng Chin LLC","30 Raffles Pl #11-00 Chevron Hse Singapore 048622","Singapore 048622",1.284255,103.85173
950,"Wee Woon Hong & Associates Llc","30 Raffles Pl #19-04 Chevron Hse Singapore 048622","Singapore 048622",1.284255,103.85173
2,"AbrahamLow LLC","24 Raffles Pl #07-02 Clifford Centre Singapore 048621","Singapore 048621",1.283847,103.852123
27,"A C Shone & Co","24 Raffles Pl #21-03 Clifford Centre Singapore 048621","Singapore 048621",1.283847,103.852123
67,"Allen & Overy LLP","24 Raffles Pl #22-01 Clifford Centre Singapore 048621","Singapore 048621",1.283847,103.852123
96,"Aquinas Law Alliance Llp","24 Raffles Pl #19-05 Clifford Centre Singapore 048621","Singapore 048621",1.283847,103.852123
116,"Attorneys Inc.Llc","24 Raffles Pl #25-06A Clifford Centre Singapore 048621","Singapore 048621",1.283847,103.852123
222,"Clegal Llc","24 Raffles Pl #24-02A Clifford Centre Singapore 048621","Singapore 048621",1.283847,103.852123
276,"Donaldson & Burkinshaw Llp","24 Raffles Pl #15-00 Clifford Centre Singapore 048621","Singapore 048621",1.283847,103.852123
336,"Godwin Campos Llc","24 Raffles Pl #19-07 Clifford Centre Singapore 048621","Singapore 048621",1.283847,103.852123
362,"Haridass Ho & Partners","24 Raffles Pl #18-00 Clifford Centre Singapore 048621","Singapore 048621",1.283847,103.852123
500,"Lam & Co","24 Raffles Pl #20-06 Clifford Centre Singapore 048621","Singapore 048621",1.283847,103.852123
796,"Seng Sheoh & Co","24 Raffles Pl #21-03 Clifford Centre Singapore 048621","Singapore 048621",1.283847,103.852123
859,"Tan Chin Hoe & Co","24 Raffles Pl #24-01 Clifford Centre Singapore 048621","Singapore 048621",1.283847,103.852123
862,"Tan Hiang Teck Simon","24 Raffles Pl #25-06A Clifford Centre Singapore 048621","Singapore 048621",1.283847,103.852123
899,"Thomas Cooper","24 Raffles Pl #24-02 Clifford Centre Singapore 048621","Singapore 048621",1.283847,103.852123
918,"Union Law Llp","24 Raffles Pl #17-01 Clifford Centre Singapore 048621","Singapore 048621",1.283847,103.852123
970,"Wong Alliance Llp","24 Raffles Pl #24-03 Clifford Centre Singapore 048621","Singapore 048621",1.283847,103.852123
994,"Yusarn Audrey","24 Raffles Pl #27-01/02 Clifford Centre Singapore 048621","Singapore 048621",1.283847,103.852123
79,"Anderson Mori & Tomotsune(Singapore) Llp","9 Raffles Pl #17-04 Republic Plaza Singapore 048619","Singapore 048619",1.283242,103.850837
134,"Bay Tan & Partners","9 Raffles Pl #17-00 Republic Plaza Singapore 048619","Singapore 048619",1.283242,103.850837
142,"Berwin Leighton Paisner Llp","9 Raffles Pl #24-01 Republic Plaza Singapore 048619","Singapore 048619",1.283242,103.850837
481,"King & Spalding (Singapore) LLP","9 Raffles Pl #31-00 Republic Plaza Singapore 048619","Singapore 048619",1.283242,103.850837
482,"King & Spalding LLP","9 Raffles Place Level 31 Republic Plaza, Singapore 048619","Singapore 048619",1.283242,103.850837
551,"Lexygen","9 Raffles Pl, Singapore 048619","Singapore 048619",1.283242,103.850837
789,"Sandra Choy & Co.","3 Raffles Pl, Republic Plaza, Singapore 048619","Singapore 048619",1.283242,103.850837
836,"Straits Law Practice LLC","9 Raffles Pl #32-01/02 Republic Plaza Singapore 048619","Singapore 048619",1.283242,103.850837
60,"Ald Llp","Fax  3 Raffles Pl #06-01 Bharat Bldg Singapore 048617","Singapore 048617",1.283426,103.851155
241,"CTLC Law Corporation","3 Raffles Pl #06-01 Bharat Bldg Singapore 048617","Singapore 048617",1.283426,103.851155
416,"Joann Ting Llc","3 Raffles Pl #06-01 Bharat Bldg Singapore 048617","Singapore 048617",1.283426,103.851155
630,"MJ Lee & Associates","3 Raffles Pl #06-01 Bharat Bldg Singapore 048617","Singapore 048617",1.283426,103.851155
659,"O'Melveny & Myers LLP","3 Raffles Pl, Republic Plaza, Singapore 048617","Singapore 048617",1.283426,103.851155
45,"Acies Law Corporation","1 Raffles Pl, Singapore 048616","Singapore 048616",1.284479,103.851082
54,"Aequitas Law Llp","1 Raffles Pl #43-01 One Raffles Pl Singapore 048616","Singapore 048616",1.284479,103.851082
102,"Arthur Loke","1 Raffles Place, #18-61 Tower 2, Singapore 048616","Singapore 048616",1.284479,103.851082
463,"Kanji Group Llp","1 Raffles Pl #28-01 One Raffles Pl Singapore 048616","Singapore 048616",1.284479,103.851082
604,"Maples and Calder (Singapore) LLP","1 Raffles Pl #32-00 One Raffles Pl Singapore 048616","Singapore 048616",1.284479,103.851082
660,"Oc Queen Street Llc","1 Raffles Pl #04-61 One Raffles Pl Singapore 048616","Singapore 048616",1.284479,103.851082
834,"Stephenson Harwood LLP","1 Raffles Pl #12-00 One Raffles Pl Singapore 048616","Singapore 048616",1.284479,103.851082
934,"Virtus Law Llp","1 Raffles Pl #12-00 One Raffles Pl Singapore 048616","Singapore 048616",1.284479,103.851082
635,"Mori Hamada & Matsumoto (S) Llp","1 Raffles Quay #23-03 One Raffles Quay Singapore 048583","Singapore 048583",1.281142,103.851928
15,"Foo & Quek Llc","16 Raffles Quay #14-01 Hong Leong Bldg Singapore 048581","Singapore 048581",1.281304,103.850834
86,"Angeline Suparto Law Corpn","16 Raffles Quay #20-04 Hong Leong Bldg Singapore 048581","Singapore 048581",1.281304,103.850834
398,"James Chia & Co","16 Raffles Quay #11-03 Hong Leong Bldg Singapore 048581","Singapore 048581",1.281304,103.850834
636,"Mori Hamada & Matsumoto (Singapore) LLP","16 Raffles Quay, Singapore 048581","Singapore 048581",1.281304,103.850834
671,"Ong Swee Keng Llc","16 Raffles Quay #41-01A Hong Leong Bldg Singapore 048581","Singapore 048581",1.281304,103.850834
755,"Robinson Llc","6 Raffles Quay #20-02  Singapore 048580","Singapore 048580",1.281712,103.851423
861,"Tan Heng Thye","6 Raffles Quay #14-06  Singapore 048580","Singapore 048580",1.281712,103.851423
954,"Wikborg Rein Services Pte Ltd","6 Raffles Quay #10-15  Singapore 048580","Singapore 048580",1.281712,103.851423
138,"Beh Partners","30 Robinson Rd, Singapore 048546","Singapore 048546",1.281739,103.85048
3,"Ho & Wee LLP","14 Robinson Rd #03-03 Far East Finance Bldg Singapore 048545","Singapore 048545",1.282183,103.850799
8,"Ann Tan & Associates","14 Robinson Rd #09-02 Far East Finance Bldg Singapore 048545","Singapore 048545",1.282183,103.850799
572,"LMJ Law Corporation","Singapore 048545","Singapore 048545",1.282183,103.850799
827,"Sobhraj Tay Low Subra & Teo","14 Robinson Rd #02-01/02 Far East Finance Bldg Singapore 048545","Singapore 048545",1.282183,103.850799
385,"Insights Law Llc","8 Robinson Rd #03-00 ASO Bldg Singapore 048544","Singapore 048544",1.282237,103.85083
995,"Zaid Ibrahim & Co","8 Robinson Rd #03-00 ASO Bldg Singapore 048544","Singapore 048544",1.282237,103.85083
55,"Affinity Law Llc","4 Robinson Rd #10-01 The House of Eden Singapore 048543","Singapore 048543",1.282344,103.85092
137,"Bedell Cristin (S) Llp","4 Robinson Rd #05-01 The House of Eden Singapore 048543","Singapore 048543",1.282344,103.85092
805,"Shook Lin & Bok LLP","1 Robinson Rd #18-00 AIA Tower Singapore 048542","Singapore 048542",1.281966,103.851059
5,"Mallal & Namazie","18 Cross St #14-01 China Sq Central Singapore 048423","Singapore 048423",1.283384,103.846868
930,"Vincent Lim & Associates Llc","18 Cross St #07-11 China Sq Central Singapore 048423","Singapore 048423",1.283384,103.846868
294,"Elitaire Law Llp","20 Cross St #02-01 China Sq Central Singapore 048422","Singapore 048422",1.283745,103.847478
531,"Legal Clinic Llc","20 Cross St #02-03 China Sq Central Singapore 048422","Singapore 048422",1.283745,103.847478
103,"Arthur Loke & Partners","9 Temasek Blvd, Singapore 038989","Singapore 038989",1.295556,103.859041
173,"Chang See Hiang & Partners","Temasek Blvd, Singapore 038989","Singapore 038989",1.295556,103.859041
752,"Robert Wang & Woo Llp","9 Temasek Blvd #41-01 Suntec Tower Two Singapore 038989","Singapore 038989",1.295556,103.859041
824,"Skadden Arps Slate Meagher & Flom","Fax  9 Temasek Blvd #29-01 Suntec Tower Two Singapore 038989","Singapore 038989",1.295556,103.859041
87,"Anjali Iyer & Associates","8 Temasek Blvd #22-03 Suntec Tower Three Singapore 038988","Singapore 038988",1.295241,103.859489
430,"Joyce A. Tan & Partners Llc","8 Temasek Blvd #15-04 Suntec Tower Three Singapore 038988","Singapore 038988",1.295241,103.859489
7,"Patrick Wee & Partners","7 Temasek Blvd #20-03 Suntec Tower One Singapore 038987","Singapore 038987",1.295285,103.85852
310,"Flint & Battery Llc","7 Temasek Blvd #20-06 Suntec Tower One Singapore 038987","Singapore 038987",1.295285,103.85852
589,"M & A Law Corporation","7 Temasek Blvd #07-01 Suntec Tower One Singapore 038987","Singapore 038987",1.295285,103.85852
691,"Phang & Co","7 Temasek Blvd #12-06 Suntec Tower One Singapore 038987","Singapore 038987",1.295285,103.85852
692,"Phang & Co","7 Temasek Blvd, Singapore 038987","Singapore 038987",1.295285,103.85852
697,"Phy Law Corpn","7 Temasek Blvd #12-02C Suntec Tower One Singapore 038987","Singapore 038987",1.295285,103.85852
191,"Chia Wong Llp","6 Temasek Blvd #38-02 Suntec Tower Four Singapore 038986","Singapore 038986",1.294611,103.859656
251,"David Chong Law Corpn","6 Temasek Blvd #09-04 Suntec Tower Four Singapore 038986","Singapore 038986",1.294611,103.859656
470,"Kelvin Chia Partnership","6 Temasek Blvd #29-00 Suntec Tower Four Singapore 038986","Singapore 038986",1.294611,103.859656
66,"Allen & Gledhill LLP","1 Marina Blvd #25-00 One Marina Blvd Singapore 018989","Singapore 018989",1.282387,103.852437
47,"Adtvance Law Llc","12 Marina Blvd #24-00 Marina Bay Financial Centre Singapore 018982","Singapore 018982",1.2804899,103.853496
107,"Ashurst LLP","12 Marina Blvd #24-01 Marina Bay Financial Centre Singapore 018982","Singapore 018982",1.2804899,103.853496
221,"Clasis LLC","12 Marina Blvd #30-03 Marina Bay Financial Centre Singapore 018982","Singapore 018982",1.2804899,103.853496
223,"Clifford Chance Pte Ltd","12 Marina Blvd #25-01 Marina Bay Financial Centre Singapore 018982","Singapore 018982",1.2804899,103.853496
627,"Milbank Tweed Hadley & McCloy","12 Marina Blvd #36-03/04 Marina Bay Financial Centre Singapore 018982","Singapore 018982",1.2804899,103.853496
641,"Nabarro LLP","Bay Financial Centre, Tower 3, 12 Marina 35-, 1 Marina Blvd, Singapore 018982","Singapore 018982",1.2804899,103.853496
979,"WongPartnership LLP","12 Marina Blvd #29-01 Marina Bay Financial Centre Singapore 018982","Singapore 018982",1.2804899,103.853496
9,"Baker & McKenzie.Wong & Leow","8 Marina Blvd #05-01 Marina Bay Financial Centre Singapore 018981","Singapore 018981",1.279637,103.854149
966,"Wong & Leow LLC","8 Marina Blvd #05-01 Marina Bay Financial Centre Singapore 018981","Singapore 018981",1.279637,103.854149
952,"White & Case Pte. Ltd.","8 Marina View #27-01 Asia Sq Tower 1 Singapore 018960","Singapore 018960",1.278968,103.851237
160,"Camford Law Corpn","7 Straits View #11-01 Marina One East Tower Singapore 018936","Singapore 018936",1.2781917,103.8527112
376,"Holborn Law Llc","7 Straits View #19-01 Marina One East Tower Singapore 018936","Singapore 018936",1.2781917,103.8527112
662,"Olswang Asia Llp","7 Straits View #19-01 Marina One East Tower Singapore 018936","Singapore 018936",1.2781917,103.8527112
708,"Pwc Legal International Pte. Ltd.","7 Straits View  Marina One East Tower Singapore 018936","Singapore 018936",1.2781917,103.8527112
561,"Lim Han Wong Partnership","No. 1, Colombo Court, #07-25, 017942, Singapore 017942","Singapore 017942",1.352083,103.819836
105,"Arvind Law LLC","3 Tanjong Pagar Plaza, Singapore 081003","Singapore 081003",1.275568,103.84247
