"vectorName","vectorAddress","postal_code","lat","lon"
"AM Associates (S) Pte Ltd","51 Goldhill Plaza #23-04 Goldhill Plaza Singapore 308900","Singapore 308900",1.318222,103.842817
"Digital Mirage Pte Ltd","47A Tras St   Singapore 078986","Singapore 078986",1.2781309,103.844513
"Dreamarvel Pte. Ltd.","63 Ubi Ave 1 #03-01 Boustead Hse Singapore 408937","Singapore 408937",1.325077,103.893758
"Juan Peck Foon","73 Cardiff Gr   Singapore 558939","Singapore 558939",1.3567,103.866209
"Sabrefox Pte Ltd","3 Kallang Way 2A #07-00  Singapore 347493","Singapore 347493",1.323237,103.877622
"Spot Works Pte. Ltd.","118 Joo Chiat Rd #04-01  Singapore 427407","Singapore 427407",1.313933,103.899077
"Visualmediaworks Pte Ltd","1 Chang Charn Rd #04-01/02/03  Singapore 159630","Singapore 159630",1.288785,103.812191
"William Lau Architects","865 Mountbatten Rd #06-43 Katong Shopping Centre Singapore 437844","Singapore 437844",1.303746,103.901182
"Architects 61 Pte Ltd","150 Beach Rd #23-01 Gateway West Singapore 189720","Singapore 189720",1.2987089,103.85862
"Koh Brothers Group Limited","11 Lor Pendek #01-00 Koh Bros Bldg Singapore 348639","Singapore 348639",1.329012,103.874598
"Aedas Pte Ltd","10 Hoe Chiang Rd #11-01 Keppel Towers Singapore 089315","Singapore 089315",1.274357,103.842131
"Metaphor Design + Architecture Pte. Ltd","3 Jln Klapa   Singapore 199315","Singapore 199315",1.304193,103.859792
"Akihaus Design Studio Pte Ltd","10 Raeburn Pk #04-02  Singapore 088702","Singapore 088702",1.273225,103.833507
"Branoz Pte Ltd","Blk 464 Crawford Lane #02-01/17 Crawford Centre Singapore 190464","Singapore 190464",1.30495,103.862487
"CPG Corporation Pte Ltd","1 Gateway Drive #25-01 Westgate Tower Singapore 608531","Singapore 608531",1.352083,103.819836
"Tan Loong Seng Glass Contractor","Blk 1029 Eunos Ave 7 #01-67  Singapore 409580","Singapore 409580",1.322999,103.898448
"A Plus Glass Pte Ltd","81 Tuas View Wlk 1   Singapore 637620","Singapore 637620",1.301043,103.626756
"Allglass Services (S) Pte Ltd","112 Neythal Rd   Singapore 628599","Singapore 628599",1.325566,103.699933
"Archibiz C. Engrg Pte Ltd","1 Yishun St 23 #01-43  Singapore 768441","Singapore 768441",1.4379249,103.841475
"Archibiz Connections Pte Ltd","8 Burn Rd #16-01 Trivex Singapore 369977","Singapore 369977",1.335497,103.885304
"Asia Glazing Aluminium Construction","Blk 2024 Bt Batok St 23 #01-66  Singapore 659529","Singapore 659529",1.342879,103.752951
"Atlantic Glass Industry","482 Up Serangoon Rd   Singapore 534516","Singapore 534516",1.344679,103.8710229
"Automotive Glass Works Pte Ltd","Blk 5032 Ang Mo Kio Ind Pk 2 #01-281  Singapore 569535","Singapore 569535",1.371818,103.862763
"Best Safety-Glass Mfg (S) Pte Ltd","10E Enterprise Rd #03-00  Singapore 629831","Singapore 629831",1.333895,103.70407
"Bikay Glass & Metal Works Pte Ltd","Blk 2037 Bt Batok St 23 #01-318  Singapore 659542","Singapore 659542",1.3407929,103.75219
"D'lon Glass Pte Ltd","48 Toh Guan Rd East #06-114 Enterprise Hub Singapore 608586","Singapore 608586",1.337078,103.7547249
"East Tech Glass Services & Construction Pte Ltd","Blk 1080 Eunos Ave 7 #01-161  Singapore 409583","Singapore 409583",1.322494,103.89516
"Glass Point Construction Pte Ltd","167 Ubi Ave 4   Singapore 408787","Singapore 408787",1.335408,103.895554
"H T Glass Pte Ltd","5 Sg Kadut St 4   Singapore 729035","Singapore 729035",1.418763,103.748896
"K P Koh & Partners Pte Ltd","Blk 86 Marine Parade Central #03-212  Singapore 440086","Singapore 440086",1.301492,103.906681
"Kario Glass Construction","48 Toh Guan Rd East #06-111 Enterprise Hub Singapore 608586","Singapore 608586",1.337078,103.7547249
"KKC Consultancy Services","Blk 357 Clementi Ave 2 #14-275  Singapore 120357","Singapore 120357",1.314041,103.769063
"Le Gardien (S) Pte Ltd","2 Tuas Sth Ave 2 #02-00  Singapore 637601","Singapore 637601",1.318994,103.629678
"Millennium Glass Contracts","41 Defu Lane 6   Singapore 539383","Singapore 539383",1.360259,103.900419
"Monarchy Glass Resource Pte Ltd","Blk 1080 Eunos Ave 7 #01-155  Singapore 409583","Singapore 409583",1.322494,103.89516
"MSG S'pore Pte Ltd","59 Ubi Ave 1 #03-07  Singapore 408938","Singapore 408938",1.325319,103.894541
"Orpro Direct (S) Pte Ltd","14A Poole Rd   Singapore 437499","Singapore 437499",1.307293,103.8940499
"Rodamas Marketing (S) Pte Ltd","1 Coleman St #09-05 The Adelphi Singapore 179803","Singapore 179803",1.291359,103.851346
"Siew Kong Glass Makers Pte Ltd","3 Tuas Link 3   Singapore 638523","Singapore 638523",1.338182,103.638515
"Transell International Marketing Pte Ltd","6001 Beach Road, #12-02, Golden Mile Tower, Singapore 199589","Singapore 199589",1.302128,103.864082
"Trend Glass Design Pte Ltd","1 Coleman St #02-15 The Adelphi Singapore 179803","Singapore 179803",1.291359,103.851346
"Wing Yap Glass Construction","Blk 1045 Eunos Ave 4 #01-116  Singapore 409795","Singapore 409795",1.320608,103.896726
"Yuen Tat Glass Pte Ltd","44 Sg Kadut Loop   Singapore 729482","Singapore 729482",1.413375,103.743657
"HB Resources Pte Ltd","25 Kaki Bukit Rd 4 #07-30 Synergy@KB, Singapore 417800","Singapore 417800",1.341604,103.911346
"LSP Consultants Pte Ltd","192 Pandan Loop #02-09 Pantech Business Hub Singapore 128381","Singapore 128381",1.311175,103.752811
"P S Resources (S) Pte Ltd","100 Clemenceau Ave Nth #05-105 Cavenagh Hse Singapore 229491","Singapore 229491",1.307976,103.840779
"Crimsign Graphics Pte Ltd","90 Eunos Ave 7   Singapore 409571","Singapore 409571",1.323075,103.898043
"Sai Sia (Paints) Co","993 Serangoon Rd   Singapore 328150","Singapore 328150",1.322321,103.863568
"D'perception Ritz Pte Ltd","19 Tanglin Rd #07-01 Tanglin Shopping Centre Singapore 247909","Singapore 247909",1.306364,103.827018
"ITI Home Maker Pte Ltd","Blk 23 Sin Ming Rd #01-23  Singapore 570023","Singapore 570023",1.354562,103.835851
"DNT Singapore Pte Ltd","21 Bt Batok Cres #07-75 WCEGA Tower Singapore 658065","Singapore 658065",1.337164,103.759705
"Vigcon Construction Pte Ltd","33 Senang Cres   Singapore 416604","Singapore 416604",1.32798,103.917799
"Prefab Technology Pte Ltd","66 Sg Kadut St 1   Singapore 729367","Singapore 729367",1.42309,103.75136
"Team Design Architects Pte Ltd","21 Teo Hong Rd   Singapore 088331","Singapore 088331",1.279955,103.840746
"Christopher O'Grady Photography","21 Oxford Rd  Oxford Suites Singapore 218817","Singapore 218817",1.315729,103.852429
"Inconcept Modelling & Design Pte Ltd","35 Kallang Pudding Rd #04-07 I&J Tong Lee Bldg-Blk A Singapore 349314","Singapore 349314",1.33,103.878276
"Limelight Atelier Pte. Ltd.","69 Ubi Rd 1 #07-32 Oxley Bizhub Singapore 408731","Singapore 408731",1.332302,103.889967
"AD Architectural Model Pte Ltd","51 Ubi Ave 1 #02-17 Paya Ubi Ind Pk Singapore 408933","Singapore 408933",1.325096,103.898223
"Architectural Associates","151 Chin Swee Rd #02-26 Manhattan Hse Singapore 169876","Singapore 169876",1.287186,103.84065
"Architectural Corner Pte Ltd","629 Aljunied Rd #03-15 Cititech Ind Bldg Singapore 389838","Singapore 389838",1.3254999,103.879628
"Architectural Hardware Pte. Ltd.","50 Bt Batok St 23 #03-07 Midview Bldg Singapore 659578","Singapore 659578",1.339533,103.757377
"Architectural Restoration Consultants Pte Ltd","6 Wilton Cl, Singapore 138756","Singapore 138756",1.3005119,103.7937819
"Architectural Works","73 Walmer Dr   Singapore 555089","Singapore 555089",1.365177,103.8698749
"City Architectural Models Studio","Blk 1023 Yishun Ind Pk A #04-15  Singapore 768762","Singapore 768762",1.443059,103.834135
"Eurasia Architectural Products Pte Ltd","139 Cavenagh Rd #09-05 Townhouse Apts Singapore 229627","Singapore 229627",1.309161,103.842601
"Ong Chin Bee Architectural Consultant","77 Linden Dr, Singapore 288716","Singapore 288716",1.336791,103.802005
"Seiko Architectural Wall Systems Pte Ltd","16 Chin Bee Dr   Singapore 619864","Singapore 619864",1.335591,103.714754
"Architects' Regional Team","34A Sago St   Singapore 059026","Singapore 059026",1.281954,103.843934
"B+H Architects (S) Pte Ltd","100 Beach Rd #32-01/03 Shaw Leisure Gallery Singapore 189702","Singapore 189702",1.296485,103.856559
"Interconsultants Pte Ltd","80 Changi Rd #05-18  Singapore 419715","Singapore 419715",1.316626,103.900239
"K & Y Design Associates","Blk 141 Lor Ah Soo #12-275  Singapore 530141","Singapore 530141",1.353064,103.883778
"Posh Urban Pte. Ltd.","8 Burn Rd #08-13 Trivex Singapore 369977","Singapore 369977",1.335497,103.885304
"S C D A Architects Pte Ltd","8 Teck Lim Rd   Singapore 088385","Singapore 088385",1.280227,103.841973
"Smallwood Reynolds Stewart & Associates Pte Ltd","83 Clemenceau Ave #14-03 Shell Hse Singapore 239920","Singapore 239920",1.292809,103.842937
"Timur Designs","20 Sin Ming Lane #08-54 & 55 Midview City Singapore 573968","Singapore 573968",1.358146,103.833392
"Tony Tan & Associates","Blk 25 Jln Berseh #01-146  Singapore 200025","Singapore 200025",1.306385,103.857933
"Waldmann Lighting S'pore Pte Ltd","77A Neil Rd   Singapore 088903","Singapore 088903",1.27922,103.842153
"Wallflower Pte Ltd","7500A Beach Rd #15-303 The Plaza Singapore 199591","Singapore 199591",1.299782,103.860659
"Liu & Wo Architects Pte Ltd","35 Duxton Hill   Singapore 089613","Singapore 089613",1.278947,103.842826
"Archivision Architects","2 Jln Kilang Barat #09-01 Panasonic Bldg Singapore 159346","Singapore 159346",1.285731,103.808176
"Prefab Technology 3 Pte Ltd","99 Pioneer Rd   Singapore 639580","Singapore 639580",1.321984,103.6471509
"CHANG Architects","16 Morse Rd Unit 216  Singapore 099228","Singapore 099228",1.269789,103.8149059
"121 Architecural Model","28 Kallang Pl #06-02  Singapore 339158","Singapore 339158",1.314806,103.867244
"A.Alliance","71A Kg Bahru Rd   Singapore 169373","Singapore 169373",1.276451,103.835702
"AC Consortium Pte Ltd","2 Jln Kilang Barat #09-01 Panasonic Bldg Singapore 159346","Singapore 159346",1.285731,103.808176
"AEMP Engineers Pte Ltd","190 Woodlands Ind Pk E5 #10-02  Singapore 757516","Singapore 757516",1.45211,103.79208
"Akta-Rchitects Pte Ltd","25 Seah St #05-01  Singapore 188381","Singapore 188381",1.296264,103.854453
"Al-Sus Industries Pte Ltd","13 Kian Teck Dr   Singapore 628830","Singapore 628830",1.330204,103.692458
"Andy Fisher Workshop Pte Ltd","2 Alexandra Rd #02-04 Delta Hse Singapore 159919","Singapore 159919",1.290776,103.825279
"Architects Sg Llp","Blk 204 Hougang St 21 #04-115  Singapore 530204","Singapore 530204",1.358853,103.884919
"Architects Vista Pte Ltd","865 Mountbatten Rd #06-24 Katong Shopping Centre Singapore 437844","Singapore 437844",1.303746,103.901182
"Astro Aluminium Pte Ltd","1 Bt Batok Cres #03-58 WCEGA Plaza Singapore 658064","Singapore 658064",1.338942,103.758733
"Atelier Design Architects","10 Ubi Cres #06-70 Ubi Techpark Singapore 408564","Singapore 408564",1.326293,103.896145
"Atelier M+A","85 Maude Rd #04-01  Singapore 208357","Singapore 208357",1.308492,103.85771
"Audio Light Asia Pte Ltd","65 Ubi Rd 1 #02-66 Oxley Bizhub Singapore 408729","Singapore 408729",1.352083,103.819836
"Axis Architects Planners","102E Pasir Panjang Rd #07-08  Singapore 118529","Singapore 118529",1.2760149,103.795452
"B H Ng Consultants","171 Tras St #06-173 Union Bldg Singapore 079025","Singapore 079025",1.274364,103.843877
"BDL Group Architects","328C King George's Ave  King George's Bldg Singapore 208568","Singapore 208568",1.30995,103.861804
"Call Me Construction Pte Ltd","32 Ang Mo Kio Ind Pk 2 #05-01 Sing Ind Complex Singapore 569510","Singapore 569510",1.375835,103.864835
"CBD Evision Pte Ltd","1 Ubi Link #03-00  Singapore 408553","Singapore 408553",1.332051,103.893355
"CE Consulting Engineers","212A Tg Katong Rd   Singapore 437005","Singapore 437005",1.30773,103.8951079
"Cgng Architects","325A Beach Rd   Singapore 199559","Singapore 199559",1.301139,103.861191
"Clla Architects","33 Colchester Gr   Singapore 558372","Singapore 558372",1.357917,103.867395
"Colt Ventilation East Asia Pte Ltd","203 Henderson Rd #03-07 Henderson Ind Pk Singapore 159546","Singapore 159546",1.28147,103.821202
"Cyril K H Seah Architects","57 Genting Lane #02-00  Singapore 349564","Singapore 349564",1.3270599,103.875351
"Design Operation Pte Ltd","59 Tg Pagar Rd   Singapore 088480","Singapore 088480",1.278383,103.843969
"DPC Development Consultants","7500A Beach Rd #04-316 The Plaza Singapore 199591","Singapore 199591",1.299782,103.860659
"Electro-Acoustics Systems Pte Ltd","19 Kim Keat Rd #03-00 Fu Tsu Bldg Singapore 328804","Singapore 328804",1.324931,103.853343
"Formwerkz Pte Ltd","200 Turf Club Rd #07-01 Turf City Singapore 287994","Singapore 287994",1.337685,103.793667
"Fourth Dimension Architects","3791 Jln Bt Merah #05-12 E-Centre @ Redhill Singapore 159471","Singapore 159471",1.285298,103.811644
"Framework Building Products Pte Ltd","2 Aljunied Ave 1   Singapore 389977","Singapore 389977",1.32008,103.888775
"GTH Technologies Pte Ltd","5 Up Aljunied Link #01-01 Quartz Ind Bldg Singapore 367903","Singapore 367903",1.334707,103.882054
"H H Robertson (SEA) Pte Ltd","1 Raffles Pl #28-01 One Raffles Pl Singapore 048616","Singapore 048616",1.284479,103.851082
"H T Architects","101 Kitchener Rd #03-01 Jln Besar Plaza Singapore 208511","Singapore 208511",1.308783,103.85821
"Hafele S'pore Pte Ltd","68 Sg Kadut Loop #03-00  Singapore 729504","Singapore 729504",1.4070339,103.744609
"Hainei Building & Development (S) Pte Ltd","Blk 13 Lor 8 Toa Payoh #05-04 Braddell Tech Singapore 319261","Singapore 319261",1.340668,103.857721
"HDA Architects","3 Shenton Way #12-03 Shenton Hse Singapore 068805","Singapore 068805",1.278542,103.850011
"HK Hia & Associates","52 Prinsep St #02-01  Singapore 188682","Singapore 188682",1.299695,103.849717
"IIDA International Design Pte Ltd","150 Changi Rd #04-05 Guthrie Bldg Singapore 419973","Singapore 419973",1.317004,103.902196
"Infinity Pte Ltd","19 Jln Kilang Barat #03-03 Acetech Centre Singapore 159361","Singapore 159361",1.284861,103.808977
"Insul-Dek Engrg Pte Ltd","7 Soon Lee St #04-35  Singapore 627608","Singapore 627608",1.352083,103.819836
"Jdb Design & Build Pte. Ltd.","278A South Bridge Rd   Singapore 058827","Singapore 058827",1.281581,103.844879
"K.U.S Holdings (S) Pte Ltd","421 Tagore Ind Ave   Singapore 787805","Singapore 787805",1.384602,103.827387
"Kido Technologies Pte Ltd","318C King George's Ave  King George's Bldg Singapore 208563","Singapore 208563",1.309685,103.861464
"Kiong Gay Plasterceil Design Pte Ltd","3018 Bedok Nth St 5 #02-11  Singapore 486132","Singapore 486132",1.33521,103.947677
"Lai Yew Seng Pte Ltd","Blk 7 Toa Payoh Ind Pk #01-1247  Singapore 319059","Singapore 319059",1.33649,103.860413
"Manifield Design Consult","338B King George's Ave  King George's Bldg Singapore 208573","Singapore 208573",1.310244,103.862182
"Mastercraft Systems Pte Ltd","20D Lor Ampas  G S Bldg Singapore 328780","Singapore 328780",1.326168,103.852909
"Media Treeworks International Pte Ltd","Blk 1 Joo Chiat Rd #05-1007 Joo Chiat Complex Singapore 420001","Singapore 420001",1.31575,103.8984
"Metalplas Engineering Pte Ltd","10 Kian Teck Dr   Singapore 628827","Singapore 628827",1.330578,103.695517
"Monriche Design & Build","30 Toh Guan Rd #07-10 ODC Districentre Singapore 608840","Singapore 608840",1.33536,103.74807
"Permasteelisa Pacific Holdings Ltd","2 International Business Pk #11-07 The Strategy Singapore 609930","Singapore 609930",1.32954,103.747567
"Pladesco (Pte) Ltd","67 Spottiswoode Pk Rd   Singapore 088656","Singapore 088656",1.276926,103.836919
"Pro-Glass Construction Pte Ltd","Blk 9010 Tampines St 93 #01-135  Singapore 528844","Singapore 528844",1.341471,103.9429059
"Qualicoat Pte Ltd","5 Gul Dr   Singapore 629457","Singapore 629457",1.316667,103.675055
"Relex Illumination Pte Ltd","3014A Ubi Rd 1 #07-07/08  Singapore 408703","Singapore 408703",1.329692,103.893437
"Renaissance Planners & Designers Pte Ltd","469 MacPherson Rd #01-02 Gnoh Hock Bldg Singapore 368186","Singapore 368186",1.33252,103.884007
"Ronny Chin Architects Pte. Ltd.","147B Selegie Rd   Singapore 188313","Singapore 188313",1.302988,103.84995
"Silverfox Studio Pte Ltd","20 Cross St #03-11 China Sq Central Singapore 048422","Singapore 048422",1.283745,103.847478
"Singapore Institute Of Architects","79/79A/79B Neil Rd   Singapore 088904","Singapore 088904",1.279189,103.842117
"Sixtrees Viz Comms Pte Ltd","314A Joo Chiat Rd   Singapore 427565","Singapore 427565",1.309351,103.902388
"Sketch.Id Pte Ltd","217 Henderson Rd #01-07 Henderson Ind Pk Singapore 159555","Singapore 159555",1.280516,103.819493
"SKK (S) Pte Ltd","14 Pandan Rd   Singapore 609262","Singapore 609262",1.30155,103.752007
"Stripes @ Design Atelier","Blk 505 Bishan St 11 #01-432  Singapore 570505","Singapore 570505",1.349394,103.848538
"Technigroup Far East Pte Ltd","30 Tuas Sth St 3   Singapore 638028","Singapore 638028",1.303969,103.628552
"Thye Seng Hardware Enterprise Pte Ltd","122 Sims Ave   Singapore 387445","Singapore 387445",1.314107,103.878252
"Transerve Pte Ltd","39 Pandan Rd   Singapore 609281","Singapore 609281",1.299935,103.746393
"Twa","7 Still Rd Sth   Singapore 423924","Singapore 423924",1.307802,103.908929
"Vnix Pte Ltd","Blk 125 Bt Merah Lane 1 #03-168  Singapore 150125","Singapore 150125",1.285815,103.802953
"Wan Sern Metal Industries Pte Ltd","31 Tuas Ave 8   Singapore 639245","Singapore 639245",1.331246,103.650441
"Woodmark Creation Pte Ltd","10 Admiralty St #05-35 North Link Bldg Singapore 757695","Singapore 757695",1.461615,103.812348
"Ministry Of National Development","5 Maxwell Rd #21/22-00 Tower Blk MND Complex Singapore 069110","Singapore 069110",1.278909,103.845805
"Actus Builders Pte Ltd","33 Ubi Ave 3 #05-27 Vertex Singapore 408868","Singapore 408868",1.33295,103.894131
"K&C Design Construction.Com Pte. Ltd.","1 Jln Lembah Kallang   Singapore 339557","Singapore 339557",1.315729,103.861862
"Lai Renovation & Construction","7 Mandai Link #08-13 Mandai Connection Singapore 728653","Singapore 728653",1.352083,103.819836
"CIAP Architects Pte Ltd","1 North Bridge Rd #20-05 High St Centre Singapore 179094","Singapore 179094",1.28983,103.849601
"Exclusive Design Construction Pte Ltd","8 Jln Kilang Barat #01-04  Singapore 159351","Singapore 159351",1.285243,103.808199
"3HPArchitects Pte Ltd","Blk 162 Bt Merah Central #04-3555  Singapore 150162","Singapore 150162",1.284152,103.816987
"Ecoflora (S) Pte Ltd","21 Neo Tiew Lane 1   Singapore 718788","Singapore 718788",1.352083,103.819836
"Hager + Elsaesser Asia Pte. Ltd.","11 Woodlands Cl #08-40  Singapore 737853","Singapore 737853",1.434085,103.8023911
"Akitek Yeokhoo","356A Joo Chiat Rd   Singapore 427601","Singapore 427601",1.308433,103.903025
"AWP Pte Ltd","111 North Bridge Rd #12-02 Peninsula Plaza Singapore 179098","Singapore 179098",1.292307,103.850442
"Flamelite (S) Pte Ltd","29 Mandai Est #01-05 Innovation Pl Singapore 729932","Singapore 729932",1.405389,103.7585919
"Lian Beng Construction (1988) Pte Ltd","29 Harrison Rd #04-00  Singapore 369648","Singapore 369648",1.336303,103.885177
"Ong&Ong Pte Ltd","510 Thomson Rd #11-00 SLF Bldg Singapore 298135","Singapore 298135",1.3335729,103.8391259
"2000 Century Pte Ltd","19 Burn Rd #07-03 Advance Bldg Singapore 369974","Singapore 369974",1.335704,103.884213
"23.5 Degree G-Architects Pte. Ltd.","17 Kaki Bukit Pl #03-00 Eunos Techpark Singapore 416195","Singapore 416195",1.335114,103.903725
"25K Glass & Metal Works Pte. Ltd.","1 Yishun St 23 #01-43  Singapore 768441","Singapore 768441",1.4379249,103.841475
"3P Ecotecture","Blk 336 Smith St #05-305 New Bridge Centre Singapore 050336","Singapore 050336",1.282878,103.8425649
"3S Facade ( Singapore) Pte Ltd","31 Bt Batok Cres #01-03 The Splendour Singapore 658070","Singapore 658070",1.3367579,103.758667
"A + Solar Consortium","22 Yio Chu Kang Rd #02-04 Highland Centre Singapore 545535","Singapore 545535",1.355269,103.877023
"A+Pgrp","Fax  36B Sago St   Singapore 059027","Singapore 059027",1.281998,103.843863
"Able Glass","Blk 90 Geylang Bahru #01-2748  Singapore 339698","Singapore 339698",1.320864,103.873774
"Ace Architects & Associates","150 South Bridge Rd #06-06 Fook Hai Bldg Singapore 058727","Singapore 058727",1.285134,103.846524
"Ace Glass Specialist","11 Kallang Pl #03-11  Singapore 339155","Singapore 339155",1.315684,103.868019
"Ace-Tech Design Pte Ltd","Blk 164 Bt Merah Central #03-3633  Singapore 150164","Singapore 150164",1.28344,103.816199
"Addp Architects Llp","59A Tg Pagar Rd   Singapore 088480","Singapore 088480",1.278383,103.843969
"Adx Architects Pte Ltd","7B Neil Rd   Singapore 088807","Singapore 088807",1.280222,103.843582
"AEP Consultants","Blk 531 Up Cross St #03-63 Hong Lim Complex-Blk 531 Singapore 050531","Singapore 050531",1.2841959,103.845699
"Aga Architects Pte Ltd","250 Tg Pagar Rd #06-01 St Andrew's Centre Singapore 088541","Singapore 088541",1.27389,103.843061
"Agro Flora & Landscape Pte Ltd","90 Jln Lekar   Singapore 698952","Singapore 698952",1.387449,103.727475
"Aik San Construction Pte Ltd","16 Woodlands Ind Pk E1   Singapore 757737","Singapore 757737",1.453694,103.795841
"Alexius Pte Ltd","20 Ang Mo Kio Ind Pk 2A #03-21 AMK Techlink Singapore 567761","Singapore 567761",1.377348,103.870786
"Algas Engrg Pte Ltd","Blk 5042 Ang Mo Kio Ind Pk 2 #01-515  Singapore 569545","Singapore 569545",1.372576,103.861653
"Allgreen Design","810 Geylang Rd #05-12 City Plaza Singapore 409286","Singapore 409286",1.315287,103.89325
"Alliance Facade Engineering Pte Ltd","1 Sunview Rd #08-65  Singapore 627615","Singapore 627615",1.3156164,103.6974182
"Altech Aluminium Pte Ltd","9 Yishun Industrial St 1 #02-66 North Spring BizHub Singapore 768163","Singapore 768163",1.352083,103.819836
"Anglee Aluminium Industries Pte Ltd","9 Tagore Lane #04-27  Singapore 787472","Singapore 787472",1.384019,103.826043
"Apco Architects & Town Planners Collaborative","73 Tras St #03-01  Singapore 079012","Singapore 079012",1.277498,103.844403
"Apex Group","Blk 809 French Rd #06-162 Kitchener Complex Singapore 200809","Singapore 200809",1.308384,103.861858
"Apexson Construction Engrg Pte Ltd","280 Woodlands Ind Pk E5 #02-25  Singapore 757322","Singapore 757322",1.4516117,103.7951978
"Arc Studio Architecture & Urbanism Pte Ltd","315A Jln Besar   Singapore 208973","Singapore 208973",1.311409,103.859163
"Arch'lab Pte. Ltd.","175A Bencoolen St #09-08 Burlington Sq Singapore 189650","Singapore 189650",1.3020179,103.852486
"Archi-Theme Partnership","167 Geylang Rd #04-01  Singapore 389242","Singapore 389242",1.311327,103.874608
"Archideas Design Inc","20 Jln Kilang #07-01  Singapore 159418","Singapore 159418",1.285603,103.8086749
"Architect Genesis","Blk 204 Hougang St 21 #04-115  Singapore 530204","Singapore 530204",1.358853,103.884919
"Architects Action International Incorporated","8 New Industrial Rd #05-04 LHK 3 Bldg Singapore 536200","Singapore 536200",1.342054,103.885598
"Architects Associates","317 Outram Rd #02-24 Concorde Shopping Centre Singapore 169075","Singapore 169075",1.288842,103.8341389
"Architects Project Group Llp","151 Chin Swee Rd #14-08 Manhattan Hse Singapore 169876","Singapore 169876",1.287186,103.84065
"Architects Studio Llp","60 Albert St #10-05 OG Albert Complex Singapore 189969","Singapore 189969",1.3020259,103.853648
"Architects Team 3 Pte Ltd","Blk 93 Havelock Rd #01-532  Singapore 160093","Singapore 160093",1.289936,103.83292
"Architects Venture","196 Pandan Loop #02-19 Pantech Business Hub Singapore 128384","Singapore 128384",1.310563,103.751069
"Archiwave Architects","7500A Beach Rd #04-307 The Plaza Singapore 199591","Singapore 199591",1.299782,103.860659
"Archurban Architects Planners","20 Maxwell Rd #06-09/11 Maxwell Hse Singapore 069113","Singapore 069113",1.279136,103.844656
"Archville Architects","Blk 123 Bt Merah Lane 1 #04-74  Singapore 150123","Singapore 150123",1.286675,103.803776
"Arya Architects","Blk 2 Kitchener Rd #02-81  Singapore 200002","Singapore 200002",1.307753,103.8590959
"Asia Glass Systems","7 Mandai Link #06-39 Mandai Connection Singapore 728653","Singapore 728653",1.352083,103.819836
"Asia Tunnelling & Construction Pte Ltd","Blk 212 Hougang St 21 #04-329  Singapore 530212","Singapore 530212",1.359509,103.888103
"Asset Recovery Pte. Ltd.","Blk 164 Bt Merah Central #04-3639  Singapore 150164","Singapore 150164",1.28344,103.816199
"Ata Architects Pte Ltd","33 Ubi Ave 3 #05-38 Vertex Singapore 408868","Singapore 408868",1.33295,103.894131
"Atelier East Design Partnership","63 Robinson Rd #06-09 Afro-Asia Bldg Singapore 068894","Singapore 068894",1.2789919,103.84908
"ATI Architects","Blk 36 Beo Cres #01-33  Singapore 160036","Singapore 160036",1.288303,103.82723
"B Glass Construction","Blk 9010 Tampines St 93 #01-87  Singapore 528844","Singapore 528844",1.341471,103.9429059
"Balanced Engrg & Construction Pte Ltd","18 Boon Lay Way #10-159 TradeHub 21 Singapore 609966","Singapore 609966",1.328234,103.753597
"Balfour Oriental Pte Ltd","Blk 203 Hougang St 21 #04-83  Singapore 530203","Singapore 530203",1.357428,103.884693
"BCI Asia Construction Information Pte Ltd","300 Beach Rd #34-01 The Concourse Singapore 199555","Singapore 199555",1.301012,103.862214
"Bechtel International Inc","20 Ayer Rajah Cres #07-00 Technoprenuer Centre@Ayer Rajah Singapore 139964","Singapore 139964",1.295442,103.78985
"Bee Jin Enterprise Pte Ltd","Blk 3027 Ubi Rd 1 #01-144  Singapore 408720","Singapore 408720",1.3274,103.893711
"Belt Collins International (S) Pte Ltd","108 Pasir Panjang Rd #03-10 AFP Warehouse Singapore 118535","Singapore 118535",1.276601,103.794394
"Best Chance Engrg Works","Blk 2019 Bt Batok St 23 #04-260  Singapore 659524","Singapore 659524",1.342672,103.751531
"Bjg Construction & Engrg","2 Yishun Industrial St 1 #03-14  Singapore 768159","Singapore 768159",1.352083,103.819836
"Blt Engrg Pte Ltd","34 Defu Lane 4   Singapore 539427","Singapore 539427",1.359322,103.9001
"Boon Seng Hardware & Trading","1 Defu Lane 7   Singapore 539329","Singapore 539329",1.355053,103.894557
"Brenton Fong Architects","237 Alexandra Rd #07-16 The Alexcier Singapore 159929","Singapore 159929",1.29161,103.813896
"C Y Wu Architects","865 Mountbatten Rd #06-15 Katong Shopping Centre Singapore 437844","Singapore 437844",1.303746,103.901182
"Cendes + Tenarchitects & Planners Pte Ltd","1 C'wealth Lane #04-30  Singapore 149544","Singapore 149544",1.304438,103.796798
"Centroid Engrg Solutions Pte Ltd","11 Woodlands Cl #07-10  Singapore 737853","Singapore 737853",1.434085,103.8023911
"Chai S K Lucy Chartered Architect","400 Orchard Rd #06-15 Orchard Towers Singapore 238875","Singapore 238875",1.306991,103.828903
"Chao Tse Ann & Partners Pte Ltd","60 Paya Lebar Rd #04-31 Paya Lebar Sq Singapore 409051","Singapore 409051",1.318938,103.8926112
"Chartered Architects International","151B King's Rd #01-08 Farrer Ct-Blk 151B Singapore 268159","Singapore 268159",1.316098,103.804008
"CHC Construction Pte Ltd","52 Ubi Ave 3 #01-38 Frontier Singapore 408867","Singapore 408867",1.330996,103.895816
"Cherisant Enterprise","101 Cashew Rd #09-02 Cashew Heights Singapore 679672","Singapore 679672",1.374068,103.767667
"Chiap Seng Contractors Pte Ltd","Fax  11 Defu Lane 11   Singapore 539167","Singapore 539167",1.342405,103.892848
"Chik & Yeo Architects","Blk 531 Up Cross St #03-63 Hong Lim Complex-Blk 531 Singapore 050531","Singapore 050531",1.2841959,103.845699
"Chin Mao Construction","1114A Serangoon Rd   Singapore 328202","Singapore 328202",1.324468,103.865416
"Chin Yun Fen Simon","27 Kranji Way   Singapore 739437","Singapore 739437",1.437093,103.745891
"Chow Chan Foon","Blk 201A Compassvale Dr #12-503  Singapore 541201","Singapore 541201",1.38875,103.893254
"Chua Ka Seng & Partners","20 Maxwell Rd #09-01 Maxwell Hse Singapore 069113","Singapore 069113",1.279136,103.844656
"Chuan Kiat Demolition Works","Blk 2024 Bt Batok St 23 #01-56  Singapore 659529","Singapore 659529",1.342879,103.752951
"Chuan Lim Construction Pte Ltd","4 Woodlands Loop #03-00  Singapore 738204","Singapore 738204",1.4496929,103.804247
"Chung Architects","32 Jln Hitam Manis   Singapore 278446","Singapore 278446",1.308198,103.798774
"Chye Sun Glass Pte Ltd","Blk 1023 Yishun Ind Pk A #01-19  Singapore 768762","Singapore 768762",1.443059,103.834135
"Cicada Pte Ltd","Blk 168 Jln Bt Merah #12-01 Surbana One Singapore 150168","Singapore 150168",1.282928,103.818795
"Cipta Marketing Pte Ltd","1B Kranji Loop   Singapore 739537","Singapore 739537",1.433633,103.7556649
"Citiwall Pte Ltd","34 Kaki Bukit Cres #04-00 Kaki Bukit Techpark I Singapore 416263","Singapore 416263",1.335833,103.907345
"City Garden Pte Ltd","31 Lor Semangka   Singapore 698937","Singapore 698937",1.388084,103.725673
"CKLi:et Architects","149 Geylang Rd #02-01  Singapore 389233","Singapore 389233",1.311205,103.874251
"CKR Contract Services Pte Ltd","56 Sg Kadut Dr   Singapore 729573","Singapore 729573",1.4125859,103.744863
"Cl.K Architects","9 Purvis St #05-01  Singapore 188588","Singapore 188588",1.296585,103.855119
"Clear Glass Pte Ltd","6D Mandai Est #01-09  Singapore 729938","Singapore 729938",1.4064425,103.7575651
"Co-Design Architects","Blk 1 Thomson Rd #03-350D Balestier Hill Shopping Centre-Blk 1 Singapore 300001","Singapore 300001",1.3253569,103.842168
"Colin K Okashimo & Associates Pte Ltd","1 Syed Alwi Rd #06-02 Song Lin Bldg Singapore 207628","Singapore 207628",1.306227,103.85858
"Commercial & Domestic Plumbing Pte Ltd","Blk 24 Depot Lane #01-08  Singapore 109767","Singapore 109767",1.282164,103.810867
"Consortium 168 Architects Pte Ltd","18 Purvis St #02-01  Singapore 188597","Singapore 188597",1.296336,103.855461
"Content Construction & Development Pte Ltd","1 Ubi View #03-09  Singapore 408555","Singapore 408555",1.3321289,103.897083
"Csya Pte. Ltd.","5 Keong Saik Rd   Singapore 089113","Singapore 089113",1.279278,103.841512
"Cyber Glasstrade Pte. Ltd.","1 Bt Batok Cres #04-37 WCEGA Plaza Singapore 658064","Singapore 658064",1.338942,103.758733
"D'arclub Architects","80 Genting Lane #04-08 Ruby Ind Complex-Genting Blk Singapore 349565","Singapore 349565",1.326544,103.875761
"D+N Architects","79 Kg Bahru Rd #02-01  Singapore 169377","Singapore 169377",1.276358,103.835602
"Da Di Glass (S) Pte Ltd","11 Kranji Loop   Singapore 739545","Singapore 739545",1.434725,103.757433
"DCA Architects Pte Ltd","1 HarbourFront Ave #07-01 Keppel Bay Tower Singapore 098632","Singapore 098632",1.265032,103.818292
"Dengya Glass Pte Ltd","61 Woodlands Ind Pk E9 #03-10  Singapore 757047","Singapore 757047",1.352083,103.819836
"Deshin Engrg & Construction Pte Ltd","4 Kaki Bukit View #01-00 Kaki Bukit Techpark II Singapore 415943","Singapore 415943",1.3365229,103.908929
"Design 2 Associates Pte Ltd","988 Toa Payoh Nth #05-02  Singapore 319002","Singapore 319002",1.3425931,103.8497138
"Design Group Incorporated Architects","Blk 261 Waterloo St #04-12 Waterloo Centre Singapore 180261","Singapore 180261",1.2987169,103.851813
"Design Integrated Architects","1 Ubi View #04-01  Singapore 408555","Singapore 408555",1.3321289,103.897083
"Design International Architects Llp","149B Selegie Rd   Singapore 188314","Singapore 188314",1.303012,103.849947
"Design Link Architects Pte. Ltd.","60A Peck Seah St   Singapore 079323","Singapore 079323",1.277653,103.844836
"Design Metabolists","Blk 165 Bt Merah Central #03-3675  Singapore 150165","Singapore 150165",1.28344,103.816199
"Design-Environment Group Architects","50 Eu Tong Sen St   Singapore 059803","Singapore 059803",1.287248,103.845737
"Design-Environment Group Architects Llp","320 Serangoon Rd #04-11 Serangoon Plaza Singapore 218108","Singapore 218108",1.310986,103.855056
"Designshop Pte Ltd","896 Dunearn Rd #03-11 Sime Darby Centre Singapore 589472","Singapore 589472",1.336502,103.783339
"Dg Glass Pte. Ltd.","7 Mandai Link #05-30 Mandai Connection Singapore 728653","Singapore 728653",1.352083,103.819836
"Diamond Glass Enterprise Pte Ltd","43 Loyang Way   Singapore 508737","Singapore 508737",1.380299,103.975646
"DJ Builders & Contractors Pte Ltd","8 Ubi Rd 2 #06-13 Zervex Singapore 408538","Singapore 408538",1.333947,103.894921
"DP Architects Pte Ltd","6 Raffles Blvd #04-100 Marina Sq Singapore 039594","Singapore 039594",1.290989,103.857422
"DSA Architects","38A Race Course Rd   Singapore 218555","Singapore 218555",1.308098,103.850707
"Duraslide Pte Ltd","162 Tagore Lane   Singapore 787571","Singapore 787571",1.38599,103.8293149
"Dwell Projects Architects","54 Maude Rd #03-05 Townshend Bldg Singapore 208346","Singapore 208346",1.308022,103.858338
"E K Architects","10 Ubi Cres #06-70 Ubi Techpark Singapore 408564","Singapore 408564",1.326293,103.896145
"Earthwork Constructions Pte Ltd","1 Yishun St 23 #03-19  Singapore 768441","Singapore 768441",1.4379249,103.841475
"East 9 Architects & Planners Pte. Ltd.","160 Changi Rd #04-12  Singapore 419728","Singapore 419728",1.317011,103.902274
"Eml Architects","26 Sin Ming Lane #07-122 Midview City Singapore 573971","Singapore 573971",1.359509,103.833969
"Emperor Engrg (S) Pte.Ltd.","60 Albert St #12-07 OG Albert Complex Singapore 189969","Singapore 189969",1.3020259,103.853648
"Eng Hock Heng Construction Pte. Ltd.","21 Toh Guan Rd East #07-18  Singapore 608609","Singapore 608609",1.337651,103.754693
"Environmental Landscape Pte Ltd","8 Kensington Pk Dr #01-04 Kensington Pk Singapore 557323","Singapore 557323",1.368581,103.86959
"Envirospace Consultants Pte Ltd","20 MacTaggart Rd #08-02  Singapore 368079","Singapore 368079",1.334798,103.885318
"Epic Design Architects","400 Balestier Rd #02-17 Balestier Plaza Singapore 329802","Singapore 329802",1.325601,103.850723
"Ever Flash Contractor","Blk 1013 Geylang East Ave 3 #01-102  Singapore 389728","Singapore 389728",1.318756,103.890619
"EZRA Architects","314A Joo Chiat Rd   Singapore 427565","Singapore 427565",1.309351,103.902388
"Fabriglass Construction Pte Ltd","Blk 2021 Bt Batok St 23 #01-180  Singapore 659526","Singapore 659526",1.342267,103.752616
"Facade Globalmaster Pte. Ltd.","Fax  22 Sin Ming Lane #06-74 Midview City Singapore 573969","Singapore 573969",1.358606,103.833566
"Fdat Architects Llp","16B Trengganu St   Singapore 058470","Singapore 058470",1.282988,103.844159
"Fireland Engineering Pte Ltd","8 Kaki Bukit Ave 4 #06-26  Singapore 415875","Singapore 415875",1.3384021,103.9059451
"First Class Construction Pte. Ltd.","Fax Blk 90 Geylang Bahru #01-2748  Singapore 339698","Singapore 339698",1.320864,103.873774
"Foo Heng Contracts Pte. Ltd.","50 Tuas Ave 11 #03-02  Singapore 639107","Singapore 639107",1.325304,103.642923
"Foo Sin Glass Merchant","Blk 74 Geylang Bahru #01-2862  Singapore 339682","Singapore 339682",1.32109,103.872231
"Full Glass Pte Ltd","22 Mandai Est   Singapore 729914","Singapore 729914",1.406625,103.75884
"G T Art-Glass","280 Woodlands Ind Pk E5 #07-17  Singapore 757322","Singapore 757322",1.4516117,103.7951978
"G-Glass Pte.Ltd.","68 Kaki Bukit Ave 6 #02-06  Singapore 417896","Singapore 417896",1.3409886,103.9139969
"Garden & Landscape Centre (Pte) Ltd","20 MacTaggart Rd #08-02  Singapore 368079","Singapore 368079",1.334798,103.885318
"Gates PCM Construction Ltd","33 Ubi Ave 3 #02-05 Vertex Singapore 408868","Singapore 408868",1.33295,103.894131
"Gee Suan Trading & Construction","87 Cashew Rd #03-01 Cashew Heights Singapore 679658","Singapore 679658",1.372821,103.767893
"Geostock Asia Pte Ltd","3 International Business Pk #03-27 Nordic European Centre Singapore 609927","Singapore 609927",1.32681,103.748282
"Glass Vision Design Pte. Ltd.","Blk 1038 Eunos Ave 3 #01-66  Singapore 409845","Singapore 409845",1.320481,103.898985
"Glasshouse Enterprise","10 Kaki Bukit Rd 2 #03-03  Singapore 417868","Singapore 417868",1.339058,103.8995039
"Glassic Glass Construction","Blk 28 Sin Ming Dr #01-179  Singapore 575702","Singapore 575702",1.357409,103.83593
"Glassic Specialists Pte Ltd","280 Woodlands Ind Pk E5 #05-26  Singapore 757322","Singapore 757322",1.4516117,103.7951978
"Glasslink Services Pte. Ltd","10 Admiralty St #03-73 North Link Bldg Singapore 757695","Singapore 757695",1.461615,103.812348
"Glastechnik Pte. Ltd","51 Jln Pemimpin #01-05 Mayfair Ind Bldg Singapore 577206","Singapore 577206",1.351649,103.84221
"Glastecnik Pte. Ltd.","120 Lower Delta Rd #02-03 Cendex Centre Singapore 169208","Singapore 169208",1.280226,103.822926
"Glazier Glass Specialist","10 Admiralty St #02-68 North Link Bldg Singapore 757695","Singapore 757695",1.461615,103.812348
"Glaziers Pte. Ltd.","48 Toh Guan Rd East #08-99 Enterprise Hub Singapore 608586","Singapore 608586",1.337078,103.7547249
"Globalwide International Pte Ltd","84 Kaki Bukit Ind Ter   Singapore 416164","Singapore 416164",1.3359049,103.901955
"Great Wall Technology Aluminium Industry Pte. Ltd.","12 Tannery Rd #03-01  Singapore 347722","Singapore 347722",1.3289359,103.876546
"Greenhilli Pte Ltd","9 Jln Kubor #02-01  Singapore 199206","Singapore 199206",1.303882,103.8593379
"Guz Wilkinson Architects","3 Jln Kelabu Asap   Singapore 278199","Singapore 278199",1.311725,103.798895
"H Rogers Trading (S) Pte Ltd","51 Goldhill Plaza #08-10 Goldhill Plaza Singapore 308900","Singapore 308900",1.318222,103.842817
"Ha Architects Pte Ltd","73 Ubi Rd 1 #07-51 Oxley Bizhub Singapore 408733","Singapore 408733",1.352083,103.819836
"Hb Glass & Aluminium Pte. Ltd.","27 Playfair Rd #05-00  Singapore 367991","Singapore 367991",1.334616,103.88641
"HCF & Associates","54 Prinsep St #02-01  Singapore 188684","Singapore 188684",1.299722,103.849732
"Heng Dee Cee Contractor","Blk 346 Woodlands St 32 #01-178  Singapore 730346","Singapore 730346",1.432415,103.780837
"Heng Hwa Machinery & Sanitary","152 Tagore Lane   Singapore 787566","Singapore 787566",1.385651,103.829713
"Hi-Tech Demolition Pte Ltd","8B Admiralty St #04-03  Singapore 757440","Singapore 757440",1.352083,103.819836
"Hiladt Architects Llp","182 Tg Katong Rd   Singapore 436986","Singapore 436986",1.3098129,103.894097
"Hong Fa Logistics & Engrg Pte. Ltd.","67 Ubi Cres #03-03 Techniques Centre Singapore 408560","Singapore 408560",1.3279399,103.898087
"Hong Fu Construction Pte Ltd","10 Admiralty St #03-58 North Link Bldg Singapore 757695","Singapore 757695",1.461615,103.812348
"Hong Hai Environmental Art Pte Ltd","67 Ubi Rd 1 #06-09 Oxley Bizhub Singapore 408730","Singapore 408730",1.352083,103.819836
"Howden Thomassen Far East Pte Ltd","219 Henderson Rd #08-04 Henderson Ind Pk Singapore 159556","Singapore 159556",1.280219,103.819868
"Hua Fong Builder & Contractor Pte. Ltd.","4 Defu Lane 8   Singapore 539308","Singapore 539308",1.3556029,103.895815
"Huay Architects","138 Cecil St #09-02 Cecil Ct Singapore 069538","Singapore 069538",1.280756,103.848778
"Hwa Aik Engrg Pte Ltd","28 Woodlands Ind Pk E5   Singapore 757803","Singapore 757803",1.453435,103.798924
"Hwa Glass Pte Ltd","7 Mandai Link #04-25 Mandai Connection Singapore 728653","Singapore 728653",1.352083,103.819836
"HYLA Architects","47 Ann Siang Rd #02-01  Singapore 069720","Singapore 069720",1.280439,103.846063
"Ian Lander Architect","Fax  44 Monk's Hill Rd #02-48  Singapore 228575","Singapore 228575",1.310093,103.84021
"Ichiban Glass Construction","7 Mandai Link #06-03 Mandai Connection Singapore 728653","Singapore 728653",1.352083,103.819836
"Ideal Glass Pte. Ltd.","7 Mandai Link #09-21 Mandai Connection Singapore 728653","Singapore 728653",1.352083,103.819836
"Import Fashion House","Blk 32 New Market Rd #03-1036 People's Pk Singapore 050032","Singapore 050032",1.284987,103.842602
"Innovisionfacade Pte Ltd","10A Opal Cres   Singapore 328405","Singapore 328405",1.327663,103.867364
"International Design Studio Pte Ltd","Blk 168 Jln Bt Merah #05-00 Surbana One Singapore 150168","Singapore 150168",1.282928,103.818795
"Ip:li Architects","100 Pasir Panjang Rd #03-01  Singapore 118518","Singapore 118518",1.275525,103.795551
"ISG Asia (S) Pte Ltd","1A Lor Telok   Singapore 049014","Singapore 049014",1.287103,103.848802
"Ix Architects Pte. Ltd.","8 Burn Rd #13-13 Trivex Singapore 369977","Singapore 369977",1.335497,103.885304
"J J Glass Design Creations Pte Ltd","6D Mandai Est #09-13  Singapore 729938","Singapore 729938",1.4064425,103.7575651
"Jad Architects Llp","113 Eunos Ave 3 #06-11 Gordon Ind Bldg Singapore 409838","Singapore 409838",1.319896,103.896867
"James Ferrie & Partners","63 Hillview Ave #10-18B Lam Soon Ind Bldg Singapore 669569","Singapore 669569",1.357084,103.763605
"James Yip & Partners","2 Leng Kee Rd #05-03A Thye Hong Centre Singapore 159086","Singapore 159086",1.290982,103.814894
"Jangho Group Co Ltd. S'pore Branch","190 MacPherson Rd #04-01  Singapore 348548","Singapore 348548",1.329571,103.874301
"Jesken Management & Consultancy Pte Ltd","Blk 23 Ghim Moh Link #36-222  Singapore 271023","Singapore 271023",1.308686,103.78623
"JGP Architecture (S) Pte Ltd","51 Anson Rd #06-00 Anson Centre Singapore 079904","Singapore 079904",1.274627,103.845714
"Jinyue Aluminium Engrg (S) Pte. Ltd.","31 Bt Batok Cres #01-52 The Splendour Singapore 658070","Singapore 658070",1.3367579,103.758667
"Jiudong Llp","7 Keppel Rd #03-14 Tg Pagar Complex Singapore 089053","Singapore 089053",1.271418,103.842329
"Jl Plumbing & Engrg Pte. Ltd","15 Yishun Industrial St 1 #05-18  Singapore 768091","Singapore 768091",1.437736,103.8447045
"JLA Designs","16 Arumugam Rd #02-01 Lion Bldg D Singapore 409961","Singapore 409961",1.325694,103.891235
"Joo Siang & Co Pte Ltd","54 Maude Rd #03-06 Townshend Bldg Singapore 208346","Singapore 208346",1.308022,103.858338
"Jpl Consultants Pte. Ltd.","352B King George's Ave   Singapore 208580","Singapore 208580",1.3106549,103.862712
"JS Metal Pte Ltd","2C Mandai Est   Singapore 729900","Singapore 729900",1.405508,103.757206
"JTP Architects","2 Second Ave   Singapore 266652","Singapore 266652",1.32959,103.799691
"K H Lee Engrg & Construction Pte Ltd","24A Benoi Rd   Singapore 629897","Singapore 629897",1.305988,103.676606
"Kay Ngee Tan Architects","16 Duxton Hill   Singapore 089599","Singapore 089599",1.278773,103.842797
"KCL Architects","5B Aliwal St  Chenn Leonn Bldg Singapore 199898","Singapore 199898",1.301742,103.861356
"Kengly Glass Contractor","Blk 84 Geylang Bahru #01-2688  Singapore 339692","Singapore 339692",1.320189,103.873945
"Kim Li Facade Pte. Ltd.","Blk 9008 Tampines St 93 #02-35  Singapore 528843","Singapore 528843",1.341892,103.942416
"Kinetics Process Systems Pte Ltd","1 Clementi Loop #02-01/02  Singapore 129808","Singapore 129808",1.325175,103.76352
"Kite Studio Architecture Pte.","930A East Coast Rd   Singapore 459118","Singapore 459118",1.312613,103.925018
"Kng Architects & Urbanists","178 Lornie Rd   Singapore 298715","Singapore 298715",1.340132,103.8311839
"Kung & Tan Architects","Blk 158 Bt Batok St 11 #04-218  Singapore 650158","Singapore 650158",1.348769,103.743143
"Kwang Tat Glass Pte Ltd","11 Kian Teck Rd   Singapore 628768","Singapore 628768",1.328303,103.690529
"Kwong Ling Frame Maker","3 Kelantan Rd   Singapore 208601","Singapore 208601",1.306043,103.856031
"Kwong Thai Trading Glass Merchant","312 Joo Chiat Rd   Singapore 427563","Singapore 427563",1.309423,103.902315
"Kyoob Architects Pte Ltd","Blk 336 Smith St #04-306 New Bridge Centre Singapore 050336","Singapore 050336",1.282878,103.8425649
"La Glass Ltd Liability Partnership","3 Lor Bakar Batu #04-01 Brightway Bldg Singapore 348741","Singapore 348741",1.328296,103.872011
"Lai Feng Construction Pte Ltd","43 Sg Kadut St 6 #03-00  Singapore 728872","Singapore 728872",1.427692,103.748301
"Lam Sai Engrg Works","79L Jln Senang  Yong Seng Est Singapore 418430","Singapore 418430",1.328114,103.915482
"Landmark Architects Associate","43F Carlisle Rd   Singapore 219613","Singapore 219613",1.314195,103.848223
"Laud Architects Pte Ltd","510 Thomson Rd #02-08 SLF Bldg Singapore 298135","Singapore 298135",1.3335729,103.8391259
"Lead Management Engineering & Construction Pte Ltd","16 International Business Pk #03-00 M+W Zander Singapore 609929","Singapore 609929",1.3258779,103.747729
"Lee & Associates Chartered Architects & Designers","Blk 334 Kreta Ayer Rd #03-08  Singapore 080334","Singapore 080334",1.281699,103.842327
"Lee Coo Consultant Associates","1 Park Rd #04-38 People's Pk Complex Singapore 059108","Singapore 059108",1.284095,103.8425309
"Leighton John Holland Joint Venture","823A Up Thomson Rd #01-01  Singapore 787134","Singapore 787134",1.352083,103.819836
"LG Architects & Associates","Blk 809 French Rd #04-168 Kitchener Complex Singapore 200809","Singapore 200809",1.308384,103.861858
"Lian Beng Engrg & Machinery Pte Ltd","63 Senoko Dr   Singapore 758250","Singapore 758250",1.46669,103.808397
"Lighting Images Asia Pte. Ltd.","201 Joo Chiat Rd #02-03  Singapore 427472","Singapore 427472",1.311658,103.900795
"Lim Eng Khoon Architects","845 Geylang Rd #04-11 Tg Katong Complex Singapore 400845","Singapore 400845",1.3164419,103.894357
"Lim Soo Ann","3 Irving Rd #06-07A Irving Ind Bldg Singapore 369522","Singapore 369522",1.335643,103.886951
"LKS Architects & Planners","6001 Beach Rd #21-07 Golden Mile Tower Singapore 199589","Singapore 199589",1.302128,103.864082
"Loh Bros (Pte) Ltd","Blk 2021 Bt Batok St 23 #02-188  Singapore 659526","Singapore 659526",1.342267,103.752616
"Look Architects Pte. Ltd.","18 Boon Lay Way #09-135 TradeHub 21 Singapore 609966","Singapore 609966",1.328234,103.753597
"LST Architects","55 Duxton Rd   Singapore 089519","Singapore 089519",1.278127,103.843266
"Management Corpn Strata Title No 1822","Lot 19-11 Lor Puntong   Singapore 570000","Singapore 570000",1.352083,103.819836
"Marketech Integrated Pte Ltd","86 Kaki Bukit Ind Ter #01-00  Singapore 416166","Singapore 416166",1.335537,103.901689
"Martin Lee Designs","18 Boon Lay Way #10-110 TradeHub 21 Singapore 609966","Singapore 609966",1.328234,103.753597
"Meng Heng Glass (Pte) Ltd","34 Defu Lane 4   Singapore 539427","Singapore 539427",1.359322,103.9001
"Merx Construction Management (MCM) Pte Ltd","41A Amoy St   Singapore 069867","Singapore 069867",1.28058,103.846963
"Ming Sheng Glass Contractor","71 Woodlands Ave 10 #03-04  Singapore 737743","Singapore 737743",1.352083,103.819836
"Mirage International","180 Cecil St #09-04 Bangkok Bank Bldg Singapore 069546","Singapore 069546",1.279098,103.847827
"Miyake Masaki Associates Pte. Ltd.","1 Larkhill Rd #03-37  Singapore 099394","Singapore 099394",1.252073,103.822236
"Mk Tunnel Pte. Ltd.","41 Meragi Ter   Singapore 487858","Singapore 487858",1.342756,103.959363
"Mode Architects Pte Ltd","82 Playfair Rd #06-02  Singapore 368001","Singapore 368001",1.337221,103.885315
"Mok & Associates","175A Bencoolen St #09-08 Burlington Sq Singapore 189650","Singapore 189650",1.3020179,103.852486
"Mozaac Architects","144A East Coast Rd   Singapore 428834","Singapore 428834",1.306232,103.90555
"Mr Tenarchitects","1 C'wealth Lane #04-30  Singapore 149544","Singapore 149544",1.304438,103.796798
"Multi-Glaze Pte Ltd","196 Pandan Loop #06-25 Pantech Business Hub Singapore 128384","Singapore 128384",1.310563,103.751069
"Multibuild Development Pte Ltd","325A Balestier Rd   Singapore 329755","Singapore 329755",1.323943,103.851587
"Multiply Architects Llp","59 Jln Sultan   Singapore 198979","Singapore 198979",1.302568,103.861495
"MYKP Architects","16 Arumugam Rd #02-01 Lion Bldg D Singapore 409961","Singapore 409961",1.325694,103.891235
"Nazrifah Muhd","Blk 123 Bt Merah Lane 1 #03-72  Singapore 150123","Singapore 150123",1.286675,103.803776
"Neo & Goh Construction Pte Ltd","10 Ubi Cres #07-83 Ubi Techpark Singapore 408564","Singapore 408564",1.326293,103.896145
"Neptune Subsea Stabilisation Pte Ltd","54 Loyang Way   Singapore 508747","Singapore 508747",1.380719,103.976097
"Netec Architects","10 Ubi Cres #05-49 Ubi Techpark Singapore 408564","Singapore 408564",1.326293,103.896145
"New Space Architects Pte Ltd","201 Henderson Rd #09-18  Singapore 159545","Singapore 159545",1.2825089,103.820457
"Newprecinct Architects","Blk 86 Marine Parade Central #04-310  Singapore 440086","Singapore 440086",1.301492,103.906681
"Ng Cheng Bock Contractor Pte. Ltd.","21 Woodlands Cl #09-22 Primz Bizhub Singapore 737854","Singapore 737854",1.4340771,103.8035138
"Ngee Heng Frame Maker","10 Admiralty St #01-60 North Link Bldg Singapore 757695","Singapore 757695",1.461615,103.812348
"Ngee Heng Glass Pte Ltd","10 Admiralty St #01-60 North Link Bldg Singapore 757695","Singapore 757695",1.461615,103.812348
"Nordic Asia","Blk 9005 Tampines St 93 #02-238  Singapore 528839","Singapore 528839",1.339254,103.941341
"Novena Architect & Urban Designer","Blk 2 Balestier Rd #03-643 Balestier Hill Shopping Centre-Blk 2 Singapore 320002","Singapore 320002",1.325893,103.8429309
"Okaya Engrg Pte Ltd","Blk 571 Ang Mo Kio Ave 3 #08-3277  Singapore 560571","Singapore 560571",1.370103,103.854642
"Olsa Design International Pte. Ltd.","Fax  25 Lor Telok #03-01  Singapore 049037","Singapore 049037",1.286632,103.848737
"Ommi Interiors","7030 Ang Mo Kio Ave 5 #01-31 Northstar @ AMK Singapore 569880","Singapore 569880",1.377918,103.875414
"Omni Architects","51 Anson Rd #14-57 Anson Centre Singapore 079904","Singapore 079904",1.274627,103.845714
"Parklink Pte. Ltd.","2 Yishun Industrial St 1 #05-07  Singapore 768159","Singapore 768159",1.352083,103.819836
"PDAA Design Pte Ltd","3B Aliwal St  Chenn Leonn Bldg Singapore 199896","Singapore 199896",1.301714,103.861379
"Pipe Vision Engrg","2 Kallang Pudding Rd #09-10 Mactech Ind Bldg Singapore 349307","Singapore 349307",1.330167,103.876698
"Pipeline Services Pte Ltd","20 Kian Teck Dr   Singapore 628837","Singapore 628837",1.330578,103.694363
"Place Architects & Design","65 Jln Sultan   Singapore 198982","Singapore 198982",1.302684,103.861414
"Point Architects Pte Ltd","16 Jln Kilang #04-04  Singapore 159416","Singapore 159416",1.285579,103.809048
"Prime Glass Specialist & Engrg","20 Ang Mo Kio Ind Pk 2A #04-05 AMK Techlink Singapore 567761","Singapore 567761",1.377348,103.870786
"Progress Glass Contractor","3016 Bedok Nth Ave 4 #08-07 Eastech Singapore 489947","Singapore 489947",1.337734,103.948804
"Project Solutions Pte Ltd","1 Liang Seah St #02-16  Singapore 189022","Singapore 189022",1.297708,103.856581
"PSL Engrg Pte Ltd","58 Sg Kadut Dr   Singapore 729572","Singapore 729572",1.4119489,103.745305
"Q Max Enterprise Pte.Ltd.","1 Soon Lee St #03-12  Singapore 627605","Singapore 627605",1.3332545,103.6976974
"Qi Heng Construction Pte Ltd","Blk 208 Hougang St 21 #03-203  Singapore 530208","Singapore 530208",1.358844,103.886685
"R&D Landscape Consultants (88)","112 East Coast Rd #02-35 112 Katong Singapore 428802","Singapore 428802",1.305511,103.904622
"Raymond Woo & Associates Architects","391A Orchard Rd #08-09 Takashimaya Shopping Centre Singapore 238873","Singapore 238873",1.302707,103.834289
"RDC Architects Pte Ltd","#01-01, Gateway East,, 152 Beach Road, Singapore 189721","Singapore 189721",1.299117,103.8589609
"RG Architects","420 North Bridge Rd #04-10 North Bridge Centre Singapore 188727","Singapore 188727",1.297395,103.8549139
"Richardho Architects","691A East Coast Rd   Singapore 459057","Singapore 459057",1.3115889,103.92185
"Rimec Technology Pte Ltd","26 Boon Lay Way #01-77 TradeHub 21 Singapore 609970","Singapore 609970",1.329136,103.751908
"Robert Greg Shand Architects","51 Telok Ayer St #03-01  Singapore 048441","Singapore 048441",1.282983,103.849122
"Robert Sie & Associates","Blk 102 Towner Rd #01-250 Townerville Singapore 322102","Singapore 322102",1.320645,103.861876
"Royal Glass Pte Ltd","31 Woodlands Cl #03-11  Singapore 737855","Singapore 737855",1.4365491,103.8060992
"RSP Architects Planners & Engineers (Pte) Ltd","1 Kallang Junction #03-01 Banchong Bldg Singapore 339263","Singapore 339263",1.312453,103.864183
"Rt+Q Architects Pte Ltd","32A Mosque St   Singapore 059510","Singapore 059510",1.283633,103.845313
"Rudrabhishek S'pore Pte. Ltd.","Blk 165 Bt Merah Central #07-3671  Singapore 150165","Singapore 150165",1.28344,103.816199
"S A Chua Architects Pte. Ltd.","28A Up Cross St   Singapore 058337","Singapore 058337",1.28409,103.845181
"S G Chin & Associates","22 Sin Ming Lane #07-75 Midview City Singapore 573969","Singapore 573969",1.358606,103.833566
"S H Lim Architects Pte Ltd","10 Jln Besar #05-01 Sim Lim Tower Singapore 208787","Singapore 208787",1.304039,103.8546719
"S J Glass Trading","126 Joo Seng Rd #02-06 Gold Pine Ind Bldg Singapore 368355","Singapore 368355",1.336572,103.882292
"S T Yeo & Associates","120 Hillview Ave #07-01 Kewalram Hillview Singapore 669594","Singapore 669594",1.356779,103.761706
"SAA Architects Pte Ltd","2 Bt Merah Central #17-00  Singapore 159835","Singapore 159835",1.284344,103.813836
"Sam Lian Construction Co","Blk 97 Aljunied Cres #04-431  Singapore 380097","Singapore 380097",1.321334,103.885756
"Sanhe Construction Pte. Ltd.","11 Woodlands Cl #05-40  Singapore 737853","Singapore 737853",1.434085,103.8023911
"SC Glass Pte. Ltd.","29 Sg Kadut St 4   Singapore 729054","Singapore 729054",1.42199,103.7447229
"Sd Architects & Associates Pte. Ltd.","Blk 165 Bt Merah Central #06-3687  Singapore 150165","Singapore 150165",1.28344,103.816199
"Sdi Architects Pte Ltd","178 Paya Lebar Rd #05-11  Singapore 409030","Singapore 409030",1.32982,103.890266
"Sekisui Asia Pipe Solutions Pte Ltd","7500A Beach Rd #12-304/307 The Plaza Singapore 199591","Singapore 199591",1.299782,103.860659
"SEP Partnership","114 Lavender St #02-59 CT HUB 2 Singapore 338729","Singapore 338729",1.311654,103.862322
"Servicebuild Construction & Electrical Pte Ltd","1 Senang Cres #04-01  Singapore 416575","Singapore 416575",1.3275809,103.916549
"Shing Design Atelier Pte. Ltd","Blk 165 Bt Merah Central #07-3669  Singapore 150165","Singapore 150165",1.28344,103.816199
"Shower Dynamic Pte Ltd","10 Kaki Bukit Rd 1 #03-21  Singapore 416175","Singapore 416175",1.335361,103.902725
"Sim & Associates Architects Planners & Engineers","14 Kallang Way 5   Singapore 349032","Singapore 349032",1.322879,103.880659
"Sim Bros Glass Merchant","908B Up Thomson Rd   Singapore 787111","Singapore 787111",1.398419,103.818282
"Sin Mei Glass Pte. Ltd.","5 Yishun Industrial St 1 #01-19 North Spring BizHub Singapore 768161","Singapore 768161",1.438408,103.843311
"Sing Lik Glass & Metal Pte Ltd","Blk 4005 Depot Lane #01-91  Singapore 109759","Singapore 109759",1.282272,103.812027
"Sinland Development Pte. Ltd.","20 Collyer Quay#10-2A Singapore 049319","Singapore 049319",1.284544,103.852803
"Sitetectonix","51 Bras Basah Rd #03-05/06 Manulife Centre Singapore 189554","Singapore 189554",1.297919,103.850242
"Soon Heng Glass Pte Ltd","15 Tuas Dr 1   Singapore 638681","Singapore 638681",1.323531,103.658985
"Soon Lee Construction Pte Ltd","Blk 204 Hougang St 21 #04-109  Singapore 530204","Singapore 530204",1.358853,103.884919
"Space + Dimensions Architecture","150 South Bridge Rd #B1-06 Fook Hai Bldg Singapore 058727","Singapore 058727",1.285134,103.846524
"Starbright Glass Enterprise Pte. Ltd.","8 Kaki Bukit Ave 4 #06-09  Singapore 415875","Singapore 415875",1.3384021,103.9059451
"Stars Plumbing & Engrg Pte Ltd","Blk 1034 Eunos Ave 5 #01-40  Singapore 409743","Singapore 409743",1.321617,103.89896
"Straits Teamwork Pte Ltd","421 Tagore Ind Ave #04-10  Singapore 787805","Singapore 787805",1.384602,103.827387
"Studiogoto","73 Ubi Rd 1 #05-56 Oxley Bizhub Singapore 408733","Singapore 408733",1.352083,103.819836
"Sun Sing Mirror Mfg Co","Blk 3024 Ubi Rd 3 #01-89  Singapore 408652","Singapore 408652",1.328858,103.897421
"Sun Sun Glass Pte Ltd","Blk 38 Defu Lane 10 #01-35  Singapore 539215","Singapore 539215",1.352262,103.891253
"Surface 360 Pte. Ltd.","3 Ang Mo Kio St 62 #04-02  Singapore 569139","Singapore 569139",1.385486,103.845825
"Swan & Maclaren Architects Pte Ltd","158 Cecil St #06-02  Singapore 069545","Singapore 069545",1.279697,103.848111
"Systematic Engrg Pte Ltd","27A Jurong Port Rd #01-40  Singapore 619101","Singapore 619101",1.31569,103.720303
"T&C Plumbing & Sanitary Pte. Ltd.","623 Aljunied Rd #05-08A Aljunied Ind Complex Singapore 389835","Singapore 389835",1.324926,103.879401
"T.A.G. Construction Pte. Ltd.","Blk 3004 Ubi Ave 3 #02-96  Singapore 408860","Singapore 408860",1.331525,103.893382
"T3M Architects & Urban Designers","Blk 261 Waterloo St #04-19 Waterloo Centre Singapore 180261","Singapore 180261",1.2987169,103.851813
"Take Architects","77 High St #04-04 High St Plaza Singapore 179433","Singapore 179433",1.290516,103.849283
"Tan + Tsakonas Architects","73 Ayer Rajah Cres #03-03  Singapore 139952","Singapore 139952",1.297376,103.786545
"Tang Wee Houe Architects","545 Orchard Rd #06-17 Far East Shopping Centre Singapore 238882","Singapore 238882",1.3055779,103.830139
"Tat Weng Glass Merchant","Blk 1042 Eunos Ave 5 #01-99  Singapore 409745","Singapore 409745",1.321241,103.897805
"Teh Joo Heng Architects","141 Middle Rd #03-04 GSM Bldg Singapore 188976","Singapore 188976",1.2995969,103.852556
"The Architects Circle Pte Ltd","Blk 531 Up Cross St #03-63 Hong Lim Complex-Blk 531 Singapore 050531","Singapore 050531",1.2841959,103.845699
"The Installation Place Pte Ltd","Fax Blk 473 Ang Mo Kio Ave 10 #07-728  Singapore 560473","Singapore 560473",1.3630739,103.857041
"Thompson Industries Pte Ltd","50 Serangoon Nth Ave 4 #07-11  Singapore 555856","Singapore 555856",1.375532,103.875641
"Tierra Design (S) Pte Ltd","1003 Bt Merah Central #03-13 Technoprenuer Centre@Bukit Merah Singapore 159836","Singapore 159836",1.283259,103.814735
"Tow Francis Architecture + Urban Design","681A East Coast Rd   Singapore 459052","Singapore 459052",1.311833,103.921574
"Town Zone Construction Pte. Ltd.","57 Ubi Ave 1 #03-06 Ubi Centre Singapore 408936","Singapore 408936",1.3253029,103.894861
"Tropic Planners & Landscape Pte Ltd","34 Hillview Ter   Singapore 669254","Singapore 669254",1.3533869,103.757215
"Uniglow Engrg Pte Ltd","15 Benoi Rd   Singapore 629888","Singapore 629888",1.29814,103.6778439
"Unique Glass Pte. Ltd.","1 Yishun St 23 #03-07  Singapore 768441","Singapore 768441",1.4379249,103.841475
"Universal Akitek","27 Jln Ketumbit   Singapore 808880","Singapore 808880",1.384766,103.874244
"Upm Technology Pte Ltd","18 Boon Lay Way #05-145 TradeHub 21 Singapore 609966","Singapore 609966",1.328234,103.753597
"Urban 3 Architects","Blk 78B Telok Blangah St 32 #03-04  Singapore 102078","Singapore 102078",1.273562,103.808121
"V.E.L Glass Enterprise Pte. Ltd.","7 Mandai Link #08-06 Mandai Connection Singapore 728653","Singapore 728653",1.352083,103.819836
"Very 9 Glass Pte Ltd","10 Admiralty St #02-74 North Link Bldg Singapore 757695","Singapore 757695",1.461615,103.812348
"Vinstar Engrg Services Pte Ltd","101 Kitchener Rd #02-42 Jln Besar Plaza Singapore 208511","Singapore 208511",1.308783,103.85821
"Vss Facade Installer Pte. Ltd","6 Yio Chu Kang Rd #01-00 I C B Shopping Centre Singapore 545521","Singapore 545521",1.354407,103.877751
"W Architects Pte Ltd","205 Henderson Rd #04-01 Henderson Ind Pk Singapore 159549","Singapore 159549",1.280758,103.820098
"Wah Wei Glass & Aluminium Pte Ltd","11 Woodlands Cl #10-46  Singapore 737853","Singapore 737853",1.434085,103.8023911
"Wah Yow Trading Co","520 Sims Ave #01-06  Singapore 387580","Singapore 387580",1.316122,103.88899
"Wee Kwang Engrg","Blk 531A Up Cross St #03-123 Hong Lim Complex-Blk 531A Singapore 051531","Singapore 051531",1.285321,103.845851
"Wei Renovation","1 Brooke Rd #B1-24 Katong Plaza Singapore 429979","Singapore 429979",1.304191,103.903803
"Wel Huang Aluminium Works","Blk 153 Bt Batok St 11 #03-300  Singapore 650153","Singapore 650153",1.347569,103.744289
"Well Handled Development Pte Ltd","32 Old Toh Tuck Rd #02-02  Singapore 597658","Singapore 597658",1.3311892,103.7570942
"Welltech Construction Pte Ltd","162 Race Course Rd   Singapore 218603","Singapore 218603",1.310744,103.852635
"Wijaya Engrg Pte Ltd","60 Admiralty Rd West #01-00  Singapore 759947","Singapore 759947",1.459976,103.822717
"Woha Architects Pte Ltd","29 Hongkong St   Singapore 059668","Singapore 059668",1.287632,103.84704
"Woodwater Integrated Pte. Ltd.","72 Bendemeer Rd #05-27 Luzerne Singapore 339941","Singapore 339941",1.3160019,103.862886
"Wsg Engrg Pte. Ltd.","6 Ubi Rd 1 #01-12 Wintech Centre Singapore 408726","Singapore 408726",1.32642,103.893332
"Wsp Consultancy Pte Ltd","300 Beach Rd #05-00 The Concourse Singapore 199555","Singapore 199555",1.301012,103.862214
"Xing Yuan Civil Engrg & Building Pte Ltd","80 Genting Lane #05-08 Ruby Ind Complex-Genting Blk Singapore 349565","Singapore 349565",1.326544,103.875761
"Xinhe Construction Pte Ltd","35 Kallang Pudding Rd #08-04 Tong Lee Bldg-Blk A Singapore 349314","Singapore 349314",1.33,103.878276
"Y E Glass Trading Co Pte Ltd","Blk 3023 Ubi Rd 3 #01-12 Ubiplex I Singapore 408663","Singapore 408663",1.329617,103.897066
"Ya Fei (S'pore) Aluminium Engrg Pte. Ltd.","9 Defu Lane 3 #02-06  Singapore 539441","Singapore 539441",1.358082,103.89972
"Yap Hun Cheng Chartered Architects","557 Bt Timah Rd #02-03B Crown Centre Singapore 269694","Singapore 269694",1.323016,103.811217
"Yee Tai Lee (Pte) Ltd","1092 Lower Delta Rd #01-01 Tiong Bahru Ind Est Singapore 169203","Singapore 169203",1.280852,103.8222
"Yenn Dar Pte Ltd","21 Woodlands Ter   Singapore 738446","Singapore 738446",1.453513,103.809578
"Yi Architects","Blk 808 French Rd #04-155 Kitchener Complex Singapore 200808","Singapore 200808",1.308475,103.862009
"YKK AP S'pore Pte Ltd","7 International Business Pk #02-02 TechQuest Singapore 609919","Singapore 609919",1.325543,103.749849
"Yoli Engrg & Construction Pte Ltd","158 Tagore Lane   Singapore 787569","Singapore 787569",1.385841,103.829486
"Ytl Ce & Builder Pte.Ltd.","63 Hillview Ave #10-20A Lam Soon Ind Bldg Singapore 669569","Singapore 669569",1.357084,103.763605
"Yuanda Curtain Wall (S) Pte Ltd","114 Lavender St #06-72, #06-73 CT HUB 2 Singapore 338729","Singapore 338729",1.311654,103.862322
"Yue Fong Trading Pte Ltd","Blk 1002 Eunos Ave 8 #01-52  Singapore 409497","Singapore 409497",1.32398,103.89979
"Yuen Mai Glass Merchant Pte Ltd","4 Loyang St   Singapore 508839","Singapore 508839",1.3750309,103.968997
"Zahidi A R Arkitek","212 Telok Kurau Rd #03-218  Singapore 423835","Singapore 423835",1.312087,103.910877
